Name,Address,P.O.Box,Phone,Mobile,Email,Webpage,Fax,Country,City
A. I. Secondary School,Satungal,,4310618,,,www.ai.nepal-schools.com,,,
A. J. Secondary School,Suryavinayak,,6614045,,,,,,
A. J. Wild Institute of Advanced Studies,Maharajgunj,,"4428197,4413137",,info@ajw.com.np,www.ajw.com.np,,,
Aakash Deep Eng. School,Jorpati,,4910797,,,,,,
Aakriti English Boarding School,Koteshwor,,4478790,,,,,,
Abenisher Boarding School,Butwal,,540397,,,,,,
Aberdeen International Education Foundation,Jawalakhel,,"5536298,5530889",,aberdeen_aief@yahoo.com,,,,
Abhishek Gyanmandir,Kapan-3,,4810055,,,,,,
Abhiyan Public School,Balaju,,2170182,,abhiyanph@gmail.com,,,,
Academy Boarding High School,Maharajgunj,,"4720191,4370619",,,,,,
Academy Boarding School,Basundhara,,4362871,,,,,,
Academy of Sacred Hearts,"SwoyambhuMarg,Chhetrapati","2295,Ktm","4263048,4265954",,,,,,
Achiever's Higher Secondary School,Rupandehi,,560630,,,,,,
Achme Academy,Bhimsengola,"21880,Ktm",4487485,,theachme@enet.com.np,,4487485,,
Acme Engineering College,Sitapaila,"8849,Ktm","4282962,4280445",,acme@acme.edu.np,www.acme.edu.np,4282946,,
Active Academy Higher Secondary School,Basundhara,,4386659,,active@gmail.com,,,,
Active Ideal English School,Kathmandu,,4770551,,,,,,
Acton Pre-Primary School,Kuleshwor,"13709,Ktm","4280569,4278286",,actonpreschool@hotmail.com,,4280293,,
Acton Pre-primary School,Kuleshwor,13709,"4280569,428286",,actonpreschool@hotmail.com,,4280293,,
Adarsh Ajada Higher Secondary School,AdarshChowk,,6610580,,,,,,
Adarsh Janapremee English Higher Secondary School,Kausaltar,,"6630967,6914696",,,,,,
Adarsh Kalika Byawasayik Madyamik,SahidMaidan,,522647,,,,,,
Adarsh Sishu Shiksha Nikunj Boarding,MalayaRoad,,521575,,,,,,
Adarsha Bal Higher Secondary School,"Beretar,Lamjung",,066-529311,,,,,,
Adarsha English Boarding High School,Syangja,,063-460165,,,,,,
Adarsha English Boarding High School,Kumaripati,"13302,Ktm","9721386775,9841396848",,adarsha_school@hotmail.com,,,,
Adarsha English Secondary Boarding School,Parbat,,"067-420409,420398",,,,,,
Adarsha Higher Secondary School,"Deurali,Palpa",,075-529399,,,,,,
Adarsha Higher Secondary School,Ilam,,027-520053,,,,,,
Adarsha Higher Secondary School,"Chatara,Sunsari",,521455,,,,,,
Adarsha Higher Secondary School,Nepalgunj,,521506,,,,,,
Adarsha Jyoti English High School,Gundu,,6614045,,,,,,
Adarsha Kanya Niketan Higher Secondary School,MangalBazar,,5521488,,,,,,
Adarsha Madhyamik Bidhyalaya,Bhadrawas,,4450201,,,,,,
Adarsha Saral Secondary School,Nagbahal,,5534539,,adarsha.edu@ntc.net.np,,,,
Adarsha Saula Yobak Secondary School,Bungamati,,"2210203,5590960",,,,,,
Adarsha Vidhya Mandir Higher Secondary School,"Ghailaduwa,Jhapa",,023-520996,,,,,,
Adarsha Vidhyamandir Higher Secondary School,"Ramrekha,Baglung",,068-520272,,,,,,
Adarsha Vidya Mandir (A.V.M.),Manbhawan,,"5521332,5524876,5548014",,avm@info.com.np,www.avm.nepal-schools.com,5524876,,
Adarsha Yog Hari Higher Secondary School,Lainchaur,"1893,Ktm","4413387,4435482",,ayhhss@wlink.com.np,,,,
Adarsharaj Secondary School,Surkhet,,083-521176,,,,,,
Adarshila Academy,Minbhawan,,2101320,,,,,,
Adinath Secondary School,"Chobhar,Kirtipur-14",,4330230,,,,,,
Advance International Model School (AIMS),Prayagpokhari,,"5523560,5521482",,,,,,
Advanced Academy,Kopundole,,5528307,,,www.advancedacademy.edu.np,,,
Advanced College of Engineering & Management,Kupondole,8975EPC1866,"5522852,5528397",,info@acem.edu.np,www.acem.edu.np,5550602,,
Advanced English Boarding School,Hadigaon,,"4438842,4438916",,info@advance.edu.np,www.advanced.edu.np,,,
Adwitiya Boarding High School,Balaju,,4362090,,,,,,
Aims International College,Lagankhel,,"5521482,5535438",,,,,,
Aishworya Vidhya Niketan Higher Secondary School,"Dhangadhi,Kailali",,"091-521079,521072",,,,,,
Ajai Higher Secondary School,Gulmi,,079-529300,,,,,,
Ajay kumar mahato,"Sarlahi,Ishworpur-7Ramnagar",,9844458211,,ajaymahato33361@gmail.com,,,Nepal,
Ajay Sikshya Shadan,Thashikhel,,5541028,,,,,,
Akriti English Boarding School,SubidhaNagar,,4478790,,,,,,
Alakapuri High School,Bishalnagar,,4417246,,,,,,
Albert English Sec. B. School,Maitidevi,,4425936,,albert_maitidevi@yahoo.com,,,,
Albert Eynestine Academy,Handugaun-5,,4436933,,,,,,
Alka Puri H. Sec. School,Bishalnagar,,4417246,,,,,,
Alka School,Gyaneshwor,,"4411271,4429806",,alkaschool@gmail.com,,,,
All Secondary School,Gaurinagar-7,,4476589,,,,,,
Alliance Academy Higher Secondary School,"NewBaneshwor,Thapagaun","4880,Ktm","4493198,4491439,4491598",,info@alliance.edu.np,www.alliance.edu.np,,,
Alliance Academy Higher Secondary School,NewBaneshwor,,"4493198,4491439",,info@alliance.edu.np,,,,
Allide Co. Ed.,Putalisadak-32,,"4436024,4433415",,,,,,
Alok Vidyashram,Gaushala,"806,Ktm","6219909,2080441",,alokvidyashram@gmail.com,www.alokvidyashram.edu.np,4228324,,
Alpha's Secondary Boarding School,Jawalakhel,"347,Ktm",5527802,,,,,,
Alpine International Namuna Higher Secondary School,Sunsari,,522572,,,,,,
Alpine Valley School,Chandol,,4422672,,alpinevs@mail.com.np,www.avschool.net,,,
Amar Adarsha English School,Mulpani,,"2141516,4467474",,,,,,
Amar Adarsha School,Kapan-3,,16226206,,,,,,
Amar English High School,Tokha,,6221143,,,,,,
Amar English Secondary School,Tokha,,4217117,,,,,,
Amar Higher Secondary School,"Bihunkot,Baglung",,068-529302,,,,,,
Amar Jyoti Boarding School,Kalanki,,"4273159,4288338",,,,,,
Amar Jyoti Boarding School,Matepani,,521183,,,,,,
Amar Sahid Dasarathchandra Higher Secondary School,Bardiya,,084-460138,,,,,,
Amar Shishu Vidyalaya,Kopundole,"1476,Ltp",5522172,,,,,,
Amarjyoti Higher Secondary School,Surkhet,,083-520574,,,,,,
Amarpur Higher Secondary School,Panchthar,,024-529130,,,,,,
Amarsingh Higher Secondary School,Pokhara-20,,"520359,524894",,,,,,
Amber Everest Boarding School,Bharatpur,,056-520363,,,,,,
Ambition,OldBaneshwor,,4470880,,info@ambition.edu.np,,,,
Ambrosia Ideal Secondary School,Satungal,,"4310618,4312330",,,,,,
Ameeti Higher Secondary School,"Charpane,Jhapa",,023-540486,,,,,,
Amrit Aadarsha Higher Secondary School,Baglung-2,,068-520258,,,,,,
Amrit Adarsha Secondary Boarding School,Baglung,,"068-520331,520664",,,,,,
Amrit Secondary Boarding School,"Mhenpi,Nayabazar",,4358722,,,,,,
Anal Jyoti Secondary Boarding School,Sunakothi,,"5570185,5572718",,,,,,
Ananda Bhumi Higher Secondary School,Maitidevi,"13664,Ktm","4421453,4429442",,abbhs@ntc.net.np,,,,
Ananda Higher Secondary School,Surkhet,,083-529318,,,,,,
Ananda Kuti Vidyapeeth School,Swayambhu,,"4271499,4272063",,,,4270826,,
Ananda Vidya Mandir,Koteshwor,,6630731,,,,,,
Anandakuti Vidyapeeth Boarding High School,Swoyambhu,,"4272063,4271499",,akvp@infoclub.com.np,,4270826,,
Anant Secondary School,Siddhipur,,5581025,,anantschool@wlink.com.np,,,,
Angel Lord Academy High School,Koteshwor,"1571,Ktm",4601241,,angel_lord98@yahoo.com,,,,
Angel's Boarding School,Bhotebahal,,4256285,,,,,,
Angels Garden School,Kapan-3,,4810738,,,,,,
Angels Homes School,Chabahil-7,,4491655,,,,,,
Angels World Int'l School,Baneshwor,,9851063883,,,,,,
Angels' Garden Academy,Samakhushi,,4366143,,,,,,
Angels' Heart Secondary School,Manamainju,,"4027233,4027244",,info@angels.edu.np,angels.edu.np,,,
Ankur Shikshya Niketan,Teenkune,,4112415,,ankukul@hotmail.com,,,,
Ankur Vidyashram School,Battisputali,,4110200-201,,,,,,
Anmol Jyoti Sec. School,Bhimsengola,,"4499807,2042476",,,,,,
Anmol Jyoti Secondary English Boarding School,Maligaun,"2800,Ktm",4429248/49,,rs_anmol_school_om@hotmail.com,www.nepal-schools.com/anmol,,,
Annapurna College,"Jyatha,Kantipath",,"4249641,4249739",,annaschool@wlink.com.np,,,,
Annapurna English Secondary School,Sinamangal,,"4112190,6630218",,annapurnaschool@yahoo.com,,,,
Annapurna Higher Secondary School,"Kalagaun,Achham",,097-620119,,,,,,
Annapurna Higher Secondary School,Kantipath,,"4249641,4249739",,annaschool@wlink.com.np,,,,
Anshubarma Higher Secondary School,Bardia,,084-429454,,,,,,
Antra School Of Music & Dance,"Maharajgunj,Chakrapath",,"9851017020,2313778",,,,,,
Anupam Secondary Boarding School,Lazimpat,"11826,Ktm",4422726,,info@avs.edu.np,,,,
Anupam Vidya Sadan Higer Secondary School,Lazimpat,,"4422726,4427598",,,,,,
Apex Academy Higher Secondary School,Chitwan,,056-526027,,,,,,
Apex Life School,MidBaneshwor,,"4470877,4469113",,apexlifeschool@gmail.com,,,,
Apollo International Academy,Subidhanagar,,"2052526,4111569",,apolloacademy@rocketmail.com,,,,
Apollo International Academy P. Ltd.,"Subidhanagar,Tinkune",,"4111569,2052526",,,,,,
Appex Higher Secondary School,Bharatpur,,056-526027,,,,,,
Aradhana Academy Boarding School,Mitrapark,,4353659,,aradhanaacademy@hotmail.com,,,,
Araniko English Boarding School,Banepa,,661278,,,,,,
Araniko Higher Secondary School,Morang,,525123,,,,,,
Araniko Memorial Boarding School,SiddharthaMarga,,522150,,,,,,
Arghakhanchi Higher Secondary School,"Sandhikharka,Arghakhanchi",,077-420121,,,,,,
Aristota Boarding School,"CampusRoad,Kailali",,091-522569,,,,,,
Arjai Higher Secondary School,"Arjai,Gulmi",,079-529300,,,,,,
Arjun Boarding School,"Tamghas-1,Gulmi",,079-520176,,,,,,
Arniko Awasiya Higher Secondary School,Morang,,525123,,,,,,
Arniko Boarding School,Bhotebahal,,4253903,,abhs@wlink.com.np,,,,
Arniko Boarding School,Tintoliya,,525123,,,,,,
Arpan Secondary Boarding School,Deurali-3jhylbasNP,,78540410,,,,,Nepal,
Arun English School,Jayabageshwori,,16215967,,,,,,
Arun Jyoti Vidya Mandir H.,"Baudha,Jorpati",,4484520,,arunschool@yahoo.com,,,,
Arundeep Academy,Mid-Baneshwor,,4470773,,,,,,
Arunima College,Boudha,,"4470223,4478574",,arunimacollege@gmail.com,www.arunima.edu.np,,,
Arunima Educational Foundation,Boudha,,"4470223,4478574,2296894",,,,,,
Arunima Higher Secondary School,Boudha,,"4470223,4478574",,arunimaschool@wlink.com.np,,,,
Arunima Shishu Sadan,"Boudha,Mahankal",,4489649,,arunima1@ntc.net.np,www.arunima.edu.np,,,
Arunodaya Academy,Bijayashwori,,4672362,,info@arunodaya.edu.np,www.arunodaya.edu.np,,,
Arunodaya Boarding School,Dharan,,520720,,,,,,
Arunodaya High School,Mandikhatar-9,,4378653,,,,,,
Arunodaya Higher Secondary School,Chitwan,,056-529333,,,,,,
Arunodaya Madhyamik Bidyalaya,Jorpati,,4470368,,,,,,
Asha English School,Ratopul,,4412057,,,,,,
Asha Mandir High School,Maitidevi,,"4417527,4429260",,,,,,
Ashirvad English Boarding School,Baluwatar,,"4430446,4431679",,,,,,
Ashirwad College,Samakhushi,,4352589,,ashirwadcollege@hotmail.com,,,,
Ashish English Boarding School,Jawalakhel,,5000269,,abeschool@yahoo.com,,,,
Asian College of Higher Studies,Ekatakuna,8975EPC1060,"5000266,5000156",,info@acm.edu.np,www.acm.edu.np,,,
Asian Public School,Anamnagar,,"4771016,4770624",,,www.asianpublicschool.edu.np,,,
Asmita English School,Sainbu-4,8975EPC1251,5591288,,asmitaschool@yahoo.com,,,,
Asphodel Public School,Kalikasthan,,4432596,,bivakalika@wlink.com.np,,,,
Atisha Primary School,Ekantakuna,"9574,Ktm",5526277,,,,,,
Awareness International Academy (AIA),Shankhamool,24976,"4782629,4782712",,awareness_2006@hotmail.com,www.aiaschool.edu.np,,,
B. R. L. Memorial School,Kupondole,"594,Ktm",5541835,,brl@wlink.com.np,,,,
B.N. Academy (Basundhara National Academy),Dhapasi-9,,"4356521,016203022",,,,,,
B.P. Memorial Int'l Academy,Jitpurphedi-1,,"2002122,2171501",,,,,,
Baal Vidya Griha High School,Kumaripati,8975EPC523,5546323,,,,,,
Baba Batika Secondary School,Tilganga,,"4112818,9751005345",,,,,,
Baba Boarding High School,Chabahil,,"4471631,4474457",,babab@mail.com.np,www.baba.edu.np,4474493,,
"Baba Boarding High School, Baba Academy,Baba Kinderworld",ChabihalKathmandu,,4471631,,baba@ccsl.com.np.,www.baba.edu.np,4474493,,
Baba Kinderworld Pre School,Chabahil,,"4471631,4474457",,babab@mail.com.np,www.baba.edu.np,4474493,,
Baby Angel English School,Dallu,,4278323,,,,,,
Babyland English Secondary School,Gongabu,,4353552,,info@babylandess.com,www.babylandess.com,,,
Babylon National School,Shantinagar,,"4108073,4108905",,babylon@mail.com.np,,,,
Bagh Bhairab Boarding School,Kirtipur,"4164,Ktm",4330141,,,,,,
Bagmati Boarding Higher Secondary School,Sukedhara,"8312,Ktm","4372218,4374887",,bmc@hotmail.com,,,,
Bagmati English Boarding School,WankhyoTole,,662220,,,,,,
Bahuudesya Public High School,Dharan-12,,520267,,,,,,
Baijanath Higher Secondary School,Kanchanpur,,099-521330,,,,,,
Bal Ankur Secondary Boarding School,Lalitpur,,5570041,,,,,,
Bal Bidya Boarding School,RamBazar,,521644,,,,,,
Bal Bikash Boarding School,Budhanilkantha,,4373781,,shresthamahesh@hotmail.com,,,,
Bal Bikash Pratisthan,Gaurinagar-7,,4486184,,,,,,
Bal Deeksha Sadan,Gwarko,,5540623,,bdsschool@wlink.com.np,,,,
Bal Geetanjali English High School,Mulpani,,6222999,,,,,,
Bal Geetanjali School,Chandol-4,,2081693,,,,,,
Bal Janata Higher Secondary School,Dang,,083-529023,,,,,,
Bal Jyoti Secondary School,Piple,,520145,,,,,,
Bal Kalyan Vidya Mandir Secondary Boarding School,Biratnagar,,"526960,526295",,,,,,
Bal Kumari English School,Narayangadh,,"056-521295,520964",,,,,,
Bal Kumari Rastriya Prathamik Vidyalaya,Narayangadh,,056-521260,,,,,,
Bal Kumari Secondary School,Narayangadh,,056-520505,,,,,,
Bal Namuna Secondary School,Baluwatar,,4438749,,,,,,
Bal Prabhat Boarding School,NewRoad,,526237,,,,,,
Bal Sewa Secondary School,Jhonchhe,,4247440,,,,,,
Bal Sirjanalaya English Boarding High School,Jorpati,,4478122,,,,,,
Bal Tara Pratishthan,Balambu,,4310562,,,,,,
Bal Udhyan B. H. School,Dillibazar,,4417749,,,,,,
Bal Vidhya Mandir School,Bhaktapur,"11174,Ktm",2023705,,,,,,
Bal Vinod Ma. Vi.,Nahtole,,5524552,,,,,,
Balambu Secondary School,Balambu,,4310541,,,,,,
Balkalyan Higher Secondary School,"Liwang-5,Rolpa",,086-449111,,,,,,
Balkiran Boarding School,Panchthar,,024-520015,,,,,,
Balkot English Secondary School,BalkotChowk,8975EPC5353,"6631447,6631454",,,,,,
Balkumari Higher Secondary School,Chitwan,,056-520505,,,,,,
Balmiki Bidhya Niketan,Bhaktapur,,6613922,,,,,,
Balmiki Secondary School,Biratnagar-11,,524445,,,,,,
Balodaya Secondary Boarding School,Pardi,"178,Pkr","463664,525442",,bebs@fewanet.com.np,,,,
Bandana Eng. School,Kalanki,,4288604,,,,,,
Banepa Valley Boarding School,Banepa,,663165,,,,,,
Baneshwor Campus,Shantinagar,"11570,Ktm","4620310,4620332",,baneshworcampus2047@yahoo.com,www.baneshworcampus.edu.np,,,
Banke Shikshya Higher Secondary School,Nepalgunj,,520310,,,,,,
Bansa Gopal Madhyamik Vidyalaya,Chaughada,,520192,,,,,,
Barahi Higher Secondary School,Kaski,,520360,,,,,,
Barahi Madhyamik Vidyalaya,MalePatan,,520360,,,,,,
Basanta Ritu B. H. School,Samakhusi,,4353522,,,,,,
Basic Learning Sec. School,Satungal,,4314397,,,,,,
Basu Secondary School,Bhaktapur,,"6619014,6615257",,,,,,
Basundhara Public School,Bisalnagar,,4435662,,,,,,
Bauddha Secondary School,Baudha,"11483,Ktm",4472380,,bsef@enet.com.np,,,,
Baylor International Academy,Banepa,,"9841437825,9841006294",,,,,,
BDS Higher Secondary School,Gwarko,,"5546744,5542642,5535644",,bdsschool@wlink.com.np,,,,
Beersheba Natioal Higher Secondary School,"Nagarjun-7,Kathandu",,15140012,9856048185,beershebaschool053@gmail.com,,,Nepal,
Beginners' English School,Putalisadak,"12184,Ktm","4228699,4227633",,,,,,
Bella Pre-School,Chhauni,"20061,Ktm",4285277,,bella@infoclub.com.np,,,,
Bhadgaun Sinuwari Higher Secondary School,Jhumka,,"562206,562037",,,,,,
Bhadraghale Multiple College,Baneshwor,,"4479768,9841311055",,,,,,
Bhagawati Higher Secondary School,"Sittad,Baitadi",,095-521053,,,,,,
Bhagwati Higher Secondary School,Khotang,,036-429122,,,,,,
Bhagwati Higher Secondary School,"Okhre,Terhathum",,026-460116,,,,,,
Bhairab Nawadip Higher Secondary School,"Chhahara,Palpa",,075-529377,,,,,,
Bhairahawa Higher Secondary School,Rupandehi,,520933,,,,,,
Bhakta Vidyashram,Raktakali,,4264177,,,,,,
Bhaktapur English Secondary School,Sanothimi,,"6630666,9841377862",,besscreation@wlink.com.np,,,,
Bhakti International Academy,Bansbari,"24429,Ktm","4372520,9841315452",,bhakti_iacademy@yahoo.com,,,,
Bhakti Namuna Higher Secondary School,"Vodebadar,Lamjung",,066-529444,,,,,,
Bhanjyang Higher Secondary School,Taplejung,,024-469003,,,,,,
Bhanodaya Higher Secondary School,Bajura,,097-540333,,,,,,
Bhanu Bhakta Higher Secondary School,Syanja,,075-529555,,,,,,
Bhanu Higher Secondary School,"Paundi,Baglung",,068-529388,,,,,,
Bhanu Madyamik Bidyalaya,Goligarah,,520539,,,,,,
Bhanu Memorial English Boarding School,"CollegeRoad,Biratnagar",,524312,,bhanu@ccsl.com.np,,,,
Bhanubhakta Higher Secondary School,"Mangalbare,Ilam",,027-529005,,,,,,
Bhanubhakta Memorial English School,"Dangihat-5,Laxmimarga",,021-545182,,,,,,
Bhanubhakta Memorial Higher Sec. School,"Panipokhari,Ktm","10597,Ktm","4415538,4413586",,info@bhanu.edu.np,,4426931,,
Bhanubhakta Memorial Higher Secondary School,Panipokhari,,"4415538,4413586",,,,,,
Bharawi Science Academy,Dharan,,521871,,,,,,
Bhasha Higher Secondary School,"Kagate,Dhankuta",,026-520583,,,,,,
Bhassara Secondary Boarding School,Gabahal,8975EPC1020,5523065,,bhassara@wlink.com.np,,,,
Bhawani Bhairab Adarsha Higher Secondary School,"Khasauli,Palpa",,075-529399,,,,,,
Bhawani Higher Secondary School,Gorkha,,064-429338,,,,,,
Bhawani Higher Secondary School,Sindhuli,,047-520235,,,,,,
Bhawani Kalika Higher Secondary School,Bhawanichowk,,461124,,,,,,
Bhawaniprasad Sakalprasad Ramprasad Janata Higher Sec. H. School,"Kalyanpur,Saptari",,031-520262,,,,,,
Bhim Awasiya Vidyalaya,ChaukiTole,,520242,,,,,,
Bhimsen Higher Secondary School,"Bihun,Baglung",,068-529302,,,,,,
Bhirkuti Secondary School,Mahankal,,"4821837,4497752",,reachbhrikuti@hotmail.com,,,,
Bhola Singh Lions Mithila English School,ZeroMile,,520770,,,,,,
Bhrihaspati Vidhya Sadan Secondary School,Naxal,"7763,Ktm","4418031,4418030",,bvs@ntc.net.np,,,,
Bhrikuti Higher Secondary School,Nepalgunj,,520563,,,,,,
Bhrikuti Secondary Boarding School,"Itahari-1,Sunsari",,580891,,,,,,
Bhrikuti Women School,"Milanchowk,NewBaneshwor",,"4495323,2296254",,,,,,
Bhutandevi Madhyamik Vidyalaya,SchoolRoad,,520420,,,,,,
Bibek Secondary Boarding School,Sinamangal,,"2063131,4412884",,,,,,
Bibhuti Pragya Niketan,Dhumbarai,,"4431939,4425617",,,,,,
Bibhuti Vidya Mandir English School,Chandragadi-6,,023-520683,,,,,,
Bibhuti Vidya Mandir English School,Chandragadi-6,,520770,,,,,,
Bidhya Nilkantha School,Dang,,082-560308,,,,,,
Bidur English Boarding Secondary School,"Bhadrapur-5,Jhapa",,"023-520226,520835",,,,,,
Bidya Sagar Secondary School,Kavre,,661999,,,,,,
Bidyadaya English School,Dallu,,4281121,,,,,,
Bidyarthi Niketan Secondary School,Bhaktapur,,6610386,,,,,,
Bijay Smarak Secondary School,Dillibazar,,4412479,,,,,,
Bijaya Higher Secondary School,Dailekh,,089-429514,,,,,,
Bijayapur Awasiya Higher Secondary School,Bijaypur,,520616,,,,,,
Bijeshwari Gyan Mandir Secondary School,Swayambhu,,"4671552,4271498",,,,,,
Bijeswori Secondary School,Bijeshwori,,"2012307,2012307",,bbschool@wlink.com.np,,,,
Bikalpa Gyan Tatha Bikas Kendra,"Boudha,MahankalPhant","23365,Ktm",4480085,,bikalpa@bikalpa.org,www.bikalpa.org,4471179,,
Binayak English School,OldBaneshwor,,"4468161,4106104",,,,,,
Bindabasini Madhyamik Vidyalaya,BatuleChaur,,440065,,,,,,
Bindhyabasini High School,Tokha,,"4375412,4370175",,,,,,
Bipul Siksha Niketan,Jorpati,,4475246,,,,,,
Birat Boarding School,Shankhamul,,"4783212,4600628",,,,,,
Birat Boarding School,Handigaun-5,,"2081275,016202075",,,,,,
Birat English Secondary School,"Sanothimi,Bhaktapur",,6637095,,info@bes.edu.np,www.bes.edu.np,,,
Birbhakti Higher Secondary School,"Tarkughat,Lamjung",,066-529444,,,,,,
Birendra Aishwarya Vidhya Sadan B.,Budhanilkantha,,4650289,,,,,,
Birendra Higher Secondary School,Arghakhanchi,,077-429377,,,,,,
Birendra Higher Secondary School,Baitadi,,095-520137,,,,,,
Birendra Higher Secondary School,Bhojpur,,029-429201,,,,,,
Birendra Jyoti Higher Secondary School,"Sotang,Solukhumbhu",,038-621216,,,,,,
Birendra Sainik Awasiya Mahavidhyala,Sallaghari,,"6610051,6610872",,sainikschool@bsamb.edu.np,,6610331,,
Birendra Vidhyamandir Higher Secondary School,"Tikapur,Kailali",,091-560220,,,,,,
Birta Higher Secondary School,"Birtamod,Jhapa",,"023-541233,540968",,,,,,
Bishnu Budhanilkantha Eng. School,Budhanilkantha,,"4373785,4378105",,dimondem@hotmail.com,,,,
Bishnu Memorial Boarding School,Dharan,,520816,,,,,,
Bishnudevi Shikshya Sadan,Satungal,,4310402,,,,,,
Bishnumati (BST) College,Gongabu,,"4354704,4353708",,bstcollege@wlink.com.np,www.bstcollege.edu.np,,,
Bishnumati Secondary Boarding School,Gongabu,,4353708,,bstcollege@wlink.com.np,,,,
Bishwa Adarsha Higher Secondary School,Itahari,,582163,,,,,,
Bishwa Shanti Higher Secondary School,Deurali,,529301,,,,,,
Bishwa Shiksha Sadan,Chabahil,,"4484212,4484508",,bss_ert@yahoo.com,,,,
Blooming Scholars' Academy,Anamnagar,,4232343,,school.bsa@gmail.com,,,,
Blooms Academy,Tahachal,,4276828,,,,,,
Blossom Academy,Gurjutar,,4370944,,,,,,
Blue Bell English School,Baneshwor,,4108394,,bluebell2062@yahoo.com,,,,
Blue Bird College,Kumaripati,8975EPC2750,"5538944,5555142",,info@bluebird.edu.np,www.bluebird.edu.np,,,
Blue Bird English School,Thaiba,,16915806,,,,,,
Blue Bird School,Maijubahal,,"4487612,4374859",,,,,,
Blue Horizon Academy,Lazimpat,,4432797,,,,,,
Blue Sun School,Hadigaun,,4431779,,bluesun@htp.com.np,,,,
Blue Sun School,Swambhu,,4301917,,,,,,
Blue Wren Int'l B. H. School,Kalanki,,4272237,,,,,,
Bluebird Secondary School,Maharajgunj,"4157,Ktm",4418134,,,,,,
Boarding Madhyamik Bidyalaya,Dharan,,520227,,,,,,
Boarding Middle School,Itahari,,"580323,580586",,,,,,
Bon Skylark International School,Chabahil,,4478537,,bonsl@enet.com.np,,,,
Bostan English School,Gyaneshwor,,"4411362,4410076",,,,,,
Boudha Children Heaven H.,Boudha,,4820722,,,,,,
Boudha English Secondary School,Boudha,"11483,Ktm",4472380,,,,,,
Brainland Academy,Tinkune,,2052526,,,,,,
Bramharupa Higher Secondary School,Lekhnath-13,,529344,,,,,,
Bridgewater International School,Lazimpat,,4001020,,info@bridgewaternepal.com,www.bridgewaternepal.com,,,
Bright Angels' Boarding School,"Mahadevsthan,Checkpost",,"4312449,4313965,9841326793",,,,,,
Bright Future English Boarding School,Dhading,,010-529188,,,,,,
Bright Future High School,Santinagar,,4108150,,,,,,
Bright Future Higher Secondary School,Tanahun,,065-570171,,,,,,
Bright Future School,Satdobato,,5521997,,,,,,
Bright Future Secondary School,"Tinthana-4,Naikap",,"4312178,4312033",,brightfuture12@yahoo.com,,,,
Bright Heaven Boarding School,Balaju,,"4350485,4350108",,,,,,
Bright Land Eng. Sec. School,Balaju,,4356041,,info@brightland.edu.np,,,,
Bright Star English School,Bhaktapur,,"6615203,2133125",,,,,,
Bright Star English School,"Panauti-12,Khopasi",,"011-662841,663752",,,,,,
Brighter Land Secondary Boarding School,Banke,,521324,,,,,,
Brightland School,Nepalgunj,,521324,,,,,,
Brihaspati Higher Secondary School,Hetauda,,521207,,,,,,
Brihaspati Higher Secondary School,Rupandehi,,520138,,,,,,
Brihaspati Vidyasadan,Naxal,,"4418031,4418030",,bvs@ntc.net.np,,,,
British Gorkha Eng. School,Chuchchepati-6,,4469824,,,,,,
British Gurkha Academy,Bansbari,,"4373607,4371814",,,,,,
British Gurkha College,Bansbari,8976EPC4139,"4017806,4378483,4371066,4373607",,bgc@graduate.org,www.britishgurkhacollege.com.np,4378433,,
Brookfield International College,Sinamangal,,"4110646,4492597",,info@brookfield.edu.np,www.brookfield.edu.np,4110573,,
Brookfield Secondary School,Sinamangal,,2191295,,,,,,
Buddha Adarsha Primary Boarding School,Dharan,,520975,,,,,,
Buddha Jyoti English Boarding School,Dallu,,"4270860,4354227",,,,,,
Buddha Prabhat Eng. School,Chabahil,,4498209,,,,,,
Buddha Vidya Mandir,Hetauda,,521232,,,,,,
Buddhajyoti Higher Secondary School,Rupandehi,,520163,,,,,,
Buddhilal Vidhyamunar Higher Secondary School,"Bhagtpur,Saptari",,031-520607,,,,,,
Budha Subba English High School,GangalalRoad,,522693,,,,,,
Budhanilkantha Ashram School,Budhanilkantha,,4370202,,gunjbh@yahoo.com,,,,
Budhanilkantha Higher Secondary School,Narayansthan,"1018,Ktm","4371637,4371670",,bnks-pr@ntc.net.np,,4371640,,
Budhanilkantha School,Morang,,524168,,,,,,
Budhanilkantha School,Budhanilkantha,,"4371637,4371670",,bnks_pr@ntc.net.np,,,,
Budhuk Higher Secondary School,"Budhuk-2,Dhankuta",,026-529538,,,,,,
Butwal Elite English School,Ward3,,540433,,,,,,
Butwal Madyamik Bidyalaya,NayaSadak,,540221,,,,,,
Butwal Public School,"Yogikuti,Butwal",,544794,,butwalpublicschool@indiatimes.com,www.geocities.com/butwalschool,,,
Cambridge Academy,BabarMahal,,4223829,,,,,,
Cambridge College,Kuleshwor,"12765,Ktm","4277063,4279626",,,www.cambridgecollege.edu.np,,,
Cambridge Int'l Boarding Higher Secondary School,PuranoNaikap,,4273858,,,,,,
Cambridge Public High School,OldBaneshwor,,"4467161,4464235",,cpschool_np@yahoo.com,,,,
Cambridge Public School,Saraswotinagar,,"2061089,4460103",,,,,,
Camellia English School,PushpalalMarga,,525340,,,,,,
Camellia Higher Secondary School,Kuleshwor,,"4278303,4278853",,camellia@wlink.com.np,www.nepalschools.org,,,
Campion Academy,Kumaripati,"1415,Ktm","5535131,5537959",,campion@academy.wlink.com.np,www.campion.edu.np,4423724,,
Campion International School,"Kasibari,Silguri,India",,0091-353-2574641-46,,info@campionintl.in,www.campionintl.in,,,
Campion Kathmandu Higher Secondary School,Gahanapokhari,"1415,Ktm","4431494,4431495",,ckcedu@mos.com.np,www.campion.edu.np,4423724,,
Campion School,Lagankhel,"1415,Ktm","5535087,5524543",,cschool@wlink.com.np,www.campion.edu.np,4423724,,
Canvas Boarding School,Handigaun-5,,"4438916,4438842",,,,,,
Canvas English B. H. School,NewBaneshwor,,4479136,,canvas@wlink.com.np,,,,
Canvas Int'l  College,Basundhara,,"4380304,4354280",,info@canvascollege.edu.np,www.canvascollege.edu.np,4354280,,
Capitol Hill College,Teku,,2003303,,capitolhill@wlink.com.np,,4270345,,
Cardinal International Boarding High School,Dallu,,4710073,,,,,,
Care English S. B. School,Gaushala,,4113525,,,,,,
Caribbean Higher Sec. School,Manbhawan,,"5550676,5537314",,info@caribbean.edu.np,www.caribbean.edu.np,,,
Caribbean School,Manbhawan,,5528812,,,,,,
Carmel High School,BuddhaChowk,,521020,,,,,,
Caspian Valley College,Kumaripati,8975EPC2685,"5524065,5554208",,info@caspian.edu.np,,,,
Celestial Homes School,Jorpati-4,,"4474520,4431375",,,,,,
Centennial Boarding School,Boudha,,4485312,,,,,,
Central Public Boarding School,Dhobichour,,"4258718,4216461",,centralplc_@hotmail.com,,,,
Central Public School,Nepaltar-9,,4352296,,,,,,
Century Boarding School,Baluwatar,,"4411930,4378267",,,,,,
Chahana Int'l Academy,Bhimsengola,,"4465880,4428361",,,,,,
Chahana Tri 'U' Boarding High School,Kapan,,4811753,,,,,,
Chaildren Herald Academy,Mahankal,,2074375,,,,,,
Chakra Janata Sahid Ganga Higher Secondary School,Sarlahi,,046-520227,,,,,,
Chandikaswori Eng. Sec.,Sundarijal,,4800334,,,,,,
Chandra Sanskrit Madyamik Bidyalaya,Dharan,,520243,,,,,,
Chandra Tara School,Lazimpat,,4412882,,,,,,
Chandragiri Bidhya Asharam,Thankot,,4310495,,,,,,
Charkhola Higher Secondary School,Ilam,,027-520396,,,,,,
Chaturbhujeshwor Janata Higher Secondary School,Sarlahi,,046-529018,,,,,,
Chelsea Int'l Academy And Gce A-level College,CenteralBaneshwor,2251,"4472902,4499662,",,chelsea@websurfer.com.np,,4472902,,
Chelsea International Academy,NewBaneshwor,"25201,Ktm","4472902,4499662,4483212",,chelsea@websurfer.com.np,www.chelseainternational.com.np,4482647,,
Chetana Sadan Eng. School,Kapan,,4811420,,,,,,
Chetana Vidyashram,Lamatar,,5580340,,,,,,
Chhorepatan Higher Secondary School,Chhorepatan,,460476,,,,,,
Child Nature Boarding School,Sanothimi,"20552,Ktm",6630532,,cnbs@ccsl.com.np,,,,
Children Develop Boarding School,RamBazar,,521644,,,,,,
Children Park Boarding School,Dhading,,"010-520222,520095",,,,,,
Children World Secondary School,"PaniTanki,Birgunj",,524593,,,,,,
Children's Eternal Academy,NayaBazar,,4358077,,,,,,
Children's Heaven School,Kapan,,4810259,,,,,,
Children's Heaven School,Kumaripati,,"5538328,5538621",,,SourceNPABSONSourceNPABSON,,,
Children's Model School,Baluwatar,"4747,Ktm",4438749,,cmsbaluwatar@yahoo.com,,4423396,,
Childrens Paradise Secondary Boarding School (CPS),Godawari-4,8975EPC1669,5560888,,cpsgodawari@wlink.com.np,www.nepal-schools.com,5560154,,
Chirag Higher Secondary Boarding School,Syangja,,073-460101,,,,,,
Chireshwor Janata Higher Secondary School,Dhanusha,,520107,,,,,,
Chundevi Secondary School,Thankot,,4312299,,,,,,
Chure Higher Secondary School,"Bagnaha,Bardia",,084-429512,,,,,,
CIT College & Higher Secondary School,Subidhanagar,9685,"4111840,4111655,2052677",,info@citnepal.edu.np,www.citnepal.edu.np,,,
City English School,Mahankal,,2140567,,,,,,
City Higher Secondary School,Morang,,535278,,,,,,
City Modern Montessori School,Anamnagar,,"2070859,4771485",,rp72@hotmail.com,,,,
Clinton School,Chabahil,,4471549,,,,,,
College for Higher Education,Birtamod,,"023-540016,540045",,,,,,
College of Applied Business,TangalDurbar,,4445763,,cab@wlink.com.np,www.cab.edu.np,4445763,,
College of Business & Social Studies,Morang,,525540,,,,,,
College of Business Management,"GurjuMarg,DillibazarHeight",3261,"4418869,4439716",,info@cbm.edu.np,www.cbm.edu.np,,,
Columbus College,NewBaneshwor,"23728,Ktm","4781747,4784883",,columbus@wlink.com.np,www.columbus.edu.np,,,
Columbus School,NewBaneshwor,,"4780976,4782266,4781747",,,www.columbus.edu.np,,,
Columbus School & College,NewBaneshwor,,4781747,,rajtanka@hotmail.com,,,,
Consience Int'l Academy,Mahankal,,4474765,,,,,,
Constellation Academic Garden English Boarding School,Bishalnagar,,4431683,,,,,,
Constellation School,Kapan,,2074177,,,,,,
Continental Academy,OldBaneshwor,,"4108706,9841271001",,,,,,
Conventry English Boarding School,Jorpati,,4478350,,,,,,
Corona International School,"Banasthali,DhungeDhara","1531,KTM","4880988,4880996",,school@corona.edu.np,www.corona.edu.np,,,
Cosmic International Academy,Koteshwor,,4601649,,,,,,
Cosmopolitan English B. School,Maharajgunj,,4377241,,,,,,
CPS College,Kumaripati,8975EPC2766,"5528419,5537695",,info@cps.edu.np,www.cps.edu.np,5537695,,
CPS Godawari,Godawari4,,5560818,,cpsgodawari@wlink.com.np,www.cpsgodawari.edu.np,5560154,,
CPS Higher Secondary School,Godawari,8975EPC1669,"5560888,5560818",,cpsgodawari@wlink.com.np,,5560154,,
Creative  Academy,Kritipur,,"4334107,4334123",,creativeacademy@edu.np,,,,
Creative British English School,BabarMahal,,"4256813,4258349",,,,,,
Creative English School,Chabahil,,4472091,,admin@creative.edu.np,www.creative.edu.np,,,
Creative Model Academy B. H. School,Lazimpat,,4436922,,creative@info.com.np,,,,
Crimson International College,ShankhamulChowk,,"4784628,4782414",,info@crimson.edu.np,www.crimson.edu.np,,,
Crystal Sharada,OldBaneshwor,,4470765,,,,,,
CVM Secondary School,"Gatthaghar,Bhaktapur","173,Ktm","6636290,6637375",,,,,,
D. A. V. Kedia Vishwabharati,Biratnagar,,522319,,,,,,
D. A. V. Rukmini Banarasi Kedia School,Birgunj,"43,Birgunj",522217,,,,522086,,
D. A. V. Sushil Kedia Bishwa Bharati Higher Secondary School,Jawalakhel,929,"5534426,5536626",,dav.college@gmail.com,www.davcollege.edu.np,977-1-5546440,,
D. A. V. Sushil Kedia Vishwa Bharati,"Sarlahi,Hariwon",,"046-529412,529405",,,,,,
Daffodil Boarding school,SarawatiNagar,13292,"4821723,4821824",,admin@daffodil.edu.np,www.daffodil.edu.np,4811779,,
Daffodil English School,Saptary,,033-560043,,,,,,
Daffodil Public School,"Kapan,Bekh-3",13292,"4810231,4821775",,admin@daffodil.edu.np,www.daffodil.edu.np,4811779,,
Daina Boarding School,Kapan,,"2141563,2314979",,,,,,
Dallu Awasiya Vidhyalaya,Dallu,"6151,Ktm","4670688,2013263",,,,,,
Damak Model Higher Secondary School,Damak-10,,023-580655,,,,,,
Damauli Higher Secondary School,Tanahun,,065-560362,,,,,,
Dang Valley Higher Secondary School,Dang,,082-560654,,,,,,
Darlam Danda Higher Secondary School,Palpa,,075-520341,,,,,,
Ded Raj Sewali Devi Todi D. A. V. Kedia Vishwa Bharati School,"40,SewaMarg,Birtabazar",,022-21319,,,,,,
Dedithumka Higher Secondary School,Kavrepalanchowk,,661519,,,,,,
Deep High School,Bhotebahal,,4254819,,deeplow@ntc.net.np,,,,
Deep Jyoti Bidya Mandir,Arjundhara-8,,023-540576,,,,,,
Deep Jyoti Boarding Secondary School,Gongabu,,4353677,,deep@col.com.np,,,,
Deep Kunj Secondary School,Bhainsepati,,5590581,,,,,,
Deep Sikha Boarding School,Dang,,082-560155,,,,,,
Deepika English School,Chabahil,,4481857,,,,,,
Deepika Shikshya Sadan,Kapan,,"4811002,4810914",,,,,,
Deepmala English Boarding School,Thecho,,"5570528,5571713",,,,,,
Deepshikha High School,Nayabazar,,4358380,,deepshikha@hons.com.np,,,,
Delight Kindergarten,Mahalaxmisthan,"7841,Ktm","5525053,5526632",,silversmith@infoclub.com.np,,,,
Deneb International School,NewBaneshwor,"5718,Ktm",4492338,,drpandey@wlink.com.np,,,,
Deneb International School,Kapan,,"016215877,016213960",,,,,,
Depot Secondary School,GhopaCamp,,"520094,521115",,,,,,
Desh Tilak Memorial School,Battisputali,,"4472356,4493631,2313157",,,,,,
Devachuli Higher Secondary School,Nawalparasi,,078-529506,,,,,,
Devkota Memorial Higher Secondary School,Morang,,"523419,527719,527721",,,,,,
Devkota Secondary School,Khajurgachhi-6,,023-529840,,,,,,
Devkota Secondary school,"Khajurjachhi-6,Jhapa",,9852676949,9851037577,hemkth@yahoo.com,,,Nepal,
Dhapakhel Secondary English School,Dhapakhel,,"5572246,9841268489",,,,,,
Dhapasi English B. School,Sukedhara,,4370978,,,,,,
Dharan Higher Secondary School,LaxmiSadak,,525441,,,,,,
Dharan Model School,SungavaMarg,,523426,,,,,,
Dharan Secondary Boarding School,LaxmiSadak,,520227,,,,,,
Dhaulagiri International School,Shankhamul,,4783677,,,,,,
Dhaulagiri School,Kapan,,2142868,,,,,,
Dhruba Tara Boarding High School,"Chapali,Budhanilkantha",,4375783,,dhrubatara_school@hotmail.com,,,,
Dhulikhel Sanjeevani Campus,"Dhulikhel,Kavre",,490074,,dhulikhelcampus@hotmail.com,www.collegenepal.com/dhulikhel,,,
Diamond English Medium School,Budhanilkantha,8975EPC4068,"4373785,4378105",,diamondemschool@hotmail.com,,,,
Dikshyanta Academy,Gongobu,,4354886,,,,,,
Dileshwori Higher Secondary School,Baitadi,,095-529366,,,,,,
Dipendra Police Boarding High School,Amarhat,,520992,,,,,,
Dipendra Police Boarding Higher Secondary School,Sanga,"3922,Ktm","661301,661302",,,,,,
Dipendra Police Boarding School,Dang,,"082-560039,560639",,,,,,
Dipendra Police Primary School,Samakhusi,,4356160,,,,,,
Dipendra Police Secondary Boarding School,Belchautara,"430,Tanahu",065-529343,,,,,,
Dipendra Police Secondary Boarding School,Doti,,094-429108,,,,,,
Dipsikha Boarding Higher Secondary School,"Ghorahi,Dang",,083-560155,,,,,,
Diptimaya Bal Awasiya Bidyalaya,Maharajgunj,"2069,Ktm",4418516,,,,,,
Division High School,Yengal,"5172,Ktm",4254448,,,,,,
Divya Gyan B. School,Phutung,,4353142,,gyan_bhumi@yahoo.com,,,,
Divya Gyan English Boarding High School,Tahachal,,4276061,,,,,,
Don Bosco H.S. School & College,NewBaneshwor,10736,"4781230,4782509,4780902",,,,4781974,,
Don Bosco School (Nilgiri),Biratnagar,,527801,,,,,,
Don International School,Sukedhara,,4380508,,,,,,
Dorji High School,Sinamangal,,4473913,,,,,,
Dreamland Public High School,Bagbazar,,4247602,,,,,,
Dullav Higher Secondary School,Gorkha,,064-429320,,,,,,
Dunai Boarding School,"Dunai,Dolpa",,"087-550009,4461349(Ktm)",,akhanda_dolpa@yahoo.com,,,,
Durbar High School,Ranipokhari,,4249890,,durbars@mos.com.np,,,,
Durga Bhawani Academy,Tilganga,,4471891,,paragon@info.com.np,,4495349,,
Durga Bhawani Academy,Dhumbarahi,,4425617,,,,,,
Durga Secondary School,Saptari,,031-520376,,,,,,
E. G. Pioneer School,Ittachhen,"2,Bkt",6612833,,egpioneer@enet.com.np,,,,
Eager Bridge Boarding School,"BirendraNagar,Surkhet",,083-521045,,,,,,
East Point Boarding School,Rani,,526906,,,,,,
East Pole English Secondary School,Jorpati,,"4910990,4491105",,,,,,
East Pole School,Boudha,,2142119,,,,,,
Eastern Star Secondary Boarding School,Damak-12,,023-580906,,esbs@ntc.net.np,,,,
Edify Int'l School,Kalanki,,"4276011,4271233",,info@edifyschool.edu.np,www.edifyschool.edu.np,,,
Edmund English School,Chabahil,,"4483955,4477404",,,,,,
Einstein Academy Higher Secondary School & College,MahalaxmiChowk,8975EPC719,"5530818,5544739",,krrai@wlink.com.np,www.einsteinacademynepal.com,5001755,,
Ek Jyoti School,Dharan,,520690,,,,,,
Ekata Primary School,Naradevi,,4263458,,,,,,
Ekata Sadan B. School,Anamnagar,,4770624,,,,,,
Ekata Sadan Higher Secondary School,Tangal,,"4431602,9851049505",,ekatasadanhigherss@gmail.com,www.ekatasadan.edu.np,,,
Ekita International School,Baluwatar,,4431679,,kishore_kc3@yahoo.com,,,,
Eklabya Formative English School,DeshiLine,,524957,,,,,,
Elegant Pearl English School,Balaju,,4352364,,,,,,
Elician English School,Thapagaun,,4492338,,,,,,
Elite Co-Education School,"Bhagwatibahal,Naxal","6335,Ktm","4434689,4429941",,,,4435585,,
Elixir Academy,"Kharibot,Kumarigal",,"4481840,4486865",,elixir@elixir.edu.np,www.elixir.edu.np,,,
Emerald Academy,Bhadrapur,,023-520807,,,,,,
Emerald English Secondary School,Chapagaon,,5570594,,,,,,
Emile Academy International,ShantiNagar,,"4622184,4620725,4620623",,emileacademy@yahoo.com,www.emileacademy.edu.np,,,
Erudite Academy,Lokanthali,,6632457,,,,,,
Essel World Kid's Pre School,Gyaneshwor,,4415937,,,,,,
Estimable English School,Kapan,,9841265232,,,,,,
Eternal - Light Public High School,"BahatiPokhari,Nayabazar","10697,Ktm",4358103,,,,,,
Eternal Prosperity Academy,Balaju,"1693,Ktm",4350319,,epa@hotmail.com,,,,
Eureka High School,Nepaltar,,4352296,,,,,,
Eureka High School,Koteshwor,,4491601,,,,,,
Eureka Secondary School,Dharan-4,,523941,,,,,,
Euro Kids,Tangal,"14493,Ktm",4422455,,,www.eurokidsnepal.com,,,
Everest College of Multiple Studies (ECMS),Golkopakha,"20407,Ktm","4352224,4352358",,emc@emc.edu.np,www.emc.edu.np,,,
Everest English School,"Mibachhen,Bhaktapur","3514,Ktm",6611211,,,,6611143,,
Everest Higher Sec. School,Sankhamul,,4783435,,,,,,
Everest Secondary English School,"Biratnagar-6,Morang",,524443,,,,,,
Everest Secondary School,Thaiba,,5560575,,esbschool@wlink.com.np,,,,
Everest Secondary School,Rupandehi,,541342,,,,,,
Evergreen English School,Ichangu,,"2084074,2317560",,,,,,
Eyelens English School,Dallu,,"4278169,4671756",,,,,,
Fairy Land Primary School,Lazimpat,,4427733,,,,,,
Fakirchanda Gami Higher Secondary School,Dhanusha,,521011,,,,,,
Farsatikar Higher Secondary School,Rupandehi,,529552,,,,,,
Farsawatakura Higher Secondary School,Arghakhanchi,,077-429355,,,,,,
First Step Child Care & Pre. School,Pulchowk,,"5524703,5523703",,,,,,
Fish Tail Boarding School,"Pardi,DamSide",,"461998,531116",,fishtailbs@wlink.com.np,,,,
Fluorescent Higher Secondary School,Baniatar,,"4361733,4382886",,,,,,
Forward Academy,Gongabu,,4363005,,aims2062@yahoo.com,,,,
Friendship Boarding Home,Dhobighat,,5540565,,,,,,
Future Star E. S. School,Jadibuti,,6634138,,,,,,
Future Star English Secondary School,Chagal,"4763,Ktm","4274570,4278700",,fusess@hotmail.com,www.futurestarktm.edu.np,,,
Future Star High School,Jawalakhel,,5522179,,,,,,
FW Taylor H. S. & College,Kalikasthan,,4418046,,,,,,
Gadhimai Mahendra Higher Secondary School,"Bhariyapur,Bara",,053-550180,,,,,,
Galaxy Boarding School,"Hasanpur,Kailali",,091-521363,,,,,,
Galaxy English Boarding High School,Rupandehi,,529511,,,,,,
Galaxy Public School,Gyaneshwor,,"4410076,4411362",,info@galaxy.edu.np,www.galaxy.edu.np,4416989,,
Galkot Higher Secondary School,Baglung,,068-529303,,,,,,
Gandaki Boarding School,Maitidevi,,"4439810,4414736,4439810",,,,,,
Gandaki Public B. School,"Nayabazar,Mhenpi",,4366234,,rc_bhatta@yahoo.com,,,,
Ganesh Boarding High School,Swoyambhu,"4380,Ktm",4270116,,,,,,
Ganesh English School,MadhyapurThimi,,6630570,,,,,,
Ganesh Himal Secondary School,Gongabu,,4353485,,,,,,
Ganesh Secondary School,Buddhanilkantha,,4370092,,,,,,
Ganesh Secondary School,MadhyapurThimi,,6630306,,,,,,
Ganga Secondary School,PuranoKalimati,,4282819,,,,,,
Gangchen Samling School (GS School),Boudha,"1620,Ktm",4914869,,schoolsamling@gmail.com,www.samlingschool.net,4470525,,
Garfield Academy,"Thasikhel,Lalitpur",,5534547,,,,,,
Gaukhuri Higher Secondary School,Terhathum,,026-461111,,,,,,
Gaumati Higher Secondary School,"Sidheshor,Sindhuli",,047-520136,,,,,,
Gauri Shankar Boarding School,Dolkha,,049-420383,,,,,,
Gauri Shankar High School,Bafal,,4270589,,,,,,
Gaurisankhar Higher Secondary School,RamechhapBazar,,048-520313,,,,,,
Gaurishankar Higher Secondary School,"Nijgadh,Bara",,053-529210,,,,,,
Gautam Buddha Memorial Higher Secondary School,Morang,,"526906,523056",,,,,,
Gautam High School,LaganTole,,4254504,,ghschool@wlink.com.np,,,,
Gautam High School,Parsa,,522624,,,,,,
Geetamata Secondary School,Bijeshwori,,4272351,,,,,,
Geetanjali English Secondary School (P.) Ltd.,Sorhakhutte,,"4359440,4381556",,gehss@yahoo.com,,,,
Gem Secondary,Dharan-18,,525643,,,,,,
Gems English School,NewRoadLine,,525643,,,,,,
GEMS Institute of Higher Education,"Khumaltar,Dhapakhel,Lalitpur",1794,"5003060,5003111",,gemschool@wlink.com.np,www.gems.edu.np,00977-1-5003131,,
Genesis Academy,"Boudha,BhuwalDanda",,"4460222,9851075082",,rajulama64@yahoo.com,,,,
Geneva Global School,Talchikhel,"8975,EPC966",5540684,,info@geneva.edu.np,www.geneva.edu.np,5540684,,
Genuine Secondary English School,Bhaktapur,,6612651,,genschool@wlink.com.np,,,,
Ghanteshwor Higher Secondary School,"Laxminagar,Doti",,094-429133,,,,,,
Gillette Int'l Higher Secondary Boarding School,Kalimati,"14147,Ktm",4283036,,netrasubba@yahoo.com,www.gilletteschoolandcollege.edu.np,,,
Glade Stone Academy,"MadhyapurThimi,MillRoad-2",,6631588,,gladstone@wlink.com.np,,,,
Glen Buds School,Lazimpat,"1643,Ktm","4415317,4438831",,glen@buds.enet.com.np,www.nepal-schools.com,,,
Global Higher Secondary School,Lagankhel,,"5522521,5523374,5542332",,,,,,
Godawari Vidhya Mandir Higher Secondary School,Itahari,,580748,,,,,,
Gograha Higher Secondary School,Bargachhi,,522104,,,,,,
Gokarneshwor Light Academy,Gokarneshwor,,4910179,,premkbhandary@yahoo.com,,,,
Gokarneshwor Mahadev Sec. School,Gorkarna-5,,4800602,,,,,,
Gokuleshwor Higher Secondary School,"Gokule,Darchula",,093-429303,,,,,,
Golden Future English High School,Panchkhal,,663129,,,,,,
Golden Gate English Secondary School,"Mahakalisthan(NewBlock)|Bholachhen(OldBlock),Bhaktapur-5","66,Bhaktapur",977-1-6613594,9841299271,goldengate.ess@gmail.com,www.ggess.blogspot.com,,Nepal,	Kathmandu
Golden Gate Int'l College,Battisputali,"4059,Ktm","4477082,4495165",,info@goldengate.edu.np,www.goldengate.edu.np,4466795,,
Golden Peak High School,Saraswatinagar,,4821889,,info@goldenpeak.edu.np,,,,
Golden Rays Academy,Mulpani,,4450420,,,,,,
Golden Rays English School,Dhobighat,,"5525772,2112113",,,,,,
Golden Sunrise English Secondary School,"Gauradaha-3,Jhapa",,023-529749,,,,,,
GoldenGate Int'l College,"WisdomTower,TrikutiColony,Battisputali,OldBaneshwor",4059,"4477082,4495165",,info@goldengate.edu.np,www.goldengate.edu.np,4466795,,
Gomendra Higher Secondary School,Birtamod,,023-540109,,,,,,
Good Shepherd School,Koteshwor,,4600927,,,,,,
Gopal Shikshya Sadan,Dhumbarai,,4370805,,,sourcs;Npabsan,,,
Gorakhkali English Boarding School,Balaju,,4350782,,,,,,
Gorkha United Public School,Banke,,540105,,gups@mos.com.np,,,,
Graded English Medium School (GEMS),"Khumaltar,Dhapakhel","1794,Ktm","5003060,5003111",,gemschool@wlink.com.np,www.gems.edu.np,5003131,,
Gram Adarsha Eng. School,Saraswotinagar,,4488286,,,sorcesNpabsan,,,
Gram Sikchha Secondary School,Kapan,,4820768,,,,,,
Gramin Adarsha Multiple Campus,NepalTar,"23683,Ktm","4354124,4481704/5",,,,,,
Grammar Public Higher Secondary School,Koteshwor,,4471865,,,,,,
Grand Academy College of Science & Management,Kumaripati,,"5536119,5538278",,,,,,
Grand Academy Higher Secondary School,Talchhikhel,8975EPC298,5526887,,grandedu@wlink.com.np,,,,
Grassland Montessori,"Samakhushi,TowmPlanning",,4354097,,,,,,
Great Knowledge School,Kathmandu,,4437546,,,sourcesNpabson,,,
Green Field School,Baluwatar,,4435547,,,sourcesNpabsan,,,
Green Hill High School,Pharping,,4710363,,schoolgreenhill@hotmail.com,,,,
Green Hills Academy,Baneshwor,,4494906,,,sourcesNpabsan,,,
Green Kantipur Public School,"Banasthali,Chhauni",,4890172,,gkpschool@hotmail.com,,,,
Green Land School,Dallu,,"4278700,4274570",,,sourcesNpabsan,,,
Green Lawns Academy,Balkhu,"10574,Ktm",4331708,,,sourcesNpabsan,,,
Green Peace Academy,Ganabahal,,4253601,,gpa@enet.com.np,,,,
Green Star English School,Kapan,,"4811753,4810870,4811499",,,sourcesNpabsan,,,
Green Village Education Foundation,Kritipur,,4335265,,,,,,
Green Village Secondary School,Kirtipur,,4332450,,,,,,
Green Wich Academy,Pepsicola,,"4990039,4991230",,,,,,
Greenland Children's Academy B. H. School,"Samakhushi,TownPlanning",,4363874,,gca@subisu.net.np,www.gca.edu.np,,,
Greenland Int'l Secondary Boarding School,Dhapasi-4,"4983,Ktm",4355446,,greenlands@wlink.com.np,www.greenland.edu.np,,,
Guheshwari Boarding High School,Bansbari,"977,Ktm",4372873,,,,,,
Guheshwori Balshishya Secondary School,Thapathali,,4257688,,,,,,
Gurukul Open School,Pulchowk,,"5529367,2114252",,,,,,
Gurukul Primary School,Bafal,,"4301017,4270266",,gurukulschool@wlink.com.np,,,,
Gurukul Public School,Balaju,,2172857,,,,,,
Gyan Bigyan Higher Secondary School,Lagankhel,,"5528970,5552860",,info@gbhss.edu.np,www.gbhss.edu.np,5552860,,
Gyan Jyoti Academy Secondary Boarding School,Bansbari,,4377594,,,,,,
Gyan Jyoti Higher Secondary School,Birgunj,,521051,,,,,,
Gyan Jyoti School,Kumarigal,,4484656,,,,,,
Gyan Jyoti Secondary School,Dang,,082-521227,,,,,,
Gyan Mandir Secondary School,Balaju,,4350065,,,,,,
Gyan Niketan Secondary English School,Shankhamool,"13131,Ktm","4783756,4783688",,gniketan@wlink.com.np,www.gyaanniketan.edu.np,,,
Gyan Punj B. School,Chappalkarkhana,,4374249,,,sourcesNpabsan,,,
Gyan Sindhu Higher Secondary School,Dang,,082-560684,,,,,,
Gyan Sudha Academy,Thithan-6,,4310347,,,,,,
Gyana Mandir English School,Balaju,,4350065,,,,,,
Gyanada Madhyamik Vidyalaya,Hetauda,,521357,,,,,,
Gyandeep Shiksha Sadan,Gaurinagar-7,,4476589,,gyandeep@hotmail.com,sourcesNpabsan,,,
Gyandeep Shikshya Sadan,Gongobu,,9841318676,,,,,,
Gyanjyoti English Boarding School,Lahachowk,,"529350,9856023731",,gchuda_sanu@hotmail.com,,,,
Gyanjyoti Secondary School,"Gauradaha,Jhapa",,023-529702,,,,,,
Gyankunj Higher S. School,Ravibhawan,,"4272831,4272334,4272330",,gyankunj@hotmail.com,,4270133,,
Gyankunja Secondary Boarding School,Sarlahi,,046-520622,,,,,,
Gyanmala English High School,Boudha-6,"21035,Ktm","4821756,4477093",,gyanmala_school@hotmail.com,,,,
Gyanmala English School,Bijulibazar,,4780800,,,,,,
Gyanodaya Bal Batika Boarding School,Hetauda,,521353,,,,,,
Gyanodaya Bal Batika School,Sanepa,,5521741,,gbbs@wlink.com.np,www.gyanodaya.com,5527698,,
Gyanodaya English Boarding School,Dharan,,521163,,,,,,
Gyanodaya Higher Secondary School,Gulmi,,079-529244,,,,,,
Gyanodaya Madhyamik Vidhyalaya,Dharan-11,,520560,,,,,,
Gyanodaya Secondary School,PuranoKalimati,,"4270155,4282772",,,,,,
Gyanodaya Secondary School,PindeswariChowk,,521214,,,,,,
Gyanodaya Secondary School,Baidam,,521204,,,,,,
Gyansarovar Secondary Boarding School,Banepa,,661814,,,,,,
Gyanu Baba Secondary Boarding School,Bagar,"118,Pkr","521497,534485",,,,,,
Hamro Sunshine School,Gaurighat,,4486565,,,sourcesNpabsan,,,
Hamro Vidya Griha,Baphal,,4281558,,,,,,
Hanumanteshwor Higher Secondary School,Dolkha,,049-429161,,,,,,
Happy Boarding School,Bagar,,521905,,,,,,
Happy Hut Kindergarten,Tahachal,,4273462,,,,,,
Happyland Secondary School,"Rajbiraj,Saprari",,031-520160,,,,,,
Haraiya Higher Secondary School,Rupandehi,,521144,,,,,,
Harati English School,Thamel,,4260599,,,,,,
Harihar Sanskrit & Sadharan Higher Secondary School,Arghakhanchi,,077-429355,,,,,,
Harikul Namuna Higher Secondary School,Surunga,,023-529219,,,,,,
Harinagar Higher Secondary School,Sunsari,,529011,,,,,,
Harman Minor Higher Secondary School,Kaski,,524569,,,,,,
Headway E. M. School,Ratopul,,4434614,,,sourcesNpabsan,,,
Heartland Children Academy,Bafal,,4278135,,bishnu4340@yahoo.com,,,,
Hebron Public School,Koteshwor,,4601291,,,,,,
HEMS School,Ratopul,,"4491236,4492148",,hemsschool@gmail.com,,,,
Herald International Boarding School,Patandhoka,"4106,Ktm",5529648,,brl@herald.wlink.com.np,,,,
Heritage High Academy,Chabahil,,4487962,,,,,,
Heritage Int'l Education,Putalisadak,"8975,EPC#5710",4221137,,info@heritage.edu.np,,4220161,,
Hilari English School,Kapan,,"2074094,4810158",,,sourcesNpabsan,,,
Hilbert International College,Kamladi,,"4221875,4251409",,info@hic.edu.np,ww.hic.edu.np,,,
Hill Top English Boarding School,Chapagaon,,"5570980,5570515",,nepalaya.new@gmail.com,,,,
Hill Town International High School,Kirtipur,,4331739,,,,,,
Him Rashmi H. School,Manamaiju,,4026296,,,,,,
Him Shikhar Boarding School,Nala,,664135,,,,,,
Himal Darshan Higher Secondary School,Solukhumbhu,,038-621220,,,,,,
Himalaya Boarding School,Budhanilkantha,,4374668,,,,,,
Himalaya College,Siphal,"24502,Ktm","4471579,4472879",,hvm@wlink.com.np,,,,
Himalaya Higher Secondary School,Darchula,,093-429357,,,,,,
Himalaya Higher Secondary School,Gulmi,,079-529398,,,,,,
Himalaya Int'l Model Higher Secondary School (HIMS),Jorpati,"6646,Ktm","4910580,4910581",,hims@ntc.net.np,www.himsschool.com,4912176,,
Himalaya Int'l Model Hr. Sec. School,Jorpati,,4910581,,hims@ntc.net.np,,,,
Himalaya Int'l School,Kapan,,9851042042,,,,,,
Himalaya Secondary School,Dugambahil,,"4257617,4221540",,,,,,
Himalayan Academy,Kirtipur,,"4333456,2022184",,,sourcesNpabsan,,,
Himalayan Boarding School,Dallu,,9741005990,,,,,,
Himalayan College for Learning Excellance,Handigaun,,"4431670,6912770",,hicole@wlink.com.np,www.hicole.edu.np,,,
Himalayan English Academy Higher Secondary School,"Bahundangi,Jhapa",,023-560066,,,,,,
Himalayan Heart Academy,Dhapasi,,4370581,,,,,,
Himalayan Higher Secondary School,Gulmi,,079-529398,,,,,,
Himalayan International Ideal School,Dhobighat,8975EPC999,5531873,,,,,,
Himalayan Open School,OldBaneshwor,,4476685,,,,,,
Himalayan Vidhya Mandir H. Sec. School,"Kalopul,Shifal",,4471579,,hvm@wlink.com.np,,,,
Himalayan White House Int'l College,NewBaneshwor,"9026,Ktm","4487562,4494138",,info@whitehouse.edu.np,www.whitehouse.edu.np,4474851,,
Himali Children's Academy,Butwal,"26,Butwal","540094,544394,544368",,,,540146,,
Himali Higher Secondary School,Jhapa,,023-520201,,,,,,
Himanchal Boarding School,Airport,,522044,,,,,,
Himshikhar Boarding School,Kalanki,,4285264,,,sourcesNpabsan,,,
Himshrinkhala Academy,Nayapati,,4800589,,,,,,
Himshrinkhala Academy,Khusibu,,4360464,,,,,,
Hindu Vidyapeeth-Nepal,Dang,,"082-560465,560876",,,,,,
Hindu Vidyapeeth-Nepal,Balkumari,"6807,Ktm","5527924,5006125",,hvpn@wlink.com.np,www.hvpnepal.org,,,
Hindu Vidyapeeth-Nepal,Thali,,4450745,,,,,,
Holy Garden Boarding High School,Balaju,,"4350309,4350751",,,,,,
Holy Land International School,Dharan,,523962,,,,,,
Holy Vision Higher Secondary School,Tahachal,,"4270428,4270345,4272574",,holyvision@ymail.com,www.holyvision.edu.np,,,
Holyland International School,Bajagarha,,523962,,,,,,
Home Tution,Kalanki,977,9851040323,9851040323,thenyrazan@gmail.com,,,Nepal,	Kathmandu
Honour International School,Kirtipur,,4330932,,,,,,
Horizon Engilsh School,Dhapagal,,5549939,,,,,,
Horizon Public School,NayaBasti,,662185,,,,,,
House of Children,Mahankal,,4479535,,hochild@wlink.com.np,,,,
Ichangunarayan Academy,Tahachal,,4276061,,,sourcesNpabsansourcesNpabsansources,,,
Ideal English Higher Secondary School,Chabahil,,4470363,,,,,,
Ideal English School,DipNagar,,540884,,,,,,
Ideal Model Higher Secondary School,Jhamshikhel,,"5527703,5527278",,ims@idealmodel.edu.np,www.idealmodel.edu.np,,,
Ideal School,Ichangu,,2180209,,,sourcesNpabsan,,,
Ikeda International School,RabiBhawan,,4279878,,,,,,
Ilam Higher Secondary School,Ilam,,027-520162,,,,,,
Ilam Vidya Mandir,Ilam,,027-520667,,,,,,
Imperal World School,Lazimpat,,"4416719,4428810",,yogesh@iwschool.edu.np,www.iwschool.edu.np,,,
Imperial World School,Lazimpat,,"4428810,4416719",,kumar@iwschool.edu.np,www.fastrackids.com,,,
Inaruwa English Boarding School,Inaruwa,,560559,,,,,,
Indradhanush Boarding High School,Bhimsengola,,4476499,,indebs@wlink.com.np,,,,
Indrawati Public School,Ichangu,,2024122,,,,,,
Indrawati Public School,"Kumarigal,Boudha",,16219717,,,sourcesNpabsan,,,
Indreshwor Higher Secondary School,Panauti,,661322,,,,,,
Innovative English School,Buddhanagar,,4782412,,,,,,
Intellectual Academy,"Chabahil,Kumarigal",,4484327,,,,,,
Intensive International Academy,"Maru,Bhimsensthan",,"4265726,4261179",,info@intensive.edu.np,www.intensive.edu.np,,,
International Joseph School,Koteshwor,,4480033,,,sourcesNpabsan,,,
International Public Secondary School,"Mahendranagar,Kanchanpur",,"099-522622,524060",,msharmz@rediffmail.com,,,,
Ishaneshwor Pramod Higher Secondary School,Lamjung,,066-529321,,,,,,
J. B. Memorial English School,Dhapasi,"1773,Ktm",4354220,,tilingtar@yahoo.com,,,,
J. M. Academy,Siraha,,"033-520234,9852830163",,,,,,
Jagat Mandir Higher Secondary School,Chabahil,,"4488290,4481893",,jmandir@mail.com.np,,,,
Jagatsundar Bwonekuthi Sec. Hr. School,"Lakhutitha,Chagal",,4281261,,,,,,
Jagriti Academy,Kirtipur,,4333300,,,sourcesNpabsan,,,
Jagriti Primary School,Jadibuti,,6634138,,,,,,
Jagriti Secondary School,Khauma,,6613709,,,,,,
Jaljala Higher Secondary School,Nardevi,"3347,Ktm","4255521,4259659",,sr_maskey@hotmail.com,,,,
Jaljala Shisu Sadan High School,Nardevi,,"4259659,4255521",,,,,,
Jalpadevi Higher Secondary School,"Pakhribas,Dhankuta",,026-529129,,,,,,
Jana Adarsha Campus,"Thimi,Bhaktapur",,6633733,,grthimi@hotmail.com,,,,
Jana Adarsha Higher Secondary School,"Shivaganj,Jhapa",,023-529504,,,,,,
Jana Bhawana Campus,Chapagaon,,5570512,,,,4422100,,
Jana Chetana English School,Bhaktapur,"5525,Ktm",6631008,,,,,,
Jana Higher Secondary School,Surkhet,,083-520316,,,,,,
Jana Jagriti Higher Secondary School,Sindhuli,,047-521160,,,,,,
Jana Jyoti High School,Tahachal,,4285559,,,,,,
Jana Jyoti Madyamik Bidyalaya,ShankarNagar,,540622,,,,,,
Jana Kalyan Higher Secondary School,Lamjung,,066-529333,,,,,,
Jana Kalyan Higher Secondary School,Solukhumbhu,,038-621224,,,,,,
Jana Pradeep Higher Secondary School,Syanja,,063-529308,,,,,,
Jana Prakash Higher Secondary School,Simalchaur,,522287,,,,,,
Jana Sewa Secondary School,Kirtipur,,"4330880,4331982",,jss_panga@yahoo.com,,,,
Janabikash Higher Secondary School,Palpa,,075-529411,,,,,,
Janabodh Higher Secondary School,Gulmi,,079-529334,,,,,,
Janajyoti Higher Secondary School,Nawalparasi,,078-529509,,,,,,
Janajyoti Higher Secondary School,Rautahat,,055-529005,,,,,,
Janajyoti Higher Secondary School,Sarlahi,,046-501079,,,,,,
Janajyoti Higher Secondary School,Tanahu,,065-529329,,,,,,
Janajyoti Secondary Boarding School,Bardiya,,"084-520172,520336",,,,,,
Janak English Boarding School,"Gaur,Rautahat",,055-520733,,,,,,
Janakalyan Higher Secondary School,Salyan,,088-529112,,,,,,
Janakalyan Primary Vidyalay,Chhetrapati,"1970,Ktm",4251555,,,,,,
Janaki Awasiya Higher Secondary School,Janakpur,,520469,,,,,,
Janaki Madyamik Bidyalaya,Janakpur,,520191,,,,,,
Janapath Secondary School,Kalanki,,4274858,,,,,,
Janaprakash Higher Secondary School,"Kolti,Bazura",,097-540300,,,,,,
Janaprakash Higher Secondary School,Kaski,,529344,,,,,,
Janapriya Higher Secondary School,"Matala,Bajhang",,"092-420343,420357",,,,,,
Janapriya Madyamik Bidyalaya,Katahari,,523125,,,,,,
Janapriya Prasthabik High School,SimalChour,,520464,,,,,,
Janata High School,Shankarpur,,522531,,,,,,
Janata Higher Secondary School,Dhankuta,,529542,,,,,,
Janata Higher Secondary School,Nawalparasi,,078-539434,,,,,,
Janata Higher Secondary School,Siraha,,"033-529005,540023",,,,,,
Janata Higher Secondary School,Surkhet,,"083-529511,529552",,,,,,
Janata Higher Secondary School,Madhuwan,,560182,,,,,,
Janata Higher Secondary School,Janakpur,,522229,,,,,,
Janata Namuna Higher Secondary School,Morang,,"523078,522531",,,,,,
Janata Sanskrit Madhyamik Vidhyalaya,Dang,,082-521153,,,,,,
Jansewa Higher Secondary School,Morang,,525937,,,,,,
Jasmin English B. School,Tangal,,4431602,,,sourcesNpabsan,,,
Jaya Bageswori Higher Secondary School,"SurkhetRoad,Banke",,"520337,521386",,,,,,
Jaya Boarding School,MadhyapurThimi,,6631016,,,,,,
Jaycee Bal Sadan Secondary School,Biratnagar-17,,522377,,,,,,
Jaycees Secondary School,Indrayanipith,,"6611111,6618307",,,,,,
Jeelet School,Bijeshwori,,4284237,,,sourcesNpabsan,,,
Jeevan Jyoti Higher Secondary School,Solukhumbu,,038-621211,,,,,,
Jenial Modern Academy,Kapan,,4810105,,,sourcesNpabsan,,,
Jenias English School,Battishputali,,"4472356,2313157,4493631",,,sourcesNpabsan,,,
Jenyuyan Secondary Boarding School,Mooldokha-4,,6612651,,,,,,
Jesses's International Boarding School,Satungal,,4310481,,,,,,
Jhapa Adarsha Higher Secondary School,Jhapa,,023-520899,,,,,,
Jiri Higher Secondary School,"Jiri,Dolkha",,049-420150,,,,,,
JLC,NewBaneshwor,8973,4783664,,info@jlc.com.np,www.jlc.com.np,4783664,,
Joon English School,Byasi,,6612100,,,,,,
Joseph High School,Battishputali,,"4467173,4472356,2313157",,,sourcesNpabsan,,,
Jubilant College,Kalimati,26234,"4272725,4272511",,info@jubilantcollege.edu.np,www.jubilantcollege.edu.np,,,
Jubilant H. School,Bhimsenthan,,4260837,,,,,,
Jubiliant Higher Secondary School,Bhimsensthan,,4260837,,,,,,
Judhodaya Secondary School,Chhetrapati,,4260420,,,,,,
Junior Pioneers School,DurgaPath,,520603,,,,,,
Jwala Secondary English School,Kalimati,,4274822,,,,,,
Jyoti Academy,Dhapasi,,4372930,,sourcesNpabsan,,,,
Jyoti Higher Secondary School,Arghakhanchi,,077-429311,,,,,,
Jyoti Higher Secondary School,Udayapur,,035-421312,,,,,,
Jyoti Kunj Boarding School,RamBazar,,521505,,,,,,
Jyoti Secondary Boarding School,Syanja,,063-420390,,,,,,
Jyoti Secondary English School,"Buddhabare-9,Jhapa",,023-555043,,,,,,
K.S.H.S.B. Higher Secondary School,Dhanusha,,529011,,,,,,
Kabhre Secondary School,Banepa,,663560,,,,,,
Kabin Garden Academy,Kathmandu,,4484370,,,sourcesNpabsan,,,
Kadambari Memorial College of Science & Management,Sankhamul,15142KPC395,"2030346,4782982",,kmcollege@websurfer.com.np,,4787442,,
Kailash Academy,Sitapaila,,4358299,,,sourcesNpabsan,,,
Kailash Bodhi Secondary Boarding School,Boudha,"7755,Ktm",4820469,,kbschool@ntc.net.np,,4820870,,
Kakarbhitta Higher Secondary School,Jhapa,,023-556228,,,,,,
Kalanki English Medium School,Kalanki,,"4286856,4271435",,kems12@gmail.com,,,,
Kalika English School,Bhaktapur,,6612925,,,,,,
Kalika Higher Secondary School,Tanahu,,065-529312,,,,,,
Kalika Higher Secondary School,Rambazar,,549708,,,,,,
Kalika Himalaya Higher Secondary School,Rasuwa,,010-569260,,,,,,
Kalika Madyamik Bidyalaya,KalikaNagar,,540392,,,,,,
Kamal English Boarding High School,BalkhuChowk,,4283318,,kbhscollege@hotmail.com,www.kamalschool.edu.np,,,
Kamana Higher Secondary Boarding School,Gongabu,,4354966,,shreekamanaschool@hotmail.com,,,,
Kamana International College,"Banasthali,Dhungedhara",,"4880422,4880419",,,,,,
Kanchan Secondary Boarding School,Chapagaon,,5570531,,,,,,
Kanchanjangha Integrated Model School,Dallu,,4278377,,,,,,
Kanchanjunga Academy Higher Secondary School,Panchthar,,024-520167,,,,,,
Kanchanjunga Boarding School,Taplejung,,024-460205,,,,,,
Kanchanjunga Head-Start School,Jhamsikhel,,5537607,,,,,,
Kanchanjunga Higher Secondary School,"Budhabare,Jhapa",,023-529322,,,,,,
Kangaroo Kids,OldBaneshwor,,4480308,,kkids@vianet.com.np,,,,
Kanjirowa National School,Koteshwor,,"4602574,6915129",,,,,,
Kankai Higher Secondary School,Ilam,,027-529057,,,,,,
Kankarvitta Higher Secondary School,"Mechinagar,Jhapa",,023-562128,,,,,,
Kanti Ishwari Rajya Laxmi Madhyamik School,Pyafal,,4261901,,,,,,
Kanti Ishwori Shishu Vidhyalaya,Tripureshwor,,"4257977,4240404",,,,,,
Kantipur Academy,Jorpati,,"4487802,016203958",,,sourcesNpabsan,,,
Kantipur Academy,Sitapaila,,4302488,,,,,,
Kantipur English High School,Maharajgunj,,4412375,,kantipurschool@enet.com.np,,,,
Kantipur English School,Sitapaila,,"016203327,4301075",,,,,,
Kantipur Model School,Kalikasthan,,4432596,,,sourcesNpabsan,,,
Kantipur Vidyamandir,Dharmasthali,,4354321,,,sourcesNpabsan,,,
Kanya Mandir Higher Secondary School,Nhyokha,,4263960,,,,,,
Kanya Secondary School,Yetkha,,4261263,,,,,,
Kapilakot Higher Secondary School,Sindhuli,,047-520101,,,,,,
Karfok Vidhya Mandir Higher Secondary School,"Karfok,Ilam",,027-529020,,,,,,
Kasturi Higher Secondary School,Itahari,,"580184,580550",,,,,,
Kathmandu Baby Care Center,Tripureshwor,,4253315,,,,,,
Kathmandu Bernhardt Higher Secondary School,Tahachal,,"4270160,4270679",,bernhadt@wlink.com.np,www.bernhadt.edu.np,,,
Kathmandu Campus,Ratopul,,"2003830,2003831",,barsha@wlci.in,,,,
Kathmandu Central College (KCC),NewBaneshwor,,"4467468,2230027",,,,,,
Kathmandu Don Bosco Higher Secondary School & College,Balkumari,,4601004,,kdbc@mos.com.np,www.kathdonbosco.edu.np,,,
Kathmandu English School,"Naxal,Sanogaucharan",,4414369,,eduno1kes@gmail.com,,4441532,,
Kathmandu Institute of Science & Technology (KIST),Kamalpokhari,"3928,Ktm","4434990,4434178",,kist@info.com.np,www.kist.edu.np,,,
Kathmandu Int'l School,Bansbari,,9841313824,,,sourcesNpabsan,,,
Kathmandu KIDZEE Centre,KamalPokhari,,"4434415,9851068168",,,www.kidzee.com,,,
Kathmandu Model City School,Sankhamul,,"4787111,4782906",,schoolkmc@gmail.com,,,,
Kathmandu Model Higher Secondary School,Bagbazar,,"4242121,4242015",,,,,,
Kathmandu Model School,Shankhamul,"24726,Ktm","4782634,4782016",,"kmc@wlink.com,np",www.ktmmodelcollege.edu.np,4269774,,
Kathmandu New Castle School,Basundhara,,"4016530,2001104",,kncschool@gmail.com,,,,
Kathmandu Newa Kindergarten,Nayabazaar,,"9841226980,9841293006",,,,,,
Kathmandu Pragya Kunja School,"SangamChowk,Baneshwor",,"4488438,4464867",,pragyakunja@mail.com.np,,,,
Kathmandu School of Medical Technology,Bagbazar,,"4245537,4244142",,,www.ksmt.edu.np,4246837,,
Kathmandu Shichha Campus,Putalisadak,,4230240,,,,,,
Kathmandu University High School,Dhulikhel,"529,Banepa",663706,,kuhs@ku.edu.np,,490395,,
Kathmandu University High School,Banepa,"529,Banepa",490955,,kups@wlink.com.np,,,,
"Kathmandu University School of Science, Management",Dhulikhel,"6250,Ktm","661399,663199",,kusom@wlink.com.np,,,,
Kathmandu Valley College,Chhauni,"25129,Ktm","4271562,4272429",,kvc@wlink.com.np,www.kvc.edu.np,,,
Kathmandu Valley H.S. School,Maharajgunj,,"4016308,4016058",,kvs@htp.com.np,www.kvhss.edu.np,,,
Kathmandu Vidya Mandir,Mahankal,,4483597,,,,,,
Kathmandu Xavier's Public School,NewBaneshwor,,4469987,,,,,,
Kaushal English Boarding School,Manamaiju,,4025825,,,,,,
Kavre Madhyamik Vidhyalaya,Banepa,,"661133,662038",,,,,,
Kavya School,NewBaneshwor,,"4780214,4780310",,info@kavya.edu.np,www.kavya.edu.np,4784292,,
Kayeshwori Boarding School,Alapot,,4450311,,,,,,
Kendriya Vidyalaya,Lazimpat,1201,4411259,,principalkvkathmandu@gmail.com,www.kvkathmandu.com,4414202,,
Kenji International School,Subidhanagar,,4478878,,,,,,
Kerwani Higher Secondary School,Kharhani,,529599,,,,,,
Khwopa Higher Secondary School,Chyamasingh,,"6610932,6614336",,,,,,
Kids Care International,Chhauni,,4273760,,,,,,
Kids Care International Preschool,Jhamsikhel,"1415,Ktm",5522748,,info@kidscare.edu.np,www.kidscare.edu.np,4423724,,
Kids Gyan,Dillibazar,,4421667,,,,,,
Kidsland Montessori Based Pre School,"SanakhamulRoad,Newbaneshwor",4465,"6203990,9841957607",,kidslands@gmail.com,,,,
Kinder Planet Pre-School,Bishalnagar,,4414546,,,,,,
Kinder World,Jhamsikhel,,"5527294,5527952",,,,,,
Kinderpillar Preschool,"Bakhundol,Lalitpur,Kathmandu",,9851010450,9851010450,kathmandu1@kinderpillar.com,www.kinderpillar.com,,Nepal,
Kingdom Star English School,"Godavari,Tankhel",,5560667,,,,,,
Kings College,"OldBaneshwor,Pipalboat",8973,4471162,,info@kingscollege.edu.np,www.kingscollege.edu.np,,,
Kirti Secondary Boarding School,Kirtipur,,4330578,,,,,,
Kirtipur Madhyamik Bidhyalaya,Kirtipur,,"4330967,4334326",,,,,,
Kitini Higher Secondary School & College,Godawari,,5560564,,,,,,
KMC School,Baneshwor,,"4787111,4782906",,,,,,
Kopila English School,Siddhipur,,5581224,,,,,,
Koshi English School,Dharan-15,,522325,,,,,,
Koshi Saint James Residential Secondary School,Itahari,,"581620,9842020877",,,,,,
Koshi Vidhya Mandir,Biratnagar-13,,527007,,,,,,
Kotdevi Public English Sec. School,Jadibudi,,16209897,,,,,,
Kotihawa English Secondary School,"Madhawaliya-4,Rupandehi",,071-560276,,stamrit@wlink.com.np,,,,
Krishna Higher Secondary School,"Jhalari,Kanchanpur",,099-529190,,,,,,
Krishna Higher Secondary School,"Krishnapur-4,Kanchanpur",,099-529171,,,,,,
Krishna Prabha Primary School,Handigaun,,4438470,,,,,,
Krishnaratna Ganga Higher Secondary School,Chautara,,620142,,,,,,
Kritipur English B. School,Kritipur,,4332714,,krishnamand@yahoo.com,,,,
Kshireswor Janata Higher Secondary School,Dhanusha,,520107,,,,,,
Kshitiz English Boarding School,Bishalnagar,,"4418159,6224441",,,,,,
Kuleshwor Awash English School,KuleshworHeight,,4274117,,,,,,
Kuleshwor Madhyamik Bidhyalaya,Kuleshwor,,4279094,,,,,,
Kumari English Boarding School,Boudha,10556,"4470408,4466821",,info@kumari.edu.np,www.kumari.edu.np,,,
Kumari Memorial Girls High School,CampusRoad,,524355,,,,,,
Kumari Multiple Campus,Baudha,10556,"4466821,4470408",,info@kumari.edu.np,www.kumari.edu.np,,,
Kumari Shishu Sadan Boarding High School,"Kumarigal,Boudha",,4485237,,kumarishishu@yahoo.com,,,,
Kumbeshwor Technical School,"Kumbeshwor,Lalitpur",2181,"5537484,5539216",,kts@wlink.com.np,www.kumbeshwor.com,5534471,,
Kumudini Homes,Pokhara,,"524997,525390,521809",,,,,,
Kumudini Secondary School,Kalimati,"10512,Ktm",4279375,,,,,,
L. R. I. College,Kalankisthan,"4081,Ktm","4271188,4278515",,lri@enet.com.np,www.lrischool.edu.np,4302703,,
L.A. College of Management,Hattiban,"8322,Ktm",5250777,,info@lacm.edu.np,,5250888,,
Laboratory Higher Secondary School,Kirtipur,,"4330790,4331790",,,,,,
Laboratory Madhyamik Vidhyalaya,Dharan-8,,522948,,,,,,
Laligurans English School,Swoyambhu,,4270695,,,,,,
Lalitpur College,Kupondole,,"5524284,5522535",,info@lalitpurcollege.edu.np,www.lalitpurcollege.edu.np,5521219,,
Lalitpur Madhyamik Vidyalaya (LMV),Lagankhel,10668,"5522704,5526704",,lmv@wlink.com.np,www.lmv.edu.np,,,
Land Mark Educational School,Gothatar,,6630456,,,,,,
Lasana Pre-Primary School,Gongabu,,4353191,,lasanapre@hotmail.com,,,,
Laxmi Ballvanarsingha Higher Secondary School,Saptari,,031-520630,,,,,,
Laxmi Higher Secondary School,Danighat,,027-523037,,,,,,
Laxmi Higher Secondary School,Jhapa,,023-520207,,,,,,
Laxmi Shikshya Sadan Secondary School,Teku,,4256218,,,,,,
Learining Realm International School,Kalankisthan,,"4271188,4278515",,lri@enet.com.np,www.lrischool.edu.np,,,
Lekhani Higher Secondary School,Baglung,,068-520398,,,,,,
Lily Flower School,Baneshwor,,"4469789,4477838",,,sourcesNpabsan,,,
Lincoln College,Gongabu,,"4382774,4363024/25",,,,,,
Lincoln School,RabiBhawan,"2673,Ktm",4270482,,,www.lsnepal.com,4272685,,
Lisha Secondary School,Bhaktapur,,6610902,,,,,,
Little Angel's Secondary School,Nawalparasi,,078-520227,,,,,,
Little Argho School,Ekantakuna,8322Ktm,5535401,,las@wlink.com.np,,,,
Little Blooms School,Gatthaghar,,6632987,,,,,,
Little Blosam Academy,Baluwatar,,4411009,,,sourcesNpabsan,,,
Little Budda English School,Samakhusi,,9851085401,,,sourcesNpabsan,,,
Little Budda's Academy,Handigaun,,4431437,,,sourcesNpabsan,,,
Little Candy day care and preschool,"Sanepa-2,ringroad",,15539258,9851155718,info@littlecandypreschool.com,www.littlecandypreschool.com,,Nepal,
Little Children Academy,Shantinagar,,4472905,,,sourcesNpabsan,,,
Little Climbers' English School,IchanguNarayanVDC-6,,4890994,,lce_school@hotmail.com,,,,
Little Flower High School,Maitidevi,,4417970,,,,,,
Little Heart Boarding School,Dharan,,521400,,,,,,
Little Moon School,Handigaun,,"4431779,4351365",,,sourcesNpabsan,,,
Little Rose Boarding High School,Maharajgunj,,4721602,,,,,,
Little Star English School,Thecho,,5571946,,littlestarthecho@gmail.com,,,,
Little Stars Academy,Satungal,,4310562,,littlestaracademy@yahoo.com,,,,
Little Step International Academy,Simalchour,,"524459,523261,531965",,lsiacademy@wlink.com.np,,,,
Loard Buddha Academic,Baneshwor,,4472309,,,sourcesNpabsan,,,
Lok Smriti School,Gwarko,,5530120,,,,,,
Lokpriya Higher Secondary School,Manang,,066-449322,,,,,,
Lopala Secondary School,Budhanilkanth,,4370962,,,sourcesNpabsan,,,
Lord Buddha Secondary School,Boudha,,4470057,,,,,,
Lotus Boarding School,Bakhundole,"13209,Ktm","5525821,5529415",,lbschool@wlink.com.np,,,,
Lotus Eye Tini Tots School,Tinpana,,4311888,,,sourcesNpabsan,,,
Lotus Primary School,Chabahil,,4486220,,,,,,
Lotus Vidya Vihar,ZeroPoint,,525260,,,,,,
Lovely Angels School,Chabahil,,2071865,,,sourcesNpabsan,,,
Loyalty Academy,Mandikhatar,,"4378327,4375737",,info@loyalty.edu.np,,,,
Loyola Deshbhakta School,OldBaneshwor,,4471116,,info_loyolahsschool.edu.np,,,,
LRI College,Kalankisthan,,"4271188,4278515,4276170",,lri@enet.com.np,,97714302703,,
LRI School,Baneshwor,,2304217,,,,,,
Lunar Eng. Boarding School,Sukedhara,,2307821,,,sourcesNpabsan,,,
Lunar English Boarding School,Gongabu,,4355302,,,,,,
Lyceum Model School,Sifal,,4481383,,,,,,
Lycium Model School,Baneshwor,,2054299,,,sourcesNpabsan,,,
Maatri Shishu Vidhyalaya,Jawalakhel,"4631,Ktm","5543534,9741196439",,shishumaatri@hotmail.com,,,,
Machhapuchhere Higher Secondary School,Nagdada,,529303,,,,,,
Machhapuchhre International School,Kusunti,,"5530425,5530424",,,,,,
Machhindra Higher Secondary School,Morang,,539445,,,,,,
Machindranath Higher Secondary School,"Khanikhola,Dhading",,"010-529183,529120",,,,,,
Magus English School,Kritipur,,4333096,,mesedu@yahoo.com,,,,
Maha Laxmi English School,Phutang,,4026177,,,,,,
Maha Manjushree Higher Secondary School,Sitapaila,,4303044,,,,,,
Mahabir Janata Higher Secondary School,"Haripur,Sarlahi",,046-529600,,,,,,
Mahakabi Devkota Higher Secondary School,Nawalparasi,,078-570230,,,,,,
Mahamaya Bhawani Higher Secondary School,Rupandehi,,529552,,,,,,
Mahan Siddartha School,Kapan,,"4359546,4464723",,,,,,
Mahan Siddhartha High School,"Kumarigal,Chabahil",,4114176,,ms@msschool.edu.np,,,,
Mahankal Janajagriti Secondary School,Galfutar,,4373272,,,,,,
Maharshi Balmiki Higher Secondary School,Rautahat,,055-520104,,,,,,
Maharshi Vidyapith Nepal,Boudha,,4479676,,,sourcesNpabsan,,,
Mahavir Janata Higher Secondary School,Sarlahi,,046-529600,,,,,,
Mahendra Aadarsha Higher Secondary School,Gulmi,,079-529377,,,,,,
Mahendra Adarsha Vidyashram,Satdobato,,"5521486,5550598",,,,,,
Mahendra Bhawan Higher Secondary Boarding School,"Sanogaucharan,Gyaneshwor","1393,Ktm",4414380,,mbhsbs@hotmail.com,www.mahendrabhawan.edu.np,4414380,,
Mahendra Bidhyabodh Higher Secondary School,Argakhanchi,,077-429414,,,,,,
Mahendra Buddha Secondary School,Bouddha,,4470364,,,,,,
Mahendra Higher Secondary School,Dadeldhura,,096-420159,,,,,,
Mahendra Higher Secondary School,Gulmi,,079-520195,,,,,,
Mahendra Higher Secondary School,"Khalanga,Darchula",,093-420165,,,,,,
Mahendra Higher Secondary School,Nepalgunj,,520274,,,,,,
Mahendra Madhyamik Vidyalaya,DevkotaChowk,,522858,,,,,,
Mahendra Memorial English School,Duhabi,,540032,,,,,,
Mahendra Vidhyashram,Barahisthan-16,"81,Bkp","6612548,6611664",,mva@enet.com.np,,,,
Mahendrajyoti Higher Secondary School,Parbat,,067-420120,,,,,,
Mahendrodaya Higher Secondary School,Khotang,,036-421207,,,,,,
Mahendrodaya Higher Secondary School,"Manthali,Ramechhap",,048-529317,,,,,,
Mahendrodaya Higher Secondary School,"Salyan,Solukhumbu",,038-621215,,,,,,
Maisthan Bidyapith High School,Maisthan,,522181,,,,,,
Maitidevi Boarding High School,"Dilibazar,Maitidevi",,4417235,,mdschool@wlink.com.np,,,,
Maitri School,Chhauni,,4270675,,maitri@infoclub.com.np,www.maitrischool.edu.np,,,
Maiwakhola Higher Secondary School,Taplejung,,024-469004,,,,,,
Malika English School,"Dhangadi,Kailali",,091-522600,,,,,,
Malika Higher Secondary School,Gulmi,,079-529411,,,,,,
Malika Higher Secondary School,"Martadi,Bazura",,097-540311,,,,,,
Malpi International School,HeritagePlazaII,"15116,Ktm",4240159,,mis@mos.com.np,www.malpi.edu.np,4241217,,
Malpi International School,Panauti,,"662020,662080",,,,,,
Malpi Primary School,Baluwatar,,4411458,,,,,,
Mamata Vidya Sadan,Kupondole,,5525759,,,,,,
Manak Children's Paradise,Koteshwor,,4991512,,,,,,
Manakamana Boarding School,Nadipur,,"521697,523765",,nandagarbuja@hotmail.com,,,,
Manakamana Boarding School,Gorkha,,064-520203,,,,,,
Manakamana Higher Secondary School,Jorpati,,4911188,,,,,,
Manakamana Higher Secondary School,Birtamod,,023-541270,,,,,,
Manamohan Memorial Higher Secondary School,Sorakhutte,"19371,Ktm",4360271,,,,,,
Manasalu Public Higher Secondary School,NayaBazar,,4360634,,mlpschool@mail.com.np,,,,
Mangal Secondary School,Kirtipur,,4330544,,,,,,
Mangala Higher Secondary School,Lamjung,,066-529330,,,,,,
Mangala Higher Secondary School,Myagdi,,069-529302,,,,,,
Mangaldeep Secondary School,Bouddha,,4472007,,,,,,
Manilek Higher Secondary School,"Melauli,Baitadi",,095-529344,,,,,,
Manjari High School,Golfutar,,4371337,,,,,,
Manju Gyokshya  School,Kavresthali,,9841269355,,,sourcesNpabsan,,,
Manjushree Secondary Boarding School,Dhobighat,,5527174,,,,,,
Manjushree Secondary Boarding School,Sainbu,8975EPC828,5590805,,,,,,
Manmohan Memorial School,KhadkaBhadrakali,,4370303,,,,,,
Manohar Janata Hiher Secondary School,Morang,,539908,,,,,,
Manoram Boarding School,KatunjeMarg,,6617517,,maheshgumanjumg@yahoo.com,,,,
Maria Montessori House,Sanepa,,5527481,,,,,,
Maridian International School,Baluwatar,,4415860,,,,,,
Marigold English Boarding School,Balkot,,6632562,,blshrestha62@hotmail.com,,,,
Marigold School,PuranoBazar,"47,Dharan",521159,,,,,,
Martres Memorial School,Gongabu,,4354462,,,sourcesNpabsan,,,
Martyrs' Memorial Boarding School,Gyaneshwor,"751,Ktm","4414412,4423151",,,,,,
Martyrs' Memorial English School,"Biratnagar-13,Tintolia",,523165,,,,,,
Marvellous English Boarding School (Hostel),Ghattekulo,,"4442890,016222191",,mebsschod@gmail.com,www.mebs.edu.np,,,
Mary Gold English Boarding School,Reshamkothi,,522574,,,,,,
Mary Poppings Pre-primary school,Thapathali,,4256857,,,,,,
Matribhumi Boarding School,"Saraswotikhel,Bhaktapur",,9841049664,,,,,,
Mauwakhola Higher Secondary School,"Dhungeshanghu,Taplejung",,024-469004,,,,,,
Maya Children School,Talchikhel,"13972,Ktm",5541657,,anilrai@enet.com.np,,,,
Maya Lok Vidya School,Chhetrapati,,4242717,,,,,,
Mayur Boarding School,Dhangadhi,,091-522600,,,,,,
Mechi Secondary School,"Damak,Jhapa",,"023-580139,520899",,,,,,
Meera Boarding School,Tinchule,,4820538,,,sourcesNpabsan,,,
Mentor Model Academy,Gongobu,,4359253,,,sourcesNpabsan,,,
Meridian International School,Baluwatar,,4415860,,,,,,
Merry Gold English B. School,Butwal,,45702,,,,,,
Merry Land Higher Secondary School,Morang,,526715,,,,,,
Merry Land Higher Secondary School,Arubari,,"2074435,9841410737",,,sourcesNpabsan,,,
Merygold English Boarding School,NayaBazar,,521900,,,,,,
Metro Hr. Sec. School,ThapaGuan,,"4472385,4474114",,,,,,
Metropolitan Higher Secondary School,NewBaneshwor,"21436,Ktm",4474114,,metropolitan10@yahoo.com,www.metrocollege.edu.np,,,
Mickey's International The Children World Pre-School,Jhamsikhel,"135,Ltp",5522287,,crab@wlink.com.np,,,,
Milan Vidya Mandir High School,Anamnagar,,"4232343,4258566",,,,,,
Milestone Int'l College,Balkumari,12671,"5539060,5547582",,info@milestone.edu.np,www.milestone.edu.np,,,
Milestone Pre School,Nakkhudobato,,"016203388,5527097",,milestone@broadlink.com.np,,,,
Millennium Higher Secondary School,Tansen-8,,075-520135,,,,,,
Millennium International Academy,Lokhanthali,,6634358,,,,,,
Mills Berry Kid's World,Maharajgunj,,4373368,,info@millsberry.com.np,www.millsberry.com.np,,,
Mills Berry Kids World,NewBaneshwor,,4466580,,info@millsberry.com.np,www.millsberry.com.np,,,
Mills Madyamik Bidyalaya,Rani,,523206,,,,,,
Miltonse Int'l College,BalkumariLalitpur,,9851073799,,,,,,
Minar English Boarding School,Basundhara,,4378532,,mebschool@wlink.com.np,,,,
Minar English School,Boudha,,21422552,,,sourcesNpabsan,,,
Minarva English School,Bhaktapur,,6612626,,,,,,
Mini Land Secondary School,Baneshwor,,4494356,,,,,,
Miniland English High School,Thali,,"4450461,4450935",,schoolminiland@gmail.com,,,,
Miniland Secondary School,PaniTanki,,"525530,528995",,,,,,
Mission Public School,Chabahil,,4487376,,,sourcesNpabsan,,,
Mitra High School,Kalimati,,4272795,,,,,,
Mitra Primary School,Chakupat,,5522899,,,,,,
Model Academy,Chabahil,,4472355,,,sourcesNpabsan,,,
Model Higher Secondary School,Janakpur,,523666,,,,,,
Model International School,Thankot,,4310528,,,,,,
Modern Era English School,"Dhangadi,Kailali",,"091-523202,524876",,,,,,
Modern Graded English Secondary School,Kusunti,,5543423,,,,,,
Modern Indian School,Chobhar,,"4330163,4330088",,mischl@wlink.com.np,,,,
Modern Newa English School,DurbarMarg,"4357,Ktm","4247703,9851075915",,newaschool@mail.com.np,www.newaschool.com.np,4249451,,
Modern Preparatory Secondary Boarding School,Itahari,,580328,,,,,,
Modern Public Higher Secondary School,Nepalgunj,,522204,,,,,,
Mohan Higher Secondary School,Siraha,,033-529210,,,,,,
Monastic English Boarding School,Janakpur,,521107,,,,,,
Monastic Higher Secondary School,Janakpur,,522279,,,,,,
Montessori House School,Kumaripati,,"5537534,5549507",,montessorihouse@enet.com.np,,,,
Montessori Kinderworld,Maharajgunj,,"4379339,016910986",,mkwn@nepalmontessori.org,www.nepalmontessori.org,,,
Moon Light Secondary School,Satdobato,,5526787,,,,,,
Moonlight Higher Secondary School,Lalitpur,8975EPC2982,"5524311,5527525,5545654",,,,,,
Moonlight Secondary School,"Birgunj,Parsa",,525896,,,,,,
Moonshine Boarding High School,Dallu,,4278434,,,,,,
Moral Academy,NewBaneshwor,,4490661,,,,,,
Morang Model Residential School,"Urlabari-3,Morang",,540137,,,,540011,,
Morning Glory High School,Tripureshwor,"11364,Ktm","4261737,4253340",,morglory2002@yahoo.com,www.nepal-schools.com/morningglory,,,
Morning Star English Boarding School,Samakhushi,,4353412,,,,,,
Mother Teresa Memorial English Boarding School,Biratnagar,,523157,,,,,,
Mothercare International Play Group,Baluwatar,,4415669,,mcare96@gmail.com,www.mothercare.com.np,,,
Motherland Academy Secondary Boarding School,Baluwatar,"12079,Ktm","4427831,4415536",,,www.educationsansar.com,,,
Motherland Boarding  School,maligaun,,"4429248,4429249",,,sourcesNpabsan,,,
Motherland English School,kathmandu,,1621124,9849331561,rajan19901@live.com,,,Nepal,
Mount Admond School,"Birgunj,Parsa",,523081,,,,,,
Mount Annapurna Boarding School,Archalbot,,520718,,,,,,
Mount Carmel School,Satdobato,8975EPC2737,5529615,,mcarmel@wlink.com.np,,,,
Mount Chandragiri Eng. High School,Thankot,,4310555,,,,,,
Mount Everest Boarding School,NewRoad,,521672,,,,,,
Mount Everest English School,"Rajbiraj,Saptari",,031-520555,,,,,,
Mount Everest Higher Sec. Eng. School,"Simara-2,Bara",,520304,,,,,,
Mount Everest Higher Sec. Eng. School,"Simara-2,Bara",,053-520304,,,,,,
Mount Everest Higher Secondary School,"Gauradaha,Jhapa",,023-529703,,,,,,
Mount Everest Secondary Boarding School,Myagdi,,069-520427,,,,,,
Mount Gauri Shanker Secondary School,Baluwatar,8975EPC1180,"4423061,4438696",,mgss@info.com.np,www.mgss.edu.np,,,
Mount Glory English Boarding High School,Chagal,,4276477,,mntglory@gmail.com,,,,
Mount Glory International Boarding High School,Basundhara,,4363308,,,,,,
Mount Green English School,Jyatha,8974CPC334,4250653,,mountgreen@enet.com.np,,"4222567,4249592",,
Mount Hermon School,BuddhaChowk,,524745,,,,,,
Mount Kailash Boarding School,Samakhusi,,4350498,,,sourcesNpabsan,,,
Mount Kailash School,Kapan,"4435,Ktm",4811243,,,,,,
Mount Makalu Boarding School,Sainbu,,5590903,,,,,,
Mount Manasalu School,"Duhabi-4,Sunsari",,540322,,,,,,
Mount Moriah English Boarding School,"Sunsari,Dharan",,"527272,524530",,,,,,
Mount Olives High School,Nayabazar,,4357882,,,sourcesNpabsan,,,
Mount Sagarmatha,Thankot,,4310786,,,,,,
Mount Seb School,Pepsicola,,"2054343,6632659",,,,,,
Mount Sinai Boarding School,Chandol,,4435853,,,sourcesNpabsan,,,
Mount Ural Teaching Academy,Chandol,,4428727,,,sourcesNpabsan,,,
Mount View English Boarding School,Balkot-5,,"6632163,9851093575",,mvebs@wlink.com.np,,,,
Mount View High School,Chabahil,,"4498103,4471020",,,,,,
Mt. Sagarmatha Brilliant's Academy,Gurjudhara,,4310786,,,,,,
Mt. Valley Academy,"Charikot,Dolakha",,049-420262,,,,,,
Munal Boarding School,Maitripath,,540514,,,,,,
Munal English Boarding School,"Butwal-8,Jyotipath",,071-541727,,,,,,
My Land Academy,"Ranibari,Samakhusi",,4360548,,info@myland.edu.np,www.myland.edu.np,,,
N. K. Singh Memorial E.P.S. School,Lagan,"12350,Ktm",4253925,,eps@wlink.com.np,,,,
Naarad Adarsha Higher Secondary School,"Basaha-9,Udayapur",,035-421103,,,,,,
Nabodit Vidyakunj,Baneshwor,,9851022083,,,sourcesNpabsan,,,
Nagarjun Valley Academy,Erahiti,,4880519,,,,,,
Nagarjuna Academy,Kupondole,,"5520112,5541437",,info@nagarjuna.edu.np,www.nagarjuna.edu.np,5541437,,
Nagarjuna International College,Pulchowk,,"5010670,5010559,5520112",,info@nagarjuna.edu.np,www.nagarjuna.edu.np,,,
Nalanda English Secondary Boarding School,Satdobato,,"5541200,5523391",,,,,,
Namgyal Middle Boarding school,"NamgyalChowk,Swayambhu,KTM,Nepal",2766,14890197,,namgyalmiddleschool@gmail.com,www.nmbs.edu.np,4890098,Nepal,
Namo Buddha Secondary Boarding School,Shankhu,,663594,,nbuddha@wlink.com.np,,,,
Namuna Deep Boarding School,Sukedhara,,4374067,,,sourcesNpabsan,,,
Namuna Machhindra Madhyamik Vidhyalaya,Lagankhel,,5521156,,,,,,
Namuna Primary English Boarding School,Maru,,4255915,,,,,,
Namuna Vidya Mandir,Biratnagar-10,,527057,,,,,,
Nandadevi English School,Pokhara,,521164,,,,,,
Nandi Secondary School,Naxal,,4411754,,,,,,
Narayan Academy,Sitapaila,,4358299,,,sourcesNpabsan,,,
Nasa International Education Network,Tinkune,,"4460397,4479849",,info@nasacollge.com,www.nasacollege.com,,,
National Academy of Science & Commerce,Sunsarimaisthan,,523215,,,,,,
National Campus for Business Studies,Kamalpokhari,"14350,Ktm","4412684,4411298,4417109",,,,,,
National Children Academy,Gairidhara,,4419554,,,sourcesNpabsan,,,
National Children School,Kanibahal,,5544671,,,,,,
National College Centre for Development Studies,Baluwatar,,"4420871,4440410",,menavinjha@yahoo.com,www.nche.edu.np,,,
National College for Advanced Learning,Lainchour,,"4423706,4422050",,,,,,
National English School,Sitapaila,,2020312,,,sourcesNpabsan,,,
National Institute of Science,Bakhundole,,"5532854,5528697",,nispatan@enet.com.np,,,,
National Integrated College (NIC),Dillibazar,,"4442098,4442722",,niccollege@wlink.com.np,www.nic.edu.np,,,
National Model Eng. School,Bafal,,4381731,,,,,,
National Model Science,Gausala,,9851022083,,,sourcesNpabsan,,,
National Model Science School,Lainchour,,"4354886,2170388",,thenamss@yahoo.com,,,,
National Multiple College,Satdobato,,"5544367,5538025",,nnc.gmp@ntc.net.np,,,,
National Open College (NOC),Sanepa,8975EPC1665,"5548098,5520326",,noc@ntc.net.np,www.noc.edu.np,5520326,,
National Peace Boarding School,Gongabu,,4353212,,,,,,
National Polytechnic Higher Secondary School,Pokhara-8,,"528126,527596",,,,,,
National School of Sciences,Lainchour,"8659,Ktm","4423706,4422050,4435408",,,www.nist.edu.np,4428724,,
National Star Higher Secondary School,Chhetrapati,,4251807,,,,,,
Naulo Jyoti English Secondary School,Thimi,,6630626,,,,,,
Nav Prabhat Madhyamik Vidyalaya,NayaBazar,,520497,,,,,,
Nava Adarsha Secondary School,Basantapur,,4223341,,,,,,
Nava Arunima Lower Secondary School,"Jorpati,Arubari",,4472206,,navaarunimaschool@yahoo.com,www.arunima.edu.np,,,
Nava Jeewan HSS & College,Samakhushi,13544,"4364150,4352173",,navajeewan@yahoo.com,www.navajeewan.com,,,
Nava Jyoti English Higher Secondary School,Koteshwor,"2461,Ktm",4483389,,njess@enet.com.np,,,,
Nava Kiran Secondary School,Bhatbhateni,,4411508,,,,,,
Nava Kshitiz Sec. School,Koteshwor,,4478790,,,sourcesNpabsan,,,
Nava Manjushree Shiksha Sadan,Dallu,,"4275919,4270174",,,,,,
Nava Prabhat School,Pulchowk,8975EPC451,5526296,,rabindra@wlink.com.np,,,,
Nava Suryodaya English Secondary School,Sunakothi,,5570438,,nava_suryodaya@hotmail.com,,,,
Nava Yuyutshu E. School,Kapan,,2071817,,,sourcesNpabsan,,,
Navajyoti Madhyamik Vidyalaya,Bhaktapur,,6635733,9851037577,hemkth@yahoo.com,,,Nepal,
Navjeevan English Secondary School,Bagdole,,5526284,,torannjschool@yahoo.com,,,,
Navjyoti School,Barganchi,,520690,,jyoti@jnsh.wlink.com.np,,,,
Navodit Commerce College,Samakhusi,,"4351350,4360281",,,,,,
Navodit Vidya Kunja Secondary School,Samakhusi,,"4351350,4352273",,,,,,
Nawa Dipti Primary School,Mulpani,,4472679,,,sourcesNpabsan,,,
Nawa Jagriti Primary School,Boudha-6,,"4820741,9841442668",,,,,,
Nawa Jyoti English School,Inaruwa,,560512,,,,,,
Nawa Ratna English School,Thimi,,6633951,,,,,,
Nawayug Secondary School,Jyabahal,,4227158,,,,,,
Nawdeep Secondary English School,Chapagaon,,5570073,,,,,,
Nazareth School,Sanepa,,5528245,,,,,,
Neelgiri School,Paknajol,,4381258,,,,,,
Neelkantha Boarding School,"Mahankal,Boudha","21082,Ktm",4473371,,nsbs@wlink.com.np,,,,
Nepal Aadarsha Higher Secondary School,Kapilbastu,,076-529633,,,,,,
Nepal Adarsha Awasiya Vidhyalaya,"LekhnathMunicipality,Bhandardhik",,"520415,532725",,,,526554,,
Nepal Bon Society School,Maijubahal,,4486184,,,sourcesNpabsan,,,
Nepal Darshan Higher Secondary School,Urlabari,,539043,,,,,,
Nepal Ideal School,Baneshwor,,"4470773,9841271506",,,sourcesNpabsan,,,
Nepal Ideal School,Kalanki,,9841292846,,,,,,
Nepal Model Academy,Kapan,,4490454,,,,,,
Nepal Nalanda Secondary Boarding School,Siddharthanagar,,521811,,,,,,
Nepal Rastriya Higher Secondary School,"Simara,Bara",,053-520243,,,,,,
Nepal Rastriya Higher Secondary School,Balaju,,4350469,,,,,,
Nepal Ved Vidhyashram Secondary School,Bankali,,4470636,,,,,,
Neptune Boarding High School,Bagbazar,,4255124,,nepschool@hotmail.com,,,,
Neric Academy,Shankhamul,,4783435,,,,,,
Nerik Academy,Maharajgunj,,16212246,,,sourcesNpabsan,,,
New Age International,Gyaneshwor,,4444325,,,,,,
New Arunodaya English High School,Bijeshwori,,"4275993,4277337",,naehs@wlink.com.np,,,,
New Children English Boarding School,Siraha,,550083,,dr_rks2002@yahoo.com,,,,
New Diamond Academy,PuranoNaikap,,4289990,,,,,,
New Dirghayu Boarding School,Shantinagar,,4620187,,,,,,
New Don Bosco Academy,Putalisadak,,"4426191,4425240",,info@ndba.edu.np,sourcesNpabsan,,,
New Don Bosco School,Bishalnagar,,4419069,,,,,,
New English Boarding School,Janakpur,,521102,,,,,,
New English Sec. School,"Maijubahal,Chabahil",,4484370,,,sourcesNpabsan,,,
New Era Children Academy,"Hatakhola,Sunsari",,"025-582440,583153",,,,,,
New Era English School,Teku,,4241509,,mlshree02@hotmail.com,,,,
New Euro Kids Montessori,"Aloknagar-31,Kathmandu",,9808747443,9801158997,rupeshbcmpl@gmail.com,,,Nepal,
New Generation Int'l Sec. School (NGI),NewNaikap,,4315310,,,,,,
New Himalayan Vidhya Mandir,Samakhusi,,4353065,,,,,,
New Holy Cross Eng. School,Goathar-8,,4990131,,,,,,
New Horizon Academy,Machhegaun,,4330004,,,,,,
New Horizon English School,Kuleshwor,,4278259,,,,,,
New Horizon Higher Secondary School,Butwal,,540602,,,,,,
New Knowledge English Boarding School,Baluwatar,"7612,Ktm",4435547,,nekeb@wlink.com.np,www.nkebhs.edu.np,,,
New Knowledge English School,Chabahil,,4471631,,,sourcesNpabsan,,,
New Leera College,Bhatbhateni,,4411508,,,,,,
New Leera English School,Sankhamul,,4783212,,,sourcesNpabsan,,,
New Life English Secondary School,Khumaltar,"3230,Ktm",5524002,,nlcs@wlink.com.np,,,,
New Light Boarding School,ShankarNagar,,540568,,,,,,
New Lira Secondary Boarding School,BhatBhateni,,4411508,,,,,,
New Millennium Academy,Sukedhara,"2319,Ktm","4418585,4427987",,nmahss@wlink.com.np,www.nima.edu.np,,,
New Millennium School,Kupondole,"20788,Ktm","5542326,9851057973",,prabigya@hotmail.com,,,,
New Model English School,ChipleDhunga,,520484,,,,,,
New Model School,Mahottari,,044-520130,,,,,,
New Moon Boarding School,Pokhara,,521627,,,,,,
New Shrain Academy,Ratopul,,4442171,,,sourcesNpabsan,,,
New Sirjana Pustak Pasal,"Pathari,Morang",,539223,,,,,,
New Vision Academy,Koteshwor,,6216552,,,,,,
New Vision Academy,Satungal,,4310642,,,,,,
New Zenith English Model School,Bhurungkhel,,4249164,,,,,,
Newton Academy,"Anarmani-3,Birtamod",,"023-540196,540576",,,,,,
Next Generation Residential Academy,Yetkha,,4265997,,mail@nextgeneration.edu.np,www.nextgeneration.edu.np,,,
Nexus International Academy,"Pepsicola,Townplanning",,4990303,,,,,,
Nicholson College (HSS),Sallaghari,"54,Bkt","6610662,6615931",,nicholson@enet.com.np,,,,
Nicholson Secondary School,Sallaghari,,"6610662,6615931",,,,,,
Nightingale College,Kupondole,,"5535663,5541420,5551829",,,www.nightingale.edu.np,,,
Nil Gagan Public School,Manamaiju,,4363632,,,,,,
Nil Ganga School,Babarmahal,,"4258349,4256813,4102024",,,sourcesNpabsan,,,
Nil Giri Boarding School,NewRoad,,521627,,,,,,
Nilkantha Higher Secondary School,Dhading,,"010-520106,520119",,,,,,
Nirmal Jana Sewa Higher Secondary,Parbat,,075-520544,,,,,,
Nirmal Secondary School,Jhamsikhel,8975EPC1226,"5521390,5548925",,nirmalschool@fol.com.np,,,,
Nirvana Academy (English Medium Primary School),"Swoyambhu,Kimdole","5728,Ktm","4276826,2180540",,nirvana@wlink.com.np,,4260668,,
Nishith Homes School,Maligaun,,4412850,,,sourcesNpabsan,,,
Nobel Academy Higher Secondary School & College,NewBaneshwor,,"4781401,4781515,4780232,4784076",,principal@nobel.edu.np,www.nobel.edu.np,,,
Nobel Boarding School,Dhanusha,,523498,,,,,,
Nobel School,NewBaneshwor,"12160,Ktm","4781401,4781515,4780232",,nobeljw@nobel.edu.np,,4780927,,
Nobel Village Eng. B. School,Mahadevsthan,,4313534,,,,,,
Norkhil Academy School,Sankhamul,,4108706,,,sourcesNpabsan,,,
North East English School,Bhaktapur,,6613281,,raghav@enet.com.np,,,,
North Point Academy,Gongabu,,4354423,,,,,,
North Point English Boarding Secondary School,"Mechinagar-10,Kakarvitta",,023-562200,,,,,,
North Valley English Sec. School,Dharmasthali,,4025590,,,,,,
North Valley Secondary English School,Dharmasthali,"13948,Ktm",4352021,,,,,,
Notredam Higher Secondary School,Bandipur,,"065-520127,520119",,,,,,
Oasis English School,Tutepani,8975EPC1420,5535858,,,,,,
Occidental Public School,Anamnagar,,"4247668,4226690",,ops@wlink.com.np,www.ops.edu.np,,,
Occidental Public School,Anamangar,13161,"4226690,4247668",,ops@wlink.com.np,www.ops.edu.np,,,
Om Education Academy,Chhetrapati,,4260222,,,,,,
Om Gyan Madir Secondary School,Lokhanthali,,6637065,,,,,,
OOM Boarding House,Biratnagar,,531263,,,,,,
Open House English School,Damaitole,,4262672,,,,,,
Orient College,Maharajgunj,,"4721445,4720158,4720651",,info@orientcollege.com,www.orientcollege.com,,,
Oscar International Academy,Kapan,,"016202386,9841206002",,,,,,
Oxford Academy,Baneshwor,,9841249278,,,sourcesNpabsan,,,
Oxford English Boarding School,Rupandehi,,"541363,544375",,,,,,
Oxford Practical School,Sallaghari,,"6611721,6617680",,oxford_englishschool@hotmail.com,,,,
Oxford Public School,Koteshwor,,4472585,,,sourcesNpabsan,,,
Pabitra Higher Secondary School,"Silgadhi,Doti",,"094-420112,420035",,,,,,
Pabma Chakra School,Phutang,,4026022,,,,,,
Pacific Academy,Shankhamul,,"4784380,4783101",,,,,,
Padam Memorial English School,MilanPath,,521370,,,,,,
Padma English School,Naxal,,4419554,,,,,,
Padma Kanya Secondary School,Dillibazar,,"4413292,4412085",,,,,,
Padma Primary English School,Boudha,,4471373,,,sourcesNpabsan,,,
Padmagyan Mandir School,Sankhamul,,4783677,,,sourcesNpabsan,,,
Padmodaya High School,Putalisadak,,4228681,,,,,,
Padmodaya Public Higher Secondary School,Dang,,083-560212,,,,,,
Paklihawa Madyamik Bidyalaya,Paklihawa,,520959,,,,,,
Palpa Awasiya Secondary School,"Tansen,Palpa",,"075-520282,520426",,,,,,
Panchadev Higher Secondary School,Kalikot,,078-549322,,,,,,
Panchakanya Higher Secondary School,Syanja,,063-429305,,,,,,
Panchakumari Secondary English Boarding School,"Banepa-4,Nayanbasti",,661992,,,,,,
Panchayan Celestial School,Dhapasi-7,"1384,Ktm",4353795,,panchayan@infoclub.com.np,,,,
Panchayat Higher Secondary School,Pathari,,"539204,555150",,,,,,
Panga higher Secondary School,Kirtipur,,4330069,,psschool@wlink.com.np,,,,
Panini Boarding School,Sinamangal,,4479187,,,,,,
Paradise School,Sanepa,"7516,Ktm",5548473,,paradiseschool@gmail.com,,,,
Paragon Public School,Tilganga,"11281,Ktm","4421390,4471891",,paragon@info.com.np,sourcesNpabsan,4495249,,
Paramananda Vidyashram,Golpokho,,4352224,,,sourcesNpabsan,,,
Paramount Academy,Gongabu,,4381034,,,,,,
Paramount English Medium Secondary Boarding School,Kuleshwor,,4278108,,,,,,
Parashar Higher Secondary School,Tanahu,,"065-560171,560231",,,,,,
Paribodh Boarding School,Dhobighat,,5528331,,,,,,
Paropakar Adarsha Higher Secondary School,Bhimsensthan,,4260212,,,,,,
Pasang Lamu Hr. Secondary School,Jorpati,,4361170,,,sourcesNpabsan,,,
Pasang Lhamu Sherpa Memorial College,Gongabu,,4363000,,,,,,
Pascal Int'l Academy,Santinagar,,4464184,,,sourcesNpabsan,,,
Pashchimanchal Higher Secondary School,Gairapatan,"502,Pkr",527444,,pahss@fewanet.com.np,,,,
Pashupati Higher Secondary School,Parbat,,067-420282,,,,,,
Pashupati Mitra Secondary School,Chabahil,,4470434,,,,,,
Pashupati Multiple Campus,Chabahil,,"4470412,4468363/364",,,,,,
Pathfinder Co-Ed School,"Prayagmarg,Battisputali","9244,Ktm",4495308,,rabo@wlink.com.np,,,,
Pathshala Nepal Foundation,NewBaneshwor,"8924,Ktm","4490451,4495653",,info@pathshala.edu.np,www.pathsala.edu.np,,,
Peace Land Academy,Banasthali,,9841231439,,,sourcesNpabsan,,,
Peace Point Boarding School,Sinamangal,"20387,Ktm",4490306,,peacepoint_school@hotmail.com,,,,
Peace Zone Boarding School,Itahari,,580068,,,,,,
Peak Point School,"Karfok,Ilam",,027-540234,,,,,,
Pennwood Academy,SanoGaucharan,,4417339,,info@pennwood.edu.np,,,,
Pentagon International College,Tinkune,,"4462745,4112324,4112325,4112422",,info@pentagonintl.com,"www.pentagon.edu.np,www.pentagonintl.com",,,
People's Campus,Pakanajol,"20336,Ktm","4251990,4251412",,pcampus@wlink.com.np,,4257506,,
Peoples Academy,Shanku,,4450716,,,sourcesNpabsan,,,
Phoenix International Academy,"Satmarg,Sanepa",,552563,,,,,,
Phulchowki Mahavidhalaya,Thaiba,,5560582,,,,,,
Pineridge Academy,Baluwatar,,4415657,,,,,,
Pinnacle Academy Higher Secondary School,Lagankhel,"4765,Ktm","5544023,5544024",,adpinnacle@wlink.com.np,,,,
Pinnacle Scholars' Academy,Kalanki,,4280240,,,,,,
Pioneer International School,Maipi,,9841422609,,,sourcesNpabsan,,,
Pokhara Higher Secondary School,Bagar,,440799,,,,,,
Pokhara Multimodel Higher Secondary School,Pokhara-8,,526948,,,,,,
Prabesh Technical Education PVT.LTD,ChaurjahariRukum,,9779866909956,,lokendraoli4@gmail.com,prabeshtechnicaleducationpvtltd.business.site,,Nepal,
Prabhat English Higher Secondary School,"Byasi,Bhaktapur",,"6610438,6617514",,,,,,
Prabhat High School,Thahity,,4259591,,,,,,
Prabhat Higher Secondary School,"Dehimadaun,Doti",,094-429144,,,,,,
Prabhat Secondary Boarding School,Rautahat,,"055-520236,520316",,,,,,
Pradise Reader's Academy,Thikthan,,4316305,,,,,,
Pragati Higher Secondary School,Ilam,,027-529075,,,,,,
Pragati Higher Secondary School,Balaju,,4350368,,,,,,
Pragati Prabhat Secondary School,"PoolBazar,Banepa",,661038,,,,,,
Pragati Prastabit Secondary School,Hetauda,,520226,,,,,,
Pragya Commerce College,Thamel,,"4417028,4411894",,,,,,
Pragya Higher Secondary Boarding School,Thamel,,"4417028,4411894",,,,,,
Pragya Jyoti English  School,Bijeshwori,,4277720,,School_pragyajyoti@hotmail.com,www.pjes.org,,,
Pragya Jyoti English School,Bijeshwori,,4277720,,school_pragyajyoti@hotmail.com,,,,
Prakash Jyoti Higher Secondary School,Manang,,066-449320,,,,,,
Prasadi Academy Higher Secondary School,Kumaripati,,"5530562,5541117",,info@prasadi.edu.np,,,,
Prasant English Boarding School,Balkhu,,4331708,,,sourcesNpabsan,,,
Prasar Higher Secondary School,Damauli,,065-560190,,,,,,
Pratibha Middle School,Tersapatti,,521546,,,,,,
Premier English Boarding School,"Rajbiraj-5,Saprari",,031-520975,,,,,,
Premier Higher Secondary School,Tinkune,,4484111,,,,,,
Prerana Boarding School,"Maijubahal,Chabahil",,4471647,,,,,,
Prime English School,Tinthana,,4311888,,,,,,
Princenton Boarding School,Sinamangal,,4112093,,,sourcesNpabsan,,,
Princeton College,Kumaripati,,5537556,,,,,,
Princeton International Boarding School,NewBaneshwor,,4107533,,,,,,
Prithivi Cambridge English School,KiratChowk,,524616,,khamtule2@yahoo.com,,,,
Prithivi Higher Secondary School,Baglung,,068-520277,,,,,,
Prithivi Higher Secondary School,Gulmi,,079-529398,,,,,,
Prithivi Higher Secondary School,Khotang,,036-429219,,,,,,
Prithivi Higher Secondary School,Panchthar,,024-529111,,,,,,
Prithvi Cambridge English School,KirantChowk,,524616,,,,,,
Prithwi Secondary Boarding School,Basundhara,,4354163,,prithwi@mos.com.np,,,,
Pritima Sec. School,Sinamangal,,4990011,,,,,,
Prograssive English School,Kathmandu,,"4271188,4276169",,,sourcesNpabsan,,,
Progress Higher Secondary School,Dhobhighat,"20278,Ktm","5550676,5537314",,info@progress.edu.np,www.progress.edu.np,,,
Progressive English Preparatory School,Mahankal,,"2140567,4490080,9851063641",,bparajuli123@hotmail.com,,,,
Prolific English School,Dhumbarahi,"11663,Ktm",4429411,,,,,,
Prolofic Higher Sec. School,Teku,,"4260771,4274690",,,,,,
PTI College,Jawalakhel,,5536298,,aberdeen.aies@gmail.com,,,,
Public Byawasayi Madyamik Bidyalaya,Dharan,,520267,,,,,,
Public Higher Secondary School,Morang,,524955,,,,,,
Public Higher Secondary School,Rupandehi,,529355,,,,,,
Public Madyamik Vidyalaya,Dharan-13,,520416,,,,,,
Public Secondary English School,ChamatiPhant,,"4355224,4357205",,,,,,
Puja English School,Gattaghar,,6631642,,,,,,
Punarbas Higher Secondary School,Kanchanpur,,099-529202,,,,,,
Purbanchal English Boarding High School,"Damak-9,Jhapa",,023-580979,,purbanchal@jhapa.info.com.np,,,,
Purbanchal Gyan Chachhu Bidyalaya,Dharan,,520152,,,,,,
Purbanchal Higher Secondary School,"Chandragadhi,Jhapa",,"023-520427,521146",,,,,,
Purbanchal Science & Management School,Morang,,521170,,,,,,
Purbanchal Vidhya Pratisthan,Morang,,521404,,,,,,
Purnachandi Boarding Higher Secondary School,Purnachandi,,"5538832,5538233",,jmamatya@hotmail.com,www.pubohss.edu.np,5538233,,
Purnatara International Boarding School,Satdobato,,5535409,,purnatara@enet.com.np,,,,
Purneshwor Higher Secondary School,Parbat,,067-420115,,,,,,
Pushpa Kunja High School,Samakhusi,,4350498,,pushpakunja@wlink.com.np,,,,
Pushpanjali Secondary School,Godavari,"559,Ltp",5560121,,puhami@wlink.com.np,,5560643,,
Puspa Kunj School,Subidhanagar,,"4481102,4497433",,,sourcesNpabsan,,,
Puspa Kunja School,Samakhushi,"5811,Ktm",4350498,,puspakunja@wlink.com.np,,,,
Puspa Sadan Boarding High School,Kirtipur,,"4331827,4331917",,,,,,
Pyramid International College,"Pingalasthan,Gaushala",7842,"4477140,4477141,4477142",,info@pyramidinternational.edu.np,www.pyramidinternational.edu.np,4477143,,
Pyramid International Montessori School,MidBaneshwor,,4461305,,,,,,
Radha Krishna Madyamik Bidyalaya,PaniTanki,,522968,,,,,,
Radiant Public B. School,"Sitapaila,Bafal",,4671107,,,,,,
Radiant Readers' Academy,Sanepa,"21838,Ktm","5529757,5541136,5529757",,radiantschool@enet.com.np,www.radiant.edu.np,,,
Rai School,Jorpati,"23229,Ktm","4412510,4911685",,raischool@wlink.com.np,www.raischoolnepal.com,4910232,,
Rainbow English Secondary School,Bhaktapur,,6631134,,,,,,
Rainbow International College,Chhauni,,4280842,,,,,,
Rajarshi Janak Higher Secondary School,Dhanusha,,521860,,,,,,
Raktakali Education Foundation,Khushibu,,"4251733,4249538,4263452",,info@ref.edu.np,www.ref.edu.np,,,
Ram Dhuni English School,"Jhumka,Sunsari",,562076,,,,,,
Rambinay mahato,Dhalkewar,132001,918683027221,9844464533,rambinaymahato@gmail.com,,,Nepal,
Rameshwor Higher Secondary School,Sankhuwasabha,,029-569100,,,,,,
Ramjanaki Secondary Boarding School,Banke,,540036,,,,,,
Ramnarayan Ayodhya Higher Secondary School,Mahottari,,044-529000,,,,,,
Ramshah Higher Secondary School,Tanahu,,065-540084,,,,,,
Ranidevi Lower Secondary School,Ranibari,,4445177,,,,,,
Rapti Vidhya Mandir Awasiya H. Secondary School,Dang,,082-520037,,,,,,
Rarahil Memorial School,Kirtipur,,4330121,,,,,,
Rashmi Secondary School,Swoyambhu,,4270356,,,,,,
Rastriya Higher Secondary School,Kaski,,520271,,,,,,
Rastriya Science & Commerce School,Morang,,526033,,,,,,
Rastriya Sungava Boarding High School,Lampokhari,,4470119,,,,,,
Ratna Rajya Laxmi School,Baneshwor,,4471757,,,,,,
Rato Bangala School,PatanDhoka,,"5534318,5522614",,rbs@mos.com.np,www.ratobangala.org,,,
Rauleshwor Higher Secondary School,"Beldandi-8,Kanchanpur",,099-520165,,,,,,
Rayners Residential High School,Minbhawan,8973NPC212,4473433,,rayners@enet.com.np,,,,
Readers Public High School,"Tamghas-5,Gulmi",,079-520116,,,,,,
Red Star Secondary English Boarding School,"Pathari-2,BuddhaChowk",,021-555078,,,,,,
Reed Model English Boarding School,Swoyambhu,,"4890465,4890499",,info@reedmodelschool.com,www.reedmodelschool.com,,,
Rehdon Higher Secondary School & College,Samakhushi,"9960,Ktm","4352761,4364106",,rehdon@info.com.np,www.rehdoncollege.edu.np,,,
Reliable English School,Bhimsengola,,4468161,,,sourcesNpabsan,,,
Reliable English School,Bhatbhateni,,9841261410,,,,,,
Reliance Int'l Academy,Kapan,"809,Ktm","4810529,4811552",,,,,,
Reliance International Academy,"Kapan,3MilesChowk",,"4810529,4811552",,ria@mail.com.np,www.rianepal.edu.np,,,
Reliance International Academy,Chabahil,"809,ktm","4478836,4461445,9851055016",,ria@mail.com.np,www.rianepal.edu.np,4811763,,
Reliance Residential School,OldBaneshwor,"3460,Ktm",4473237,,reliance@enet.com.np,,,,
Renbow Int'l School,Samakhusi,,4363005,,,sourcesNpabsan,,,
Republica International College,Kupondole,,"5521235,5528307",,info@advanceacademy.edu.np,www.advancedacademy.edu.np,,,
Rhododendron Int'l Higher Secondary Boarding School (RIBS),"Balambu,Mahadevsthan",,"4312317,4312257",,ymb@wlink.com.np,www.ribs.edu.np,,,
RIBS College of Advanced Learning,Kalankisthan,,"4312257,4312317",,ymb@wlink.com.np,www.nepal-schools.com/ribs,,,
Richmond Academy,"Kalanki,Awartanagar",,"4275927,4273861",,,,,,
Ridi Higher Secondary School,Gulmi,,079-529431,,,,,,
Rising Rays Boarding School,Putalisadak,,"4436024,4433415,4424711",,deepakk_c@hotmail.com,,,,
Rising Star School,Bafal,,"4281602,4271467",,ram_kshetri2001@yahoo.com,sourcesNpabsan,,,
Rising Star School,Putalisadak,,4430327,,,,,,
Riviera International Academy,"Maijubahal,Chabahil",,"4462223,4485087",,info@riviera.edu.np,,,,
Rosebud School,Buddhanagar,,"4780923,4783003",,info@rosebud.edu.np,www.rosebud.edu.np,,,
Rudra Academy,Kalankisthan,,"4270119,4281819",,,www.nepal-schools.com/rudra,,,
Rukmini Higher Secondary School,Rukum,,088-649101,,,,,,
Rumjatar Higher Secondary School,Okhaldhunga,,037-540119,,,,,,
Rupak Memorial Int'l High School,Kupondole,,5523748,,,,,,
Rupy's International School,"Bafal,Tahachal","20,Ktm","4282907,4270540",,rupyschool@wlink.com.np,www.rupys.edu.np,4283418,,
Sacred Heart B. School,Kathmandu,,4353861,,shs_school@hotmail.com,,,,
Sacred Heart Secondary School,Itahari,,584322,,,,,,
Sadananda Higher Secondary School,"Dingla,Bhojpur",,029-429057,,,,,,
Sagarmatha Boarding High School,Jawalakhel,"3345,Ktm","5526415,5524924",,,,,,
Sagarmatha College,Dharan-10,,520263,,,,,,
Sagarmatha Education Academy,Kamalpokhari,,4423829,,,sourcesNpabsan,,,
Sagarmatha Higher Secondary School,"Ranibas,Bhojpur",,029-429065,,,,,,
Sagarmatha Higher Secondary School,Kaski,,532798,,,,,,
Sagarmatha Multiple College,Dillibazar,"19363,Ktm","4433334,4433810",,info@smcollege.edu.np,www.smcollege.edu.np,4433190,,
Sahashraling Higher Secondary School,"Chamada,Dadeldhura",,096-429230,,,,,,
Sahid Dharma Bhakta Higher Secondary School,Jhapa,,023-539003,,,,,,
Sahid Higher Secondary School,Okhaldhunga,,037-520206,,,,,,
Sahid Smriti Madhyamik Vidhyalaya,Dharan-8,,520937,,,,,,
Sai Nilayam Sec. Boarding School,Kalimati,,4285857,,,,,,
Sai trinity School,Gongobu,,4356872,,,sourcesNpabsan,,,
Sailputri Higher Secondary School,Lamjung,,066-529324,,,,,,
Saipal Academy,Sukedhara,"3503,Ktm","4378154,4650924",,readbpmb@wlink.com.np,www.saipal.edu.np,,,
Sakalbhawan Kanya Higher Secondary School,Dhanusha,,520448,,,,,,
Sakkal Bhawari Kanya Madyamik Bidyalaya,MillsArea,,520253,,,,,,
Salvenia Academy,Balaju,,4355555,,,sourcesNpabsan,,,
Samakhushi English Boarding (SEB) School,Samakhusi,"12008,Ktm",4353049,,ythapa2003@yahoo.com,,,,
Samata Sikshya Niketan,Boudha,,4469756,,samata@hons.com.np,,,,
Sambodha Kinder Garden School,Tinchuli,,4490474,,,,4493970,,
Sambotta High School,Teenchuli,"2538,Ktm",4490474,,sambodha@hons.com.np,,4493970,,
Samten Memorial Education Academy,Kapan,"10527,Ktm",16223462,,thi@wlink.com.np,sourcesNpabsan,4820043,,
Samten Memorial School,Chamati,,"4355227,4357205",,,,,,
Sanatan Dharma Higher Secondary School,Baitadi,,095-529355,,,,,,
Sanishchare Higher Secondary School,Jhapa,,023-540564,,,,,,
Sanjibani Higher Secondary School,Dhulikhel,,490107,,,,,,
Sanjiwani Model Higher Secondary School,Dhulikhel,,"490436,9841222114,9841306731",,,,,,
SANN International College,Gairidhara,"5582,Ktm","4420509,4430840",,info@sann.edu.np,,4421803,,
Sanskar English School,Kapan,,"2070519,4811078",,,sourcesNpabsan,,,
Sanskrit Secondary School,Ranipokhari,,4249275,,,,,,
Santoshi Pre Primary School,Mahankal,,"4470894,2070306",,,,,,
Sapta Gandaki Boarding School,Dhapasi,"13808,Ktm",4353869,,sapta@wlink.com.np,,,,
Saptakoshi English Boarding High School,"Urlabari-2,Morang",,540396,,,,,,
Sarada Balika Namuna Vidhyalaya,Dharan-16,,520962,,,,,,
Sarada English Boarding School,Nadipur,,531516,,,,,,
Sarada Sikshya Sadan Higher Secondary School,Tanahu,,065-580021,,,,,,
Sarasoti Middle School,Bramhapuri,,520175,,,,,,
Saraswati Adarsha Vidhyashram,Kaski,,"522412,9856020020",,,,,,
Saraswati Boarding Higher Secondary School,Chhetrapati,,"4251374,4251268",,headu10@hotmail.com,,,,
Saraswati English School,TriveniMarg,,523766,,,,,,
Saraswati Vidhya Mandir,Kalimati,,4270184,,,,,,
Saraswati Vidhya Mandir Secondary School,"Mahendranagar,Kanchanpur",,099-521346,,,,,,
Saraswoti English School,"Duwakot,Bhaktapur",,6631646,,,sourcesNpabsan,,,
Saraswoti Higher Secondary School,Arghakhanchi,,077-429377,,,,,,
Saraswoti Higher Secondary School,"Bungal,Bajhang",,092-420321,,,,,,
Saraswoti Higher Secondary School,"Diktel,Khotang",,036-420124,,,,,,
Saraswoti Higher Secondary School,Gulmi,,079-529513,,,,,,
Saraswoti Higher Secondary School,"Pipara,Rautahat",,055-529037,,,,,,
Saraswoti Higher Secondary School,Duhabi,,"580184,540349",,,,,,
Saraswoti Kunj Higher Sec. School & College,Gyaneshwor,11764,4440992,,,,,,
Saraswoti Kunj Secondary School,Gyaneshwor,"6934,Ktm","4412057,4418086",,,www.saraswotikunj.edu.np,,,
Saraswoti Madyamik Bidyamik Bidyalaya,Thakurbadi,,522314,,,,,,
Saraswoti Vidhya Griha,Bhaktapur,,6610202,,,,,,
Sarbamangala Higher Secondary School,Panchkhal,,663056,,,,,,
Sarbodaya Higher Secondary School,Lamjung,,066-529422,,,,,,
Sarbodaya Higher Secondary School,Saptari,,031-520060,,,,,,
Sarbodaya Higher Secondary School,Kadmaha,,522926,,,,,,
Satasidham Higher Secondary School,Jhapa,,023-529611,,,,,,
Sathya Sai Eng. Medium Res. H. School,Gaushala,,4486813,,koirala.suman9@gmail.com,,,,
Sathya Sai School,Gaushala,,"4473777,4486813",,,,,,
Sathya Sai School,"Pinglasthan,Gaushala",,4473777,,poamita03@gmail.com,,,,
Satya Sai Academy,Dhumbarahi,,4429411,,,sourcesNpabsan,,,
Satya Shishu Niketan,PutaliLine,,520417,,,,,,
Satyanarayan High School,BiratnagarRoad,,522814,,,,,,
Saurdeep Boarding School,Balaju,"3363,Ktm",4351000,,,,,,
Saurya Int'l H.S. School & College,Sinamangal,"12284,ktm","4112047,4108150",,info@saurya.edu.np,www.saurya.edu.np,,,
Sautha Higher Secondary School,Sautha,,539801,,,,,,
Sayapatri High School,Nawalparashi,,078-520557,,,,,,
Sayapatri Secondary English School,"Tarahara,Sunsari",,581245,,,,,,
Schems College,Maharajgunj,,"4721296,4720995",,schems_college@hotmail.com,www.schemscollege.edu.np,,,
Scholars' Home,Butwal,,540271,,,,,,
Season English Boarding School,MidBaneshwor,,4483040,,,,,,
Seasons Academy,Balaju,,9841295453,,,sourcesNpabsan,,,
Seb School,Samakhushi,,4353049,,,,,,
Secondary Boarding School,"Itahari-4,Sunsari",,"580323,580586",,,,,,
Secondary Boarding School,LaxmiSadak,,520227,,,,,,
Secret Boarding School,Balaju,,4353861,,,,,,
Serene Hill English School,Shankhu,,4450969,,,,,,
Serene Valley School,MidBaneshwor,"1814,Ktm","4470877,4469113",,serenevalleyschool@gmail.com,,4473651,,
Sesame World,Lazimpat,,4416677,,sesameworld@enet.com.np,,,,
Seto Bangala School,Koteshwor,,4499042,,,sourcesNpabsan,,,
Sewa Sadan English Boarding School,Battisputali,,"4475035,4468875",,sewasadanschool@gmail.com,www.sewasadan.edu.np,,,
Sewa Sadan High School,Kalopul,,"4411294,4419710",,,sourcesNpabsan,,,
Shahid Dharma Bhakta School (SDB),Nakhu,"777,Ktm",5591239,,anurup@wlink.com.np,,5590248,,
Shaileshwori Higher Secondary School,"Silgadhi,Doti",,094-420110,,,,,,
Shakela Higher Secondary School,Khotang,,036-429218,,,,,,
Shambhavi High School,Battisputali,,4470618,,,,,,
Shangri-La Public School,Jorpati,,4910901,,sps@enet.com.np,,,,
Shankar Higher Secondary School,Terhathum,,026-460169,,,,,,
Shankarapur Academy,Jorpati,,4910598,,,,,,
Shankarpur Higher Secondary School,"Pasti,Darchula",,093-429319,,,,,,
Shanti Adarsha High School,Jorpati,,4912175,,info@shantiadarsha.edu.np,,,,
Shanti Barsa Higher Secondary School,Tanahu,,065-560015,,,,,,
Shanti Bhagwati Higher Secondary School,Morang,,560034,,,,,,
Shanti Bidhya Griha Secondary School,Lainchour,,4412099,,,,,,
Shanti Higher Secondary School,Bajhang,,092-420377,,,,,,
Shanti Higher Secondary School,Lamjung,,066-529326,,,,,,
Shanti Ishwori High School,Pyaphal,,4261901,,,,,,
Shanti Niketan Residential High School,SuryaBinayak,"498,Ktm","6610562,6611260",,shanti.niketan@yahoo.com,,,,
Shanti Nikunj School,BhagwatiBahal,,4258145,,,,,,
Sharada Balika Namuna Higher Secondary School,Sunsari,,520962,,,,,,
Sharada Madyamik Bidyalaya,Devpatan,,4472607,,,,,,
Sharada Madyamik Bidyalaya,Dharan,,520130,,,,,,
Sharada Secondary School,Bhaktapur,,6610209,,,,,,
Sharda Higher Secondary School,Barhabise,,661533,,,,,,
Shasi Nilayam School,Golphutar,,4371715,,,sourcesNpabsan,,,
Sheetal Higher Secondary School,Rukum,,088-649102,,,,,,
Shibshanti Madhyamik Vidyalaya,Phoolbari,,521836,,,,,,
Shikhar Academy,Jawalakhel,,"5545629,5523191",,,,,,
Shikhar Boarding Higher Secondary School,Jawalakhel,,"5545629,5523191",,,,,,
Shikharapur Community Shool,Pharping,,4710227,,,,,,
Shikshantar School,Sinamangal,,4111132,,,,,,
Shikshya Niketan Madhyamik Vidhyalaya,Dharan-6,,520324,,,,,,
Shikshya Sadan Madhyamik Vidhyalaya,Dharan-15,,520290,,,,,,
Shining Star School,Lalitpur,,"5521751,5528784",,,,,,
Shining Stars High School,"Sanepa,Lalitpur",,5528784,,,,,,
Shishu Milan Eng. High School,Chunikhel,,4370364,,,,,,
Shishu Niketan School,OldBaneswor,,4490821,,shishuniketan@gmail.com,,,,
Shishu Niketan Secondary English School,"Birauta,Pokhara",,461598,,,,,,
Shishu Nikunja Higher Secondary English School,Sitapaila,,"4278545,4289779",,,,,,
Shishya,BishalNagar,,"4416659,9849466679",,shishya@wlink.com.np,,,,
Shivajan Higher Secondary School,Salyan,,088-529108,,,,,,
Shivalaya Higher Secondary School,Parbat,,067-421147,,,,,,
Shivapuri Higher Secondary School,Maharajgunj,"4789,Ktm",4410877,,sivapuri@enet.com.np,,,,
Shobha Bhagawati English School,Chhetrapati,,4258146,,,,,,
Shova Bhagawati Sec. School,ShovaBhagawati,,4258146,,,,,,
Shova Boarding School,Butwal,,540457,,,,,,
Shree Bajrayoginee Secondary School,Sankhu,,"4450740,4451028",,,sourcesNpabsan,,,
Shree Bajrayogini School,Koteshwor,,9841209764,,,,,,
Shree Balephi S. S.,"Balephi,Sindhupalchowk",,"6915481,9741112613",,,,,,
Shree Balkumari Secondary School,PrayagPokhari,,5527008,,,,,,
Shree Balmiki Memorial Boarding High School,"Pathari-2,Buddhachowk,Morang",,539204,,,,,,
Shree Basu Secondary School,Byasi,,"6610648,6615257,6619014",,,,,,
Shree Bhakta Vidhyashram,Tangal,,4264177,,,,,,
Shree Chamunda Secondary School,Bhurungkhel,,4264917,,,,,,
Shree Chandan Nath Primary School Rukum,"Khlanga,o1-Rukum",112,977088530037,9779857821873,rjrukum@gmail.com,www.rjrukum.blogspot.com,977088530037,Nepal,
Shree Everest English School,Morang,,"524443,532938",,,,,,
Shree Ganesh Himal Secondary School,Gongabu,,4353485,,,,,,
Shree Gyanodaya Secondary School,Baphal,,"4270155,4282772",,,,,,
Shree Higher Secondary School,Sindhuli,,047-529165,,,,,,
Shree Janta Secondary School,Hupsekot-04Beluwa,,078-692780,,,,,Nepal,
Shree Krishna Prabha Sec. School,Hadigun,,4438470,,,,,,
Shree Kumari Secondary School,Jaishidewal,,4251073,,,,,,
Shree Mahankal Jana J. Secondary School,"Mahankal,Golfutar",,4373272,,,,,,
Shree Mahankal Secondary School,Mahaboudha,,4224362,,,,,,
"Shree Mahendra Higher Secondary School,","Chaturale-3,Nuwakot",,977016211743,9751003925,,www.chaturaleschool.edu.np,,Nepal,	Kathmandu
Shree Mangal Deep High School,Boudha,"2087,Ktm",4472007,,,,4497253,,
Shree Modern Era Boarding High School,"CampusRoad,Dhangadhi-8",,"091-523202,524876",,msharmz@rediffmail.com,,,,
Shree Nagar Science Higher Secondary School,Palpa,,075-520126,,,,,,
Shree Namuna English Boarding School,"Butwal-8,Rupandehi",,542823,,,,,,
Shree Narayan Pandit Memorial,MulpaniChour,,2140745,,,,,,
Shree Narayani English Boarding School,Nawalparasi,,078-539434,,,,,,
Shree Navin Jyoti English School,Bhimdhunga,,4037513,,,,,,
Shree Nepal Shanti Secondary School,Hupsekot-03Belahani,,078-540462,,nepalshantiss@gmail.com,,,Nepal,
Shree New Pagoda Residential Secondary School,"Pathari-1,Morang",,021-555306,,,,,,
Shree New Pagoda Residential Secondary School,"Pathari-1,Morang",,555306,,,,,,
Shree Panch Ratna Rajya Laxmi Madhyamic Vidhalaya,PuranoBaneshwor,,"4471757,4493891",,,,,,
Shree Ram High School,Khopasi,,661319,,,,,,
Shree Rastriya Lower School,Ilam,,027-690459,9842780979,raaauilam@gmail.com,,,Nepal,
Shree Rastriya Lower Secondary School,Ilam-Jamuna-8Ingla,,027-690459,9742626643,razzuilam@gmail.com,,9842780979,Nepal,
Shree Sagarmatha English School,Lokanthali,,6632060,,,,,,
Shree Saraswoti Niketan Secondary School,BramhaTole,,4255489,,,,,,
Shree Shakti English Boarding School,ShantiDarshanMarga,,521790,,,,,,
Shree Siddhimangal Higher Secondary School,Siddhipur,,5581243,,,,,,
Shree Tin Chandra Madyamik Bidyalaya,Kalaiya,,053-550112,,,,,,
Shree Tripura Glorious Academy,"Dolkha,Charikot",,049-420331,,,,,,
Shree Vinayak English School,Chabahil,,4472355,,,,,,
Shreekrishna Higher Secondary School,Terhathum,,026-469011,,,,,,
Shridiwa Int'l School,KamalPokhari,,"4434518,4434091,4419991",,shridiwa@ecomail.com.np,www.shridiwa.edu.np,,,
Shrine Academy,Gaushala,,4474774,,,,,,
Shubha Yug Boarding High School,Sitapaila,,4033105,,,,,,
Shubhakamana Academy,Kirtipur,,4330934,,,,,,
Shuvakamana English B. H. School,Manajaiju,,4026599,,,,,,
Shuvatara English School,Lamatar,"6335,Ltp",5580270,,shuvatara@wlink.com.np,,5580270,,
Shuvatara School,Sanepa,"4384,Ktm","5526783,5520742",,shuva@wlink.com.np,,5521849,,
Shwet Barahi English School,Sundarijal,,4450911,,,,,,
Siddhartha Banasthali Science Campus,Balaju,,4353099,,rupak@siddhartha.wlink.com.np,,4350078,,
Siddhartha Boarding Higher Secondary School,"Damak-12,Jhapa",,023-580142,,,,,,
Siddhartha Boarding School,Banepa,,661143,,,,,,
Siddhartha Boarding School,KalikaNagar,,540582,,,,,,
Siddhartha English High School,Banepa,,661143,,,,,,
Siddhartha English School,Sunakothi,,5571175,,,,,,
Siddhartha Higher Secondary Boarding School,"Kawasoti,Nawalparasi",,"078-540168,540368",,,,,,
Siddhartha Higher Secondary School,Phedikhola,,063-429480,,,,,,
Siddhartha Higher Secondary School,Tanahu,,065-529329,,,,,,
Siddhartha Higher Secondary School,Banepa,,661143,,,,661872,,
Siddhartha Madyamik Bidyalaya,Birgunj,,522992,,,,,,
Siddhartha Model School,Manajailju,,16211866,,,,,,
Siddhartha Public Academy,Bagbazar,,"4244867,2003690",,,,,,
Siddhartha Shishu Niketan Primary School,Bhrikutimandap,"993,Ktm",4226743,,sukhi@ntc.net.np,www.sukhihotunepal.org,,,
Siddhartha Shishu Sadan,"VidyutPradhikaranMarg,Janapath",,520656,,jeeves656@yahoo.com,www.siddhartha.netfirms.com,,,
Siddhartha Shishu Sadan Boarding School,Bhadrapur,,"023-521048,520979",,,,,,
Siddhartha Shishu Sadan Higher Secondary School,Morang,,525025,,,,,,
Siddhartha Sishu Sadan,Biratnagar,,528591,,,,,,
Siddhartha Vanasthali Institute,Balaju,,"4350075,4350884,4351848",,rupak@sidarth.wlink.com.np,,,,
Siddhartha Vidhyapeeth Secondary Boarding School,Bishalnagar,,4418200,,stgeorgebw@gmail.com,,,,
Siddhartha Vidya Sadan,NewBaneshwor,,4115754,,info@siddharthavs.com,www.siddharthavs.com,,,
Siddhartha Vidyapeeth,Gathaghar,,6631697,,svp@enet.com.np,,,,
Siddheshwor Higher Secondary School,Ramechhap,,048-529300,,,,,,
Siddhi Children Academy,ShrawanPath,,541412,,,,,,
Sigma College,Sorhakhutte,,4358484,,,,,,
Siksha Niketan Madyamik Bidyalaya,Dharan,,520324,,,,,,
Silver Mountain School of Hotel Management,Lainchaur,,"4415038,4429151",,bhm@silvermountain.edu.np,www.silvermountain.edu.np,,,
Sinam Higher Secondary School,"Sinam,Taplejung",,024-469020,,,,,,
Sipal Academy International Cambridge Gce3 A-level College,Sukedhara,3503,"4378154,4650924",,readbpmb@wlink.com.np,,,,
Sirijung Higher Secondary School,Panchthar,,024-529104,,,,,,
Sirjana English School,Jorpati,,2100101,,,,,,
Sirjana Vidyamandir School,Kathmandu,,4447660,,,sourcesNpabsan,,,
Sirjanshil English School,Maharajgunj,,4720672,,,sourcesNpabsan,,,
Sirjanshil Sec. English School,Babarmahal,,"4256813,4258349",,sirjanshil@gmail.com,www.sirjanshil.educationsansar.com,,,
Sita Janasahyog Higher Secondary School,Dailekh,,089-429556,,,,,,
Sitaram Higher Secondary School,"Jijauramandaun,Doti",,094-429165,,,,,,
Siyanja Patel,Schuchatar,,4281375,,,sourcesNpabsan,,,
Skylark English School,Dhapasi,,"4375444,4376944",,,,,,
Small Heaven Boarding School,Chhetrapati,,4215836,,smallheaven@enet.com.np,,,,
Small Wonders,Bansbari,,2124096,,,,,,
Smriti Child Care & Kindergarten,Basbari,"118,Ktm","4372171,9851078473",,smriti_cck@hotmail.com,,,,
Sneha Boarding School,Kapan,,16223462,,,sourcesNpabsan,,,
Sneha English Boarding School,Baneshwor,,"4488274,4499019",,,sourcesNpabsan,,,
Sneha Secondary English School,Sinamangal,,"4473889,9841443984",,snehadas@enet.com.np,,,,
Snow Apex Academy,Dhobidhara,,4412241,,,,,,
Snow Apex Academy,Dhobidhara,,"4424427,4422002",,snowapex@hotmail.com.np,,,,
Sociatal Secondary School,Sankhu,,9841446891,,,sourcesNpabsan,,,
Societal Higher Secondary School,NewBaneshwor,,"4499019,4488274,4494446",,,,,,
Societal School,NewBaneshwor,,4488274,,sci@wlink.com.np,,,,
Solukhumbu Higher Secondary School,Solukhumbu,,038-620118,,,,,,
Sooryodaya Secondary School,Bhaktapur-6,,6612905,,,,,,
SOS Hermann Gmeiner School,Panauti,"P.O.Box504,Banepa",664350,,hgskavre@mos.com.np,,,,
SOS Hermann Gmeiner School,Sanothimi,"757,Ktm","6630491,6631578",,soshgs@mos.com.np,www.sos-childrensvillages.org,6630191,,
SOS Hermann Gmeiner School,Panauti,"504,Banepa",664350,,hgskavre@mos.com.np,,,,
SOS Hermann Gmeiner School,Pokhara,"36,Pkr","524569,532793",,,,,,
South Point Boarding High School,NewBaneshwor,,"4780605,4781413",,kspbs@hotmail.com,,,,
South Valley High School,Kritipur,,4333554,,,,,,
Southen Paradise School,Goldhunga,,16210045,,,sourcesNpabsoan,,,
Spiral Galaxy Academy,"Mansadak,Bagar-1",,527495,,,,,,
Springdale E. S. B. School,Katunje8,,"6615294,6617273",,springdale@htp.com.np,www.springdale.edu.np,,,
Srijana Gyankunj Higher Secondary School,Morang,,526535,,,,,,
Sringar Bigyan Higher Secondary School,Palpa,,075-520126,,,,,,
Srongtsen Bhrikuti Boarding High School,Boudha,"1609,Ktm",4470122,,srongtsen@wlink.com.np,,4496501,,
St. Devi's English School,Swoyambhu,,4280176,,,sourcesNpabsan,,,
St. Edmond's School,Dhumbarahi,,4370805,,,,,,
St. Jons School,Ghattekulo,,4477532,,,sourcesNpabsan,,,
St. Joseph English School,RatnaChowk,,523264,,,,,,
St. Joseph Higher Secondary School,Morang,,523623,,,,,,
St. Joseph's English Academy,Galfutar,"9785,Ktm",4371715,,amar_stjoseph@yahoo.com,,,,
St. Lawrence College,Chabahil,"1221,Ktm","4487864,4460996",,info@stlawrence.edu.np,www.stlawrence.edu.np,,,
St. Mary's High School,Jawalakhel,,5521574,,,,,,
St. Paul International School,NewBaneshwor,,"4494556,4477081",,info@stpaul.edu.np,www.stpaul.edu.np,,,
St. Thomas High School,Nepalgunj,,081-521423,,,,,,
St. Xavier's High School,Jawalakhel,"50,Ktm","5521050,5521150",,stxgold@mos.com.np,,5540024,,
St. Xavier's High School,Janakpur,,521122,,,,,,
St. Xavier's School,Godavari,"50,Ktm",5560558,,sxgodavari@wlink.com.np,,,,
St. Xaviers's High School,"Shreepur,Birgunj",,"051-524518,521032",,,,,,
Standard Co-Ed High School,Kalankisthan,,"4280809,4271476",,,,,,
Star Secondary Boarding School,Biratnagar,,"528826,530378",,,,,,
Step by Step Boarding School,Masbar-7,,"521476,537476",,stepbystep@bb.com.np,,,,
Stephens International School,Maharajgunj,,"4373004,4378435",,stephens.intl@gmail.com,,,,
Students Open School,BhatbhateniChowk,15142KPC656,4415244,,students-counsel@hotmail.com,,,,
Subijimur  Memorial English School,"Indrapur-8,Morang",,539715,,,,,,
Sudesha High School,Nakhu,8975EPC800,5538604,,,,,,
Sudur Pashchimanchal Higher Secondary School,"Dhangadhi,Kailali",,091-523192,,,,,,
Summit Secondary School,"Dharan-9,Sunsari",,522770,,,,,,
Sumnima Boarding School,Chakupat,,5533176,,,,,,
Sumnima English School,Dharan,,520592,,,,,,
Sun Light School,Maitidevi,,4425936,,,sourcesNpabsan,,,
Sun Shine Boarding High School,NewBaneshwor,,4490302,,info@sunshineschool.edu.np,www.sunshineschool.edu.np,,,
Sun Shine Secondary Boarding School,Siddharthanagar,,520503,,,,,,
Sun Shine Secondary Boarding School,Abukhairani,,065-540071,,,,,,
Sundarban School of Science,DhungaAdda,,"4312128,9841711724",,,,,,
Sungabha English Boarding School,"Amarhat,Dharan-13",,"525310,520804",,,,,,
Sunkoshi High School,Babarmahal,,"4267039,4218944",,,www.sunkoshischool.edu.np,,,
SunKoshi Secondary School,Sindhupalchowk,,663102,,,,,,
Sunlights Secondary,Chabahil,,4486565,,,,,,
Sunmoon English School,Maharajgunj,,4427240,,,,,,
Sunrise Boarding School,Lazimpat,,"4415166,4410763",,sunrise162@hotmail.com,,,,
Sunrise English Boarding School,"Maharani-2,Jhapa",,023-580033,,,,,,
Sunrise English Boarding School,Sainbu,,5591874,,msg2sunrise@gmail.com,,,,
Sunrise English School,Balephi,,680940,,,,,,
Sunrise Public School,"Mahendranagar,Kanchanpur",,099-560213,,,,,,
Sunsari Technical School,SinghaDeviChowk,,520130,,,,,,
Sunshine Higher Secondary School,Bhairawa,,520503,,,,,,
Sunshine School,Dudhpati,,6614835,,,,,,
Super Lucky English School,Jadibuti,,6631015,,,,,,
Supreme Academy,MadhyapurThimi,"25174,Ktm",6634125,,supreme@hotmail.com,,,,
Suprim Int'l School,Gongobu,,4354886,,,sourcesNpabsan,,,
Surena Eng. Boarding School,Dhalko,,"4229555,9841725176",,,,,,
Surya International School,Shantinagar,,4108150,,,,,,
Surya Secondary School,Sankhuwasabha,,029-560233,,,,,,
Suryodaya Jyoti Secondary School,"Dillibazar,Ghattekulo","13249,Ktm",4433619,,lbkc@mail.com.np,www.suryodaya.edu.np/www.suryodayajyoti.blogspot.com,4413609,,
sushana shakya,naradevi,,9843042664,9861047605,sushanashakya08@gmail.com,,,Nepal,
Swapna Batika English School,BuddhaNagar,,4482486,,,,,,
Swarna Shiksha English School,Gokarna,,4800306,,sses@wlink.com.np,,,,
Swarnim School,Dallu,,"4288919,4289959,4263470",,swarnim@ntc.net.np,,,,
Swarnim Shiksha Sadan Secondary School,Bhrungkhel,,"4255412,4266087,4253119",,ssadanedu@yahoo.com,,,,
Swati Sadan Secondary School,Balaju,,4350674,,bijendrachhetri@yahoo.com,,,,
Sworga Bhumi School,Maharajgunj,,4418134,,,sourcesNpabsan,,,
Swornim  Tara Vidya Sadan,Chabahil,,4481857,,,sourcesNpabsan,,,
Swoyambhu High School,Swoyambhu,"11785,Ktm",4283063,,,,,,
Sypres Public High School,Sukedhara,,4371441,,,,,,
T. I. A.,Jorpati,,4449990,,,sourcesNpabsan,,,
Tamakoshi Janajagriti Higher Secondary School,"Khimti,Ramechhap",,048-560120,,,,,,
Tangal Madhyamik Vidhyalaya,Tangal,,4431807,,,,,,
Tara Sadan English School,Mahankal-6,,"2142552,9841646245",,gurung_ramesh1@yahoo.com,sourcesNpabsan,,,
Tara Sadan English School,Dhapasi,,4435546,,,,,,
Tarapunja Education Academy,Pokhara,,"539454,9846020578",,,,,,
Tarkeshwor Vidyakunj,Bansbari,,4436024,,,sourcesNpabsan,,,
Tarun Secondary School,Balaju,,4350294,,,,,,
Tathagat Mithila School,Imadole,,2122095,,tms@enet.com.np,,,,
Tejaswin Boarding School,MidBaneshwor,,4495274,,,,,,
Telic Int'l Model English School,Kuleshor,,4280997,,times_jp@hotmail.com,,,,
Teresa Academy,Gausala,,4492904,,,,,,
Teresha Academy,Dhapasi,,"4363308,4355608",,,sourcesNpabsan,,,
Texas Int'l Higher Sec. School,"Mitrapark,Chabahil",1447,"4483955,4477404",,,www.texasintl.edu.np,4470469,,
Thankot English School,Thankot,,4312930,,,,,,
Tharpu Higher Secondary School,Panchthar,,024-529170,,,,,,
The Ackme Academy,Nayapati,,4450589,,,sourcesNpabsan,,,
The Blue Moon High School,Narayantar,,4372975,,,sourcesNpabsan,,,
The Blue Moon School,Chabahil,,4483955,,bms@enet.com.np,www.bms.edu.np,,,
The British School,Jhamsikhel,"566,Ktm","5521794,5544291,5548041",,tbs@tbs.edu.np,www.tbskathmandu.org,5522012,,
The Celebration Co-Ed.,Jorpati,,4910332,,righteducation@wlink.com.np,,,,
The Chandbagh School,Bansbari,"10130,Ktm","4371229,4371628",,info@chandbagh.edu.np,www.chandbagh.edu.np,,,
The Countryside English School,Bhaktapur,,6611087,,srajthala2002@yahoo.com,,,,
The Elite's Co-Ed. Secondary Boarding School,"BhagawatiBahal,Naxal",,"4434689,4429941,4438922",,,www.theeliteschool.edu.np,4435585,,
The Everest English Boarding School,Saptary,,033-521052,,,,,,
The Excelsior School,Swoyambhu,,"4271693,4301917",,excelsior@enet.com.np,,4672295,,
The Execelsior School,Baneshwor,,4490647,,,,,,
The Imperial Academy,Samakhusi,,4358762,,impschoolrj@yahoo.com,,,,
The New Summit Higher Secondary School,Maitidevi,,"4414431,4414737",,summitschool@hotmail.com,,,,
The New Summit Hr. Sec. School,Maitidevi,"11748,Ktm","4414737,4439810",,newsummit3@live.com,,4414737,,
The Rising English Boarding School,Siraha,,033-520237,,,,,,
The Rising English School,Bhaktapur,"57,Bkp",6613603,,rising_school@yahoo.com,,6613606,,
The Rising School,Gwarko,,"5525424,5530158",,,,,,
The Sky Lark Boarding High School,Dhapasi,,4375444,,skylark@mos.com.np,,,,
The Sky Public School,Mulpani,,4450890,,,sourcesNpabsan,,,
The Spangle Boarding High School,Kalikasthan,,4424885,,spangle@hons.com.np,,,,
The Sunshine Secondary Boarding School,Bijeshwori,,"4282519,4272897",,,,,,
Thecho New English School,Thecho,,5573904,,newaschool@mail.com.np,,,,
Thimi Kanya Secondary School,NayaBatoThimi,,6633950,,,,,,
Tika Vidyashram Higher Secondary School,Sanepa,,5522630,,,,,,
Tilingatar Higher Secondary School,Dhapasi,,"4374863,4371878",,thss_dhapasi@yahoo.com,www.thss.edu.np,,,
Tilotamma Secondary High School,Butwal,,540958,,,,,,
Times Academy,Baluwatar,,4423829,,,sourcesNpabsan,,,
Tiny Tots Castle Pre-Primary School,Gairidhara,,2075005,,,,,,
Tiny Tots Pre-School,Thapathali,,4220676,,,,,,
Todlers Academy,Banasthali,,4355248,,,,,,
Tokha Valley English School,Hattigaunda,,"4376830,4370831",,rameshtves@hotmail.com,,,,
Tops Boarding School,Pokhara,,"528382,523800",,tops@cnet.wlink.com.np,,,,
Toudaha Rastriya Madhyamik Bidhyalaya,Toudaha,,4330991,,,,,,
Tri Juddha Bahu Udeshya Bidyalaya,Birta,,522136,,,,,,
Tri-Devi English Secondary Boarding School,Koteshwor,,4489544,,,,,,
Tri-Padma High School,Pulchowk,,5521457,,,,,,
Tri-Stat English School,Lokanthali,,6632339,,,,,,
Tribeni Higher Secondary School,Udaypur,,"035-421116,421122",,,,,,
Tribhuvan Adarsha Secondary School,Pherping,,4710013,,,,,,
Tribhuvan Higher Secondary School,Dailekh,,089-429316,,,,,,
Tribhuvan Higher Secondary School,"Khalanga-2,Jajarkot",,089-629316,,,,,,
Tribhuvan Higher Secondary School,"Khalanga-2,Jajarkot",,089-649316,,,,,,
Tribhuvan Higher Secondary School,Khotang,,036-429203,,,,,,
Tribhuvan Higher Secondary School,Nawalparasi,,078-539392,,,,,,
Tribhuvan Higher Secondary School,Tanahu,,065-529311,,,,,,
Tribhuvan Higher Secondary School,Makawanpur,,520769,,,,,,
Tribhuvan Janata Higher Secondary School,Rukum,,088-649100,,,,,,
Tribhuvan Trishuli Higher Secondary School,Nuwakot,,010-560019,,,,,,
Tribhuwan Hanuman Madyamik Bidyalaya,Reshamkothi,,522666,,,,,,
Trimohan Higher Secondary School,Terhathum,,026-469013,,,,,,
Trinity International College,Dillibazar,,"4445955,4445956",,info@trinitycollege.edu.np,www.trinitycollege.edu.np,4437867,,
Triple Gems Boarding School,Swoyambhu,,4280176,,,,,,
Tripura Secondary School,Tripureshwor,,4254655,,,,,,
Tripurasundari Higher Secondary School,"Jalpadevi-1,Achham",,097-629344,,,,,,
Triveni Boarding School,Sukedhara,,4472890,,,sourcesNpabsan,,,
Triyog Higher Sec. School,Dhapasi,"1909,Ktm","4365285,4381695",,ths@triyog.wlink.com.np,,4381693,,
Trungram International Academy (TIA),Hatti-Gauda,"12423,Ktm","4370083,4372685",,trungram@wlink.com.np,www.tia.edu.np,4370120,,
Tulsimehar Memorial English Boarding School,BhutandeviRoad,,520737,,,,,,
Uday Higher Secondary School,Gulmi,,079-529322,,,,,,
Ujer Singh Madyamik Vidyalaya,Butwal,,540442,,,,,,
Ujjwal Shishu Niketan high School,Kritipur,,4330300,,,,,,
Ujjwal Shishu Niketan Secondary School,VairabRoad,,"520609,521354",,rishiram@wlink.com.np,,521272,,
Ujjwal Sishu Niketan,Sinamangal,,4472890,,,sourcesNpabsan,,,
Ullens School,Khumaltar,8975EPC1477,5570724,,info@ullens.edu.np,www.ullens.edu.np,5570365,,
Uma Maheshwor Secondary Boarding School,Tikhedewol,,5526287,,,,,,
Unique Boarding High School,Siphal,,"4478482,4471354",,unique_highschool@yahoo.co.uk,www.unique.edu.np,,,
United Academy,"Kumaripati,Lalitpur",,5545723,,info@united.edu.np,www.united.edu.np,,,
United School,Satdobato,8975EPC1195,"5545723,5543497",,uschool@wlink.com.np,,,,
Universal College,MaitiDeviChowk,"10414,Ktm","4442775,4428321",,univcollege@wlink.com.np,www.uc.edu.np,4443532,,
Universal College Preparatory School,Baluwatar,,"4423901,4426855",,univcps@hotmail.com,,,,
Universal English Higher Secondary School,Dhumbarahi,"10372,Ktm","4437545,4437881",,uephs@wlink.com.np,,,,
Unnayan Shikshya Sadan,Kapan,,4810185,,,sourcesNpabsan,,,
Usha Bal Batika School,Surkhet,,"083-520495,520490",,,,,,
Uttarbahini Boarding School,Gokarneshwor,,4801020,,,,,,
V. S. Niketan College,Minbhawan,"2751,Ktm","4495073,4482715",,info@vsniketan.edu.np,www.vsniketan.edu.np,4478379,,
V.S. Glorious English Medium School,Thapathali,,"4240844,4255713",,vsn@ub.enet.com.np,www.vsniketan.edu.np,4478379,,
Vadrakali English Medium School,Hattigaunda,,4376668,,,,,,
Vajra Academy,"Jharuwarasi-9,Vajrabarahi","10392,Ktm",5572410,,info@vajraacademy.org,www.vajraacademy.org,5573759,,
Vajrayana School,Boudha,"7003,Ktm","2074256,9803935702",,vajrayanaschool@gmail.com,www.vajrayanaschool.org,4471902,,
Valley Public College,Galfutaar,,"4650439,4370987,4376215",,,,,,
Valley Public Higher Secondary School,"Golfutar,Bhangal","6820,Ktm","4370987,4376215,4650439",,vpbhskri@hotmail.com,,,,
Valley Secondary School,Chapagaon,,"5571470,5570459",,,,,,
Valley View English School,Mid-Baneshwor,24855,"4473693,4474600",,valleyviewschool@proed.edu.np,www.proed.edu.np,,,
Venus English High School,Sinamangal,,4488342,,ranasingh_77@yahoo.com,,,,
Venus Public School,Jorpati,,4912800,,,,,,
Victry English School,Jorpati,,2024272,,,sourcesNpabsan,,,
Vidhya Arjan English School,Bhaktapur,,6610713,,,,,,
Vidhya Bikash Secondary Boarding School,Jagate,,6610395,,,,,,
Vidhya Mandir Higher Secondary School,Achham,,097-629311,,,,,,
Vidhya Sadan High School,Chabahil,,4488286,,vidhyasadan@enet.com,,,,
Vidhya Sagar English Secondary School,Banepa-6,,"661999,662343,664326",,vsagar@wlink.com.np,,,,
Vidhya Sagar Secondary School,Godawari,,5560606,,,,,,
Vidhya Vikash Higher Secondary School,Lamjung,,066-529326,,,,,,
Vidya Arjan Ma. Vi.,Jyatha,,4252694,,,sourcesNpabsan,,,
Vidya Sadan Eng. School,Dillibazar,,9841383842,,,sourcesNpabsan,,,
Vidya Sadan High School,Kanibahal,,"5533626,5549073",,kbagra@msn.com,,,,
Vidya Vikash High School,Jawalakhel,,"5527964,5546975",,vvebs@hotmail.com,,,,
Vidyadatini Higher Secondary School,"Gatthaghar,Bhaktapur",,"6637126,6633878",,,www.vidyadayini.edu.np,,,
Vidyarthi Niketan Madhyamik Vidyalaya,Bhaktapur,,6610386,,,,,,
Vijaya Higher Secondary School,Dailekh,,089-429514,,,,,,
Vijayapur Higher Secondary School,Dharan-14,,"520616,522745",,,,,,
Vinayak Shiksha Niketan Secondary School,MadhyapurThimi,,6632568,,vinayakthimi@hotmail.com,,,,
Viswa Niketan Higher Secondary School,Tripureshwor,,4248838,,,,,,
Vrindavan Academy,Tansen,,075-521124,,,,,,
Wana Higher Secondary School,Sankhuwasabha,,029-569395,,,,,,
Welhams Education Network Pvt. Ltd.,Jawalakhel,,"5520509,5551874",,welhams@wlink.com.np,www.welhamscollege.com,,,
Wendy House J. School,Bhatbhateni,,"4411612,4415559",,,,,,
West Point High School,Thankot,,"4312192,4312045",,,,,,
White House Higher Secondary School,"KhumalHeights,Satdobato",,"5537852,5536741",,info@whitehouse.edu.np,www.whitehouse.edu.np,5536741,,
Whitefield College,NayabazarTownPlanning,,"4251733,4249538",,info@ref.edu.np,www.ref.edu.np,,,
Whitefield Higher Secondary School,Nayabazar,,"251733,4249538",,whitefield@mos.com.np,www.ref.edu.np,,,
Wids Kids International,Nayabazar,,4364446,,,sourcesNpabsan,,,
Wilson Academy,Bafal,"13365,Ktm",4285510,,wilson@hons.com.np,www.zasda.com/wilsonacademy,,,
Winsome English Boarding School,Gothatar,,"4461054,4478138",,,,,,
Wisdom Community School,"Sanga,Kavrepalanchowk",,664245,,,,,,
Wiseland Secondary English School,Jagate,,6614530,,wiseland@enet.com.np,,,,
Wits Academy,Boudha,,"4489425,2143306",,,,,,
Woodsville School,Thasikhel,,"5525821,5554289",,info@woodsvilleschool.edu.np,www.woodsvilleschool.edu.np,,,
World Link Communication,NewBaneshwor,"8207,Ktm","4471583,4472587",,info@wlink.com.np,www.worldlinkcommunication.com,,,
World Youth Int'l School,Gorkarna,,4800921,,wyischool@gmail.com,,,,
Xavier Academy,Lazimpat,,"4430025,4424289,",,info@xa.edu.np,www.xa.edu.np,,,
Xavier International College,Kalopul,"P.O.Box23603,Ktm","4439471,4439472,4439491",,info@xavier.edu.np,www.xavier.edu.np,4439492,,
Yashasvi Boarding School,Sitapaila,"2331,Ktm",4279270,,,,,,
Yeti Health Science Academy,Maharajgunj,,4428349,,,,4439512,,
Young Hearts Boarding High School,"Jorpati,Narayantar",1919,"4913632,4910654",,yhbs@wlink.com.np,,,,
Youth Vision College,Balaju,,4353622,,yvc@enet.com.np,www.youthvisioncollege.com,,,
Yugjyoti English School,Lukhusi,,5526457,,,,,,
Yuyutshu English School,Paknajol,,4381474,,,sourcesNpabsan,,,
Zenith English Residential School,SumnimaChowk,,520176,,jabegusuman@hotmail.com,,,,
Zenith English Secondary School,Bafal,"9610,Ktm","4270697,4285400",,zenithsch@wlink.com.np,,,,
