Name,Address,City,Country,Phone,P.O.Box,Email,Mobile,Webpage,Fax,Updatedon
Aayaam International College,Kumaripati,Lalitpur,Nepal,"5550778,5537674",,aayaamcollege@gmail.com,,www.aayaamcollege.edu.np,	5552785,2015-10-08
Asian Institute of Technology & Management (AITM),Khumaltar,Lalitpur,Nepal,"5541179,5552376",,enquiries@aitm.edu.np,,www.aitm.edu.np,	5548772,2015-01-07
B & C Medical College & Teaching Hospital & Research Center,Birtamod-5,Jhapa,Nepal,"023-545566,542242",,info.bnchospital@gmail.com,,www.bnchospital.edu.np,,2018-06-13
Birat Health College,Biratnagar,Biratnagar,Nepal,"021-420974,420973","46,Brt",hr@birathealthcollege.edu.np,9842045040,www.birathealthcollege.edu.np,	420975,2009-11-17
Cambridge International Boarding Higher Secondary School,Kalanki-14,Kathmandu,Nepal,"00977-1-5219858,5218003",,cambridge.college.kathmandu@gmail.com,,www.cambridgecollegekalanki.edu.np,,2009-11-07
CG Institute Of Management,Minbhawan,Kathmandu,Nepal,"00977-1-4107101,4107114","4869,Ktm",prashanna.panta@cgim.edu.np,00977-9801200877,www.cgim.edu.np,,2015-03-30
Chitwan Medical College (P) Ltd.,Chitwan,Chitwan,Nepal,"056-532933,592366",,info@cmc.edu.np,,www.cmc.edu.np,	056-592364,2010-12-04
College of Information Technology & Engineering,Tinkune,Kathmandu,Nepal,"00977-1-4111840,4111503","12277,Ktm",info@cit.edu.np,,www.cit.edu.np,	00977-1-4111655,2009-11-07
Devdaha Medical College & Research Institute Pvt. Ltd.,"Bhaluhi,Devdaha-10",Bhairahawa,Nepal,"403001,403002",,info@devdahamedicalcollege.com,9857027097,www.devdahacollege.com,,2009-11-07
Global Village College,Lagankhel,Lalitpur,Nepal,"5522521,5542332",,,,,,2014-12-01
Himalayan White House International College,NewBaneshwor,Kathmandu,Nepal,"00977-1-4466531,4466532","9026,Ktm",whitehouse@mail.com.np,,www.whitehouse.edu.np,	00977-1-4466533,2009-11-07
International College of Hospitality Management,Pingalasthan,Kathmandu,Nepal,"00977-1-4113789,4113790",,ichmnepal@gmail.com,,www.ichm.edu.np,,2010-08-22
International Institute Of Hotel Management,Lagankhel,Lalitpur,Nepal,5532667,,career.iihm@gmail.com,"9841713981,9849422539",www.iihm.edu.np,	5532667,2015-03-30
Kantipur Engineering College,Dhapakhel,Lalitpur,Nepal,"5229204,5229005","8849,Ktm",admin@kec.edu.np,,www.kec.edu.np,	5229274,2009-11-07
Kathford International College of Engineering & Management,Balkumari,Lalitpur,Nepal,"5201899,5201241",,info@kathford.edu.np,,www.kathford.edu.np,	5201899,2009-11-07
Kathmandu Academy of Tourism & Hospitality,"RabiBhawan,Kalimati",Kathmandu,Nepal,"00977-1-4278642,4301204","3310,Ktm",info@kathtourism.edu.np,,www.kathtourism.edu.np,	00977-1-4286394,2009-11-07
Lord Buddha Educational Academy (Nepalgunj Medical College),Putalisadak,Kathmandu,Nepal,"00977-1-4433073,4434908","1011,Ktm",lbeangmc@hotmail.com,,www.ngmc.edu.np,,2009-11-07
Malpi Institute,Baluwatar,Kathmandu,Nepal,"00977-1-4442066,4442067,4442068","8975,EPC4073",mi@mail.com.np,,www.mic.edu.np,	00977-1-4442069,2009-11-07
Nepal Baptist Bible College,Imadole,Lalitpur,Nepal,5201593,8975EPC1051,nbbcnepal@gmail.com,,www.nbccnepal.org,,2012-06-22
People's Dental College & Hospital,Nayabazar,Kathmandu,Nepal,"00977-1-4358937,4359181",,pdch@wlink.com.np,,www.pdch.com.np,	00977-1-4359032,2009-11-07
Platinium Management College,Kalikasthan,Kathmandu,Nepal,"00977-1-4441163,4441167,4441168",,,,,	00977-1-4466795,2011-07-19
Samriddhi College,Lokanthali-16,Bhaktapur,Nepal,"6636322,6636700",,samriddhicollege@gmail.com,,www.samriddhicollege.edu.np,,2015-09-25
Shree Medical & Technical College,HamroChowk,Chitwan,Nepal,056-527897,,admin@shreemedical.edu.np,9845025254,www.shreemedical.edu.np,	523664,2010-01-21
Sirjana College of Fine Arts,Lazimpat,Kathmandu,Nepal,"00977-1-4418455,4430535","10708,Ktm",sirjanacollege@gmail.com,,www.sirjanacollege.edu.np,,2009-11-07
South Asian Institute of Management (SAIM College),OldBaneshwor,Kathmandu,Nepal,"00977-1-4474747,4484832",23955,info@saim.edu.np,,www.saim.edu.np,,2017-02-26
The Times International College,Charkhal,Kathmandu,Nepal,"00977-1-4441163,4441167",,info@timesinternational.com,,www.timescollege.edu.np,	00977-1-4441168,2009-11-07
White House School of Hotel Management,KhumaltarHeight,Lalitpur,Nepal,"5541179,5548772","26314,Ktm",bhm@whitehouse.edu.np,,www.whitehouse.edu.np,	5548772,2012-07-04
Aberdeen International College,Jawalakhel,Lalitpur,Nepal,"5536298,5530889",,,,www.aberdeen.edu.np,,2011-08-22
Academia International College,Bafal,Kathmandu,Nepal,00977-1-4275653,,,,,,2011-08-22
Academy of Information Technology Pvt. Ltd. (AIT),Kamalpokhari,Kathmandu,Nepal,"00977-1-4412929,4420038","9341,Ktm",ait@ntc.net.np,,www.aitnepal.com.np,,2009-11-07
Ace Institute of Management,Sinamangal,Kathmandu,Nepal,"00977-1-4110795,4110743,4110697","10001,Ktm",ace@ace.edu.np,,www.ace.edu.np,	00977-1-4110702,2009-11-07
Achham Campus,Mangalsen,Bajura,Nepal,097-620134,,,,,,2009-11-07
Acme Engineering College,Sitapaila,Kathmandu,Nepal,"00977-1-4282962,4280445,4670924","8849,Ktm",acme@acme.edu.np,,www.acme.edu.np,	00977-1-4282947,2009-11-07
Adarsha Multiple Campus,"Sanothimi,Bhaktapur",Kathmandu,Nepal,00977-1-6633667,,,,,,2009-11-07
Adikabi Bhanu Bhakta Campus,Damauli,Tanahu,Nepal,065-560096,,,,,,2009-11-07
Advance Academy,Kupondole,Lalitpur,Nepal,5528307,,,,,,2009-11-07
Advance College of Engineering & Management,Kupondol,Kathmandu,Nepal,"00977-1-5522852,55228397",,info@acem.edu.np,,www.acem.edu.np,,2017-09-05
Advance Education Foundation Pvt. Ltd.,Kupondole,Lalitpur,Nepal,5528307,,,,,,2011-06-15
Alka Institute of Medical Sciences,Bagdol,Lalitpur,Nepal,5552702,,,,,,2010-08-02
Amity College,Birtamod,Jhapa,Nepal,023-541269,,,,,,2009-11-07
Amrit Science Campus,Lainchour,Kathmandu,Nepal,"00977-1-4411633,4410408",,,,,,2009-11-07
Ananda Vihar Campus,Thaina,Kathmandu,Nepal,00977-1-5530607,,siddharthauniversity@hotmail.com,,,	00977-1-5534967,2009-11-07
Anmol Institute of Medical Studies,Maharajgunj,Kathmandu,Nepal,"00977-1-4720642,4720929",,aims.np@gmail.com,,,	00977-1-4720642,2009-11-07
Annapurna Technical & Engineering College,Phirke,Pokhara,Nepal,061-522015,,,,,,2009-11-07
Anupam College,Lazimpat,Kathmandu,Nepal,00977-1-4434165,,,00977-9851158717,,,2017-09-01
Apex College,Baneshwor,Kathmandu,Nepal,"00977-1-4467922,4478841","19691,Ktm",apex@apexcollege.edu.np,,www.apexcollege.edu.np,	00977-1-4467923,2009-11-07
Apollo International College,NewBaneshwor,Kathmandu,Nepal,"00977-1-4474845,4474851",,info@apollointcollege.com,,www.apollointlcollege.edu.np,,2010-11-28
Arunodaya College,Chitwan,Chitwan,Nepal,056-529340,,,,,,2009-11-07
Aryan School of Engineering,MidBaneshwor,Kathmandu,Nepal,"00977-1-4485146,4485148,2104223",21466,info@thearyanschool.edu.np,,,	00977-1-4485148,2010-10-29
Ashirbad College,Samakhushi,Kathmandu,Nepal,"00977-1-4356231,4352589",,,,,,2009-11-07
Asian College For Advanced Studies (ACAS),Satdobato,Lalitpur,Nepal,"5540183,2230359","24122,Ltp",info@acas.edu.np,,www.acas.edu.np,,2009-11-07
Asian College of Engineering & Management,OldBaneshwor,Kathmandu,Nepal,"00977-1-4472608,4474169","19719,Ktm",ascem@wlink.com.np,,,,2009-11-07
Asian College of Higher Studies,Putalisadak,Kathmandu,Nepal,"00977-1-4436383,4438566",,info@achsnepal.com,,info@achsnepal.com,,2015-09-23
Asian College of Management & Technology,Gongabu,Kathmandu,Nepal,00977-1-6204668,,info@asm.edu.np,,www.asm.edu.np,,2010-09-27
Asian Engineering College (AEC),Shankhamul,Kathmandu,Nepal,"00977-1-4783350,4783981","11474,Ktm",info@asian.edu.np,,www.asian.edu.np,,2009-11-07
Asian School of Management,SamakhushiBridge,Kathmandu,Nepal,00977-1-6204668,,info@asm.edu.np,,www.asm.edu.np,,2011-10-18
Atharva Business College,Bansbari,Kathmandu,Nepal,00977-1-4372966,,atharvabusinesscollege@gmail.com,,www.atharvacollege.edu.np,,2015-09-25
Atlantic International College,Thamel,Kathmandu,Nepal,"00977-1-4022514,4022614",,info@atlantic.edu.np,,www.atlantic.edu.np,,2010-09-29
Ayurved Campus,Nardevi,Kathmandu,Nepal,"00977-1-4259743,4278479",,,,,,2009-11-07
Ayurved Campus,Kirtipur,Kathmandu,Nepal,"00977-1-4332562,4333947",,,,,	00977-1-4333947,2009-11-07
B & B Medical Institute,Gwarko,Lalitpur,Nepal,"5202381,5202152",,bmicollege@hotmail.com,,,,2015-09-25
B. P. Koirala Institute of Health & Science,Dharan,Dharan,Nepal,025-525555Ext.4009,,academic@bpkihs.edu,,www.bpkihs.edu,	025-520251,2009-11-07
B. P. Koirala Institute of Health & Science,KtmContact,Kathmandu,Nepal,00977-1-4372263,"7053,Ktm",academic@bpkihs.edu,,www.bpkihs.edu,,2011-05-01
Babai Multiple Campus,Bardia,Bardiya,Nepal,084-420129,,,,,,2009-11-07
Badamalika Campus,Bajura,Bajura,Nepal,097-540335,,,,,,2009-11-07
Bageshwori Campus,Nepalgunj,Nepalgunj,Nepal,081-540086,,,,,,2009-11-07
Bagmati Modern College,Sukedhara,Kathmandu,Nepal,"00977-1-4374881,4374887,4372218",,,,,,2009-11-07
Balaju School of Engineering & Technology,Balaju,Kathmandu,Nepal,"00977-1-4350228,4350213","4897,ktm",info@bset.org.np,,www.bset.org.np,	00977-1-4350214,2009-11-07
Balkumari Mulitple Campus,Narayangadh,Chitwan,Nepal,056-521842,,,,,,2009-11-07
Balmiki Vidhyapith,ExhibitionRoad,Kathmandu,Nepal,"00977-1-4227193,4227676",,,,,,2009-11-07
Baneshwor Campus,Shantinagar,Kathmandu,Nepal,"00977-1-4620310,4620332","11570,Ktm",info@baneshworcampus.edu.np,,www.baneshworcampus.edu.np,,2009-11-07
Barun Campus,"Khandbari,Sankhuwasabha",Bhojpur,Nepal,029-560195,,,,,,2009-11-07
BCB College,Duwakot,Bhaktapur,Nepal,6612809,,,,,,2009-11-07
BEF Campus,Gyaneshwor,Kathmandu,Nepal,"00977-1-4430126,2239678",,admin@bef.edu.np,,,,2010-11-26
Bhagyodaya Campus,Sankhu,Kathmandu,Nepal,00977-1-4450769,,,,,,2009-11-07
Bhairahawa Campus,ShantiNagar,Bhairahawa,Nepal,520205,,,,,,2009-11-07
Bhairawa Medical College,Bhairawa,Bhairahawa,Nepal,"522896,522938,523230",,,,,,2009-11-07
Bhaktapur Multiple Campus,Bhaktapur,Bhaktapur,Nepal,"6610200,6613199",,,,,,2009-11-07
Bhanu Sanskrit Vidhyapeeth,Tanahu,Tanahu,Nepal,065-529334,,,,,,2009-11-07
Bheri Nursing College,Banke,Nepalgunj,Nepal,081-527952,,aruinshah11@gmail.com,9848031951,www.bherinursingcollege.com,,2011-02-18
Bhojpur Campus,Bhojpur,Bhojpur,Nepal,029-420106,,,,,,2009-11-07
Bhrispati College,Siddharthanagar,Bhairahawa,Nepal,"071-522944,546479",,,,,	071-524540,2009-11-07
Bill Gates Faculty of Information Technology,KediaSewaGram,Birgunj,Nepal,"051-528793,522092",,kedia@atcnet.com.np,,,	051-522086,2009-11-07
Bindabasini Sanskrit Vidhyapeeth,Pokhara,Pokhara,Nepal,061-523352,,,,,,2009-11-07
Bir Hospital Nursing Campus,Kathmandu,Kathmandu,Nepal,"00977-1-4220105,4230761",,birnursing_nams@yahoo.com,,,,2009-11-07
Birat Medical College & Teaching Hospital Pvt. Ltd.,Tankisinwari,Biratnagar,Nepal,9851115307,,info@biratmedicalcollege.com,,www.biratmedicalcollege.com,,2014-11-04
Birat Science Campus,RoadcessChowk,Biratnagar,Nepal,021-521278,"218,Biratnagar",,,,,2009-11-07
Birendra Memorial College,Dharan-4,Dharan,Nepal,025-527320,,bmc_science@yahoo.com,,,,2009-11-07
Birendra Multiple Campus,Bharatpur,Chitwan,Nepal,056-520689,,,,,,2009-11-07
Birendra Sainik Residential Campus,Sallaghari,Bhaktapur,Nepal,"6610051,6610872",,bsmb@rna.mil.np,,,	6610331,2009-11-07
Birendranagar Multiple Campus,Birendranagar,Surkhet,Nepal,083-520228,,,,,,2009-11-07
Birgunj Campus,Birgunj,Birgunj,Nepal,522580,,,,,,2009-11-07
Birgunj Commerce Campus,Birgunj,Birgunj,Nepal,051-523485,,,,,,2009-11-07
Bishwo Bhasa Campus,ExhibitionRoad,Kathmandu,Nepal,"00977-1-4226713,4258132,4228916",,vishwo@biva.wlink.com.np,,,	00977-1-4255738,2009-11-07
Bishwo Niketan Science Campus,Tripureshwor,Kathmandu,Nepal,00977-1-4260996,"8905,Ktm",,,,,2009-11-07
Bishwo Vidhyalaya Vidhyapeeth,Dang,Dang,Nepal,082-529019,,,,,,2009-11-07
Boston International College,HakimChowk,Chitwan,Nepal,"056-526203,531362",,info@bostoncollege.edu.np,,www.bostoncollege.edu.np,	056-531366,2010-08-23
Bridge International College,Sinamangal,Kathmandu,Nepal,"00977-1-4480069,4481590",,info@bridgewaternepal.com,,www.bridgewaternepal.com,,2010-06-25
Bridgewater International College,Sinamangal,Kathmandu,Nepal,"00977-1-4480069,4481590",,info@bridgewaternepal.com,,www.bridgewaternepal.com,,2010-07-11
Bright Future College,Satdobato,Lalitpur,Nepal,"5534319,5521997",,nrajpaneru@hotmail.com,9851118714,,,2010-07-20
Bright Vision College,Satdobato,Kathmandu,Nepal,"00977-1-5526776,5555864,5524066",,,,,,2009-11-07
Brihaspati College,"Siddharthanagar-5,Rupandehi",Bhairahawa,Nepal,071-522944,,,,,	071-521540,2009-11-07
Brijlalkedia Hindu University,Kalimati,Kathmandu,Nepal,"00977-1-4281734,4270730","929,Ktm",bhudav@wlink.com.np,,,	00977-1-4270973,2009-11-07
Brijlalkedia Hindu University,Birgunj,Birgunj,Nepal,"051-521382,522092",,kedia@atcnet.com.np,,,	051-522560,2009-11-07
Brilliant Multiple Campus,Siphal,Kathmandu,Nepal,"00977-1-4478687,4488714",,,,,,2009-11-07
British Gurkha College,Bansbari,Kathmandu,Nepal,"00977-1-4017806,,4378483,4371066",8975EPC4139,bgc@graduate.org,,www.britishgurkhacollege.com.np,	00977-1-4378483,2009-11-07
Butwal Campus,SiddharthaRoad,Bhairahawa,Nepal,071-542834,,,,,,2009-11-07
BVC Engineering College,Putalisadak,Kathmandu,Nepal,00977-1-4243879,,,00977-9851088024,,,2011-07-27
Camad College,Sukedhara,Kathmandu,Nepal,"00977-1-4650643,4375100",,info@camadcollege.edu.np,,www.camadcollege.edu.np,,2015-09-23
Cambridge College,Kuleshwor,Kathmandu,Nepal,"00977-1-4277063,4279626","4781,Ktm",kailastk@ccsl.com.np,,,	00977-1-4246571,2009-11-07
Campion College,Kupondole,Lalitpur,Nepal,"5521753,5531436",,ccollege@wlink.com.np,,www.cgmanipal.com,,2010-09-30
Campion Kathmandu College,Gahanapokhari,Kathmandu,Nepal,"00977-1-4431494,4431495",,ckcedu@mos.com.np,,www.cgmanipal.com,,2010-09-30
Campus Takeoff Education Consultancy Pvt. Ltd.,Dillibazar,Kathmandu,Nepal,00977-1-4441686,"2740,Ktm",campustakeoff@yahoo.com,,www.campustakeoff.com,,2009-11-07
Canvas Int'l College,Basundhara,Kathmandu,Nepal,"00977-1-4380304,4354280",,info@canvascollege.edu.np,,,,2009-11-07
Canvas International College,Basundhara,Kathmandu,Nepal,"00977-1-4380304,4354280",,,,,,2011-06-27
Capital College & Research Center,Koteshwor,Kathmandu,Nepal,"00977-1-5100423,5100456","9737,Ktm",info@ccrc.edu.np,,www.ccrc.edu.np,	00977-1-5100781,2009-11-07
Caribbean College,Manbhawan,Lalitpur,Nepal,"5550676,5537314",8975EPC2874,info@caribbean.edu.np,,www.caribbean.edu.np,,2009-11-07
Caspian College of Management & Research Centre,Kumaripati,Lalitpur,Nepal,"5008523,5554208",,info@caspiancollege.com,,www.caspiancollege.com,,2009-11-07
Caspian Valley College,Kumaripati,Lalitpur,Nepal,"5008523,5554208,5524065",8975EPC2685,info@caspiancollege.com,,www.caspiancollege.com,,2009-11-07
Ccma College,NewPlazaMarga,Kathmandu,Nepal,"00977-1-4440708,4438197",,,,,,2011-11-09
Central Campus,Maharajgunj,Kathmandu,Nepal,"00977-1-4422973,4422971","1524,Ktm",mcampus@healthnet.org.np,,,	00977-1-4423771,2009-11-07
Central Campus,Rampur,Chitwan,Nepal,"056-529303,581003",,,,,,2009-11-07
Central Campus,Pokhara,Pokhara,Nepal,061-520469,,,,,,2009-11-07
Central Degree College,Thasikhel,Lalitpur,Nepal,"5001500,5001516",,,,www.cdc.edu.np,,2011-07-17
Central Department of Geography,Kirtipur,Kathmandu,Nepal,00977-1-4330329,,cdg@wlink.com.np,,,	00977-1-4331319,2009-11-07
Central Department of Population Studies/TU,Kirtipur,Kathmandu,Nepal,"00977-1-4330716,4331323,4331319","12161,Ktm",cdps@wlink.com.np,,www.cdps.edu.np,	00977-1-4331324,2009-11-07
Central Engineering Campus,Balkumari,Lalitpur,Nepal,5202414,,info@cec.edu.np,,www.centralengineeringcampus.edu.np,,2011-06-29
Central Engineering College,RamanandChowk,Janakpur,Nepal,"041-527336,527646,523336",,,9854021897,www.cec.edu.np,,2010-01-16
Central Technological Campus,Dharan,Dharan,Nepal,"025-520228,526530",,,,,,2009-11-07
Centre For Professional Studies (COPROS),NewBaneshwor,Kathmandu,Nepal,"00977-1-4781224,4780650",,,,,,2009-11-07
Chahana Int'l College,Kapan,Kathmandu,Nepal,"00977-1-4479017,4811753",,,,,,2009-11-07
Chaitanya Campus,Banepa,Banepa,Nepal,011-661722,,,,,,2009-11-07
Chaturbhujeshwor Janata Campus,"Hariban,Sarlahi",Sarlahi,Nepal,046-529413,,,,,,2009-11-07
Chautara Campus,Chautara,Banepa,Nepal,620142,,,,,,2009-11-07
Chitwan Medical College (Chitwan School of Medical Sciences),KtmContact,Kathmandu,Nepal,00977-1-4005042,,,,www.cmc.edu.np,	00977-1-4005041,2010-12-04
CIST College,NewBaneshwor,Kathmandu,Nepal,"00977-1-4485307,4473934",,askcist@gmail.com,,www.cist.edu.np,	00977-1-4473570,2009-11-07
CIT College & Higher Secondary School,Subidhanagar,Kathmandu,Nepal,"00977-1-4111840,4111655",,admin@cit.edu.np,,www.cit.edu.np,,2009-11-07
Citizen College,Satdobato,Lalitpur,Nepal,"5545684,5545685","392,Ktm",info@citizencollege.edu.np,,www.citizencollege.edu.np,	5545685,2010-09-29
City College,Tinkune,Kathmandu,Nepal,00977-1-41118400,,,,,,2009-11-07
Classic College International (CCI),Tilganga,Kathmandu,Nepal,"00977-1-4110433,4110135,016225708",,,,,,2010-09-30
College for Professional Studies Pvt. Ltd.,Maitidevi,Kathmandu,Nepal,"00977-1-4411805,4424431",,info@lbef.org,,www.lbef.org,	00977-1-4443468,2009-11-07
College for Professional Studies Pvt. Ltd.,HanumanDasRoad,Biratnagar,Nepal,526113,,cps@ntc.net.np,,www.lbef.org,,2009-11-07
College for Professional Studies Pvt. Ltd.,BhanuChowk,Janakpur,Nepal,523887,,cps@lbef.org,,www.lbef.org,,2009-11-07
College for Professional Studies Pvt. Ltd.,Birgunj,Birgunj,Nepal,526555,,cps@lbef.org,,www.lbef.org,,2009-11-07
College for Professional Studies Pvt. Ltd.,Pokhara,Pokhara,Nepal,535735,,cps@lbef.org,,www.lbef.org,,2009-11-07
College of Applied Business,Chabahil,Kathmandu,Nepal,"00977-1-4462736,4476119",,cab@wlink.com.np,,www.cab.edu.np,,2009-11-07
College of Applied Food & Dairy Technology (CAFODAT),Minbhawan,Kathmandu,Nepal,"00977-1-4107234,4107144","11898,Ktm",info@cafodat.edu.np,00977-9849183177,www.cafodat.edu.np,,2009-11-07
College of Applied Sciences Nepal,Kathmandu,Kathmandu,Nepal,"00977-1-016211842,4102687",,,00977-9841349726,,,2010-02-01
College of Biomedical Engineering & Applied Science,Hadigaun,Kathmandu,Nepal,"00977-1-4441467,4437822","12521,Ktm",info@biomedical.edu.np,,www.biomedical.edu.np,,2009-11-07
College of Business Management,Dillibazar,Kathmandu,Nepal,"00977-1-4418869,4439716","3261,Ktm",info@cbm.edu.np,,www.cbm.edu.np,,2009-11-07
College of Computer Technology,Butwal,Bhairahawa,Nepal,"071-540879,546479",,,,,	071-545555,2009-11-07
College of Development Studies,PuranoBaneshwor,Kathmandu,Nepal,00977-1-4471130,"2708,Ktm",cdsnepal@mail.com.np,,www.cds.edu.np,	00977-1-4478945,2009-11-07
College of Education,Nepalgunj,Nepalgunj,Nepal,081-520310,,,,,,2009-11-07
College of Engineering & Management,Banke,Nepalgunj,Nepal,081-526086,,coem.clg@gmail.com,9858020456,www.coem.edu.np,,2017-09-05
College of Engineering And Management,Nepalgunj,Nepalgunj,Nepal,081-526086,,coem.clg@gmail.com,"9848028410,9858020456",www.coem.edu.np,,2015-10-05
College of Film Studies,Gyaneshwor,Kathmandu,Nepal,00977-1-4440402,"11421,Ktm",,,,,2009-11-07
College of Journalism & Mass Communication,Tinkune,Kathmandu,Nepal,"00977-1-2070740,4484397",,,00977-9841324617,www.cjmc.edu.np,,2009-11-07
College of Medical Sciences,Chitwan,Chitwan,Nepal,"056-525012,525013,524203",,info@cmsnepal.edu.np,,www.cmsnepal.edu.np,	56-521527,2010-04-26
College of Software Engineering,Putalisadak,Kathmandu,Nepal,00977-1-4256769,"2438,Ktm",,,,,2009-11-07
College of Technical Science,Kumaripati,Kathmandu,Nepal,"00977-1-2210038,5547479,5001029","23642,Ktm",cots_nursing@yahoo.com,,,,2009-11-07
College of Technology Nepal,Koteshwor,Kathmandu,Nepal,00977-1-4487687,,career@collegeoftechnologynp.com,,,	00977-1-4499099,2009-11-07
"Conflict, Peace and Development Studies",Baneshwor,Kathmandu,Nepal,00977-1-4462988,,info@cpds-tu.edu.np,,www.cpds-tu.edu.np,,2009-11-07
Cosmopolitan College,Chabahil,Kathmandu,Nepal,"00977-1-4462867,4460633,4481893",,info@cosmopolitan.edu.np,,www.cosmopolitan.edu.np,,2010-08-19
Cosmos College of Management & Technology,Tutepani,Lalitpur,Nepal,"5151419,2151806","11713,Ktm",info@cosmoscollege.edu.np,,www.cosmoscollege.edu.np,	5548932,2009-11-07
Cosmos International College,PalikheChowk,Pokhara,Nepal,061-541324,,info@cosmos.edu.np,,www.cosmos.edu.np,,2009-11-07
Counseling Psychology & Social Studies College,NewBaneshwor,Kathmandu,Nepal,00977-1-9741162484,,,00977-9851017617,,,2010-01-18
CPS College,Kumaripati,Lalitpur,Nepal,"5528419,553695",8975EPC2766,info@cps.edu.np,,www.cps.edu.np,	5528419,2009-11-07
Crimson College of Technology,Butwal,Bhairahawa,Nepal,"071-546479,540879",,cct@nec.com.np,,www.cct.edu.np,	071-549879,2009-11-07
Crimson International College,ShankhamulChowk,Kathmandu,Nepal,"00977-1-4784628,4782414","10778,Ktm",info@crimson.edu.np,,www.crimson.edu.np,,2009-11-07
Dadeldhura Campus,Dadeldhura,Dadeldhura,Nepal,096-420189,,,,,,2009-11-07
Damak Campus,Damak,Jhapa,Nepal,023-580132,,,,,,2009-11-07
DAV Business School,Jawalakhel,Kathmandu,Nepal,"00977-1-5534426,5536626","929,Ktm",info@davcollege.edu.np,,www.davcollege.edu.np,	00977-1-5546440,2010-11-24
Deerwalk Institute of Technology,Sifal,Kathmandu,Nepal,00977-1-4485424,,contact@dwit.edu.np,,www.dwit.edu.np,,2011-08-03
Dhangadhi Engineering College,Dhangadhi,Kailali,Nepal,091-521312,,,,,,2009-11-07
Dhankuta Campus,Dhankuta,Dhankuta,Nepal,520297,,,,,,2009-11-07
Dharan Campus,Dharan,Dharan,Nepal,"025-520288,520150",,,,,,2009-11-07
Dhaurali Campus,Teku,Kathmandu,Nepal,00977-1-4240092,,,,,,2009-11-07
Dhulabari Campus,"Dhulabari,Jhapa",Jhapa,Nepal,023-560397,,,,,,2009-11-07
Diamond College,Maharajgunj,Kathmandu,Nepal,00977-1-4371603,,,,,,2010-07-22
Dibyabhumi Multiple College,Kupondole,Lalitpur,Nepal,5541460,,dibyabhumicollege@gmail.com,9841978457,,,2015-12-13
Dillibazar Kanya Multiple Campus,Dillibazar,Kathmandu,Nepal,"00977-1-4417130,4418118,1618014417130",,,,www.dkcollege.edu.np,,2010-04-27
Doti Multiple Campus,Doti,Doti,Nepal,"094-420110,420159",,,,,,2009-11-07
Drabyashah Multiple Campus,Gorkha,Gorkha,Nepal,064-420228,,,,,,2009-11-07
Dronachal Education Campus,Dailekh,Jajarkot,Nepal,089-429514,,,,,,2009-11-07
Duke College,Maharajgunj,Kathmandu,Nepal,"00977-1-4016308,4016058",,info@dukecollege.edu.np,,www.dukecollege.edu.np,,2010-04-29
East-West College Of International Education,Bagbazar,Kathmandu,Nepal,"00977-1-4242525,4238084",,eastwest@lang.wlink.com.np,,www.eastwest.edu.np,,2009-11-07
Eastern Campus,Dharan,Dharan,Nepal,025-520411,,,,,,2009-11-07
Eastern College of Engineering,Pokhariya,Biratnagar,Nepal,"021-538412,526925",,info@eascoll.edu.np,9852026070,,	021-528871,2009-11-07
Eastern Engineering Campus,GangalalMarga,Dharan,Nepal,025-520120,,,,,	025-520405,2009-11-07
Ed-Mark Academy,Kalanki,Kathmandu,Nepal,"00977-1-4270881,4672759",,,,,,2011-07-12
Edu. Bridge P.Ltd.,Maitidevi,Kathmandu,Nepal,"00977-1-4423987,2291262",,edubridge@lbef.org,,,,2009-11-07
Everest College,Lahan-4,Siraha,Nepal,033-560810,,,,,,2009-11-07
Everest College,Thapathali,Kathmandu,Nepal,"00977-1-4266652,4231460,4229653",,bishnu@evecol.com,,www.evecol.com,,2009-11-07
Everest College of Multiple Studies (ECMS),Golkopakha,Kathmandu,Nepal,"00977-1-4352358,4352224","20407,Ktm",emc@emc.edu.np,,www.emc.edu.np,,2009-11-07
Everest College of Nursing,Imadol,Lalitpur,Nepal,"5202461,5202460",,info@everestcollegeofnursing.com,,www.everestcollegeofnursing.com,,2010-03-31
Everest Engineering & Management College,Buddhanagar,Kathmandu,Nepal,00977-1-4784644,,,"00977-9851140540,9851132500",,,2015-11-01
Everest English College,Galkopakha,Kathmandu,Nepal,"00977-1-4352224,4352358","20407,Ktm",aanup@wlink.com.np,,,,2009-11-07
Everest International College,Kalimati,Kathmandu,Nepal,"00977-1-4283972,4274590,4274593","19952,Ktm",everestic@gmail.com,,www.eicollegeedu.com,,2011-08-19
Examination Controller Office,Balkhu,Kathmandu,Nepal,00977-1-4283913,,,,,,2009-11-07
Excel Business College,NewBaneshwor,Kathmandu,Nepal,"00977-1-4485109,4462170","11973,Ktm",info@excelcollege.edu.np,,www.excelcollege.edu.np,,2009-11-16
"Excel International Education Group, London",Sankhamul,Kathmandu,Nepal,00977-1-4785553,,nepal@southlondoncollege.co.uk,,,,2009-11-07
Forestry Campus,Hetauda,Hetauda,Nepal,520618,,,,,,2009-11-07
Galaxy College,Gyaneshwor,Kathmandu,Nepal,"00977-1-4414584,4411362",,,,,,2010-07-20
Gandaki College of Engineering and Sciences,Lamachaur,Pokhara,Nepal,"440866,440944",,gces@gces.edu.np,,www.gces.edu.np,	440958,2009-11-07
Gandaki Medical College,PrithiviChowk,Pokhara,Nepal,"538595,526044,207130",,admin@gmc.edu.np,,www.gmc.edu.np,	550254,2009-11-07
Gandaki Medical College,KathmanduContact,Kathmandu,Nepal,00977-1-4371153,,ktm@gmc.edu.np,00977-9851119676,,	00977-1-4371153,2011-01-15
Garnish School fo Hospitality Management,dhapasi,Kathmandu,Nepal,"00977-1-4381005,2297876",,info@gshm.edu.np,,www.gshm.edu.np,,2011-09-06
Gateway College for Professional Studies,Samakhushi,Kathmandu,Nepal,"00977-1-4361747,4389083",8973NPC690,email@professionalstudies.edu.np,,www.professionalstudies.edu.np,	00977-1-4414046,2009-11-15
Gauradaha Campus,"Gauradaha,Jhapa",Jhapa,Nepal,023-529744,,,,,,2009-11-07
Gauri Shanker Campus,"Charikot,Dolkha",Charikot,Nepal,049-420124,,,,,,2009-11-07
Gauri Shanker Campus,Ramechap,Ramechhap,Nepal,048-520321,,,,,,2009-11-07
Gauri Shanker Campus,Pokhara,Pokhara,Nepal,061-521637,,,,,,2009-11-07
Gauri Shanker Yadav Campus,"Gaur,Rautahat",Gaur,Nepal,055-520327,,,,,,2009-11-07
Gauriganj Campus,"Gauriganj,Jhapa",Jhapa,Nepal,023-529844,,,,,,2009-11-07
Gautam Buddha Faculty of Environment Science,KediaSewaGram,Birgunj,Nepal,"051-528793,522092",,kedia@atcnet.com.np,,,	051-522086,2009-11-07
Geomatic Institute of Technology,NewBaneshwor,Kathmandu,Nepal,"00977-1-4784559,9841374670",,himalayangeomatic@gmail.com,,www.surveycollegenepal.com,,2009-11-07
Gillette College,Kalimati,Kathmandu,Nepal,"00977-1-4283036,4279521","14147,Ktm",gillette@wlink.com.np,,www.gilletteschool.edu.np,,2010-07-05
Global Academy of Tourism & Hospitality Education,Mandikhatar,Kathmandu,Nepal,"00977-1-4375326,4376048,4650176","9562,Ktm",info@gate.edu.np,00977-9803001633,www.gate.edu.np,	00977-1-4781139,2009-11-07
Global College International,Kamaladi,Kathmandu,Nepal,"00977-1-4251409,4221875,4254866",,info@gci.edu.np,00977-9803420672,www.gci.edu.np,,2011-02-19
Global College of Management,Mid-Baneshwor,Kathmandu,Nepal,"00977-1-4488312,4475254","24855,,Ktm",info@proed.edu.np,,www.globalcollege.edu.np,	00977-1-4472083,2009-11-07
Golden Gate Int'l College,OldBaneshwor,Kathmandu,Nepal,"00977-1-4477082,4495165","4059,Ktm",info@goldengate.edu.np,,www.goldengate.edu.np,	00977-1-4466795,2009-11-07
Golden Park College,Biratnagar-4,Biratnagar,Nepal,021-462344,,,9852030416,,,2010-08-09
Goldengate Int'l College,Battisputali,Kathmandu,Nepal,"00977-1-4477082,4495165","4059,Ktm",info@goldengate.edu.np,,www.goldengate.edu.np,	00977-1-4466795,2009-11-07
Gorkha Campus,Gorkha,Gorkha,Nepal,064-420233,,,,,,2009-11-07
Gramin Adarsha Multiple Campus,NepalTar,Kathmandu,Nepal,"00977-1-4354124,4481704/5","23683,Ktm",,,,,2009-11-07
Grammar College,Koteshwor,Kathmandu,Nepal,"00977-1-4471865,4488367",,gpss@wlink.com.np,,www.gpss.edu.np,,2010-09-30
Grand Academy,Lalitpur,Kathmandu,Nepal,00977-1-5536119,,,,,,2009-11-07
Greenfield National School,Bafal,Kathmandu,Nepal,"00977-1-4670816,4287765",,,,,,2009-11-07
Greenford I*nternational University,NewBaneshwor,Kathmandu,Nepal,"00977-1-4780341,4784261","2550,Ktm",info@giu.edu.np,,www.giu.edu.np,,2010-08-19
GS College,Kalimati,Kathmandu,Nepal,00977-1-4672431,,,,,,2010-06-01
Gunaraj Pathak Memorial Nursing Campus,Baluwatar,Kathmandu,Nepal,"00977-1-4437491,4418768,4420591","10679,Ktm",info@gpmnursing.edu.np,,www.gpmnursing.edu.np,,2011-07-11
Gupteshwor Campus,Parbat,Parbat,Nepal,067-420145,,,,,,2009-11-07
GuruKul CA,"Bagbazar,Kathmandu",Kathmandu,Nepal,00977-1-01-4251324,,,00977-9841731204,www.gurukulca.com,,2018-03-08
Gyanodaya College,Jhamsikhel,Lalitpur,Nepal,5521120,,,,,,2009-11-07
Hajarijanak Vidhyapeeth,Dhanusha,Janakpur,Nepal,041-520665,,,,,,2009-11-07
Halifax College,Minbhawan,Kathmandu,Nepal,00977-1-4106172,,info@halifaxnepal.com,,www.halifaxnepal.com,,2010-01-24
Hams Nursing College,Buddhanagar,Kathmandu,Nepal,"00977-1-4786111,6224747","3832,Ktm",info@hamshospital.org,,www.hamsnursingcollege.edu.np,,2010-08-05
Hanumanteswor Campus,Dolkha,Charikot,Nepal,049-429161,,,,,,2009-11-07
Harihar Sanskrit Vidhyapeeth,Arghakhanchi,Arghakhanchi,Nepal,077-429356,,,,,,2009-11-07
Harikhetan Campus,"Birgunj,Parsa",Birgunj,Nepal,522961,,,,,,2009-11-07
Harvard International College,Bafal,Kathmandu,Nepal,"00977-1-4284666,4278632",,,,,,2009-11-07
Henry Ford International College,Kalanki,Kathmandu,Nepal,"00977-1-4275203,4273159,4288338","2089,Ktm",info@henryford.edu.np,,www.henryford.edu.np,	00977-1-4430476,2015-09-25
Herald College,Handigaon,Kathmandu,Nepal,"00977-1-4010120,4010121",,info@heraldcollege.edu.np,00977-9801022637,,,2018-01-24
Herald International College,Basundhara,Kathmandu,Nepal,"00977-1-4390835,4390836",,heraldcollege1@gmail.com,,www.heraldcollege.edu.np,,2017-07-07
Hetauda Campus,Hetauda,Hetauda,Nepal,520453,,,,,	529303,2009-11-07
Hetauda School of Management,Makawanpur,Hetauda,Nepal,520766,,,,,,2009-11-07
Hillside College of Engineering,Balkumari,Lalitpur,Nepal,5147207,"12865,Ktm",,"9802027974,9802068436",www.hillside.edu.np,,2015-09-27
Himala Darshan Campus,Solukhumbhu,Solukhumbu,Nepal,038-621220,,,,,,2009-11-07
Himalaya College,Koteshwor,Kathmandu,Nepal,"00977-1-4600320,4600518,4600295",,,,,,2010-07-25
Himalaya College of Engineering,Chyasal-9,Lalitpur,Nepal,"5540555,5554227",,info@hcoe.edu.np,,www.hcoe.edu.np,,2009-11-07
Himalayan College,Koteshwor,Kathmandu,Nepal,"00977-1-4600320,4600518,4600295",,,,,,2011-07-01
Himalayan College for Learning Excellence,Putalisadak,Kathmandu,Nepal,00977-1-4431670,"4827,Ktm",hicole@wlink.com.np,,www.hicole.edu.np,,2009-11-07
Himalayan College of Agricultural Sciences & Technology (HICAST),Gatthaghar,Kathmandu,Nepal,"00977-1-6630762,6636047,6632293","5535,Ktm",hicast@wlink.com.np,,www.hicast.edu.np,	00977-1-6630762,2009-11-07
Himalayan College of Engineering,Chyasal,Kathmandu,Nepal,"00977-1-5540555,5554287",,info@hcoe.edu.np,,www.hcoe.edu.np,,2017-09-05
Himalayan Institute of Science & Technology,NewBaneshwor,Kathmandu,Nepal,"00977-1-4784951,4784954","9639,Ktm",hist@wlink.com.np,,www.hist.edu.np,	00977-1-4784954,2009-11-07
Himalayan Nursign College,Gwarko,Lalitpur,Nepal,"5203551,2230095",,,,,,2010-09-08
Himalayan Open College,OldBaneshwor,Kathmandu,Nepal,00977-1-4476685,,,,,,2009-11-07
Himalayan WhiteHouse International College,Khumaltar,Kathmandu,Nepal,00977-1-5552376,,info@whitehousegsm.edu.np,00977-9843207064,www.whitehousecmt.edu.np,,2017-09-05
Hiralal Campus,Thahity,Kathmandu,Nepal,00977-1-4230705,,,,,,2009-11-07
Hope International College,Satdobato,Lalitpur,Nepal,"5151867,5151936",8975EPC1365,info@hopecollege.edu.np,,hopecollege30@gmail.com,	5151222,2009-11-07
ICHM Lalitpur College,Kupondole,Lalitpur,Nepal,"5520993,5552676",,info@ichmlalitpur.edu.np,9810303138,www.ichmlalitpur.edu.np,,2015-11-08
IEC College of Art & Fashion,BishalnagarChowl,Kathmandu,Nepal,"00977-1-4247475,4432178",,iekn@rediffmail.com,,,,2009-11-07
IEC School of Art & Fashion,BishalnagarChowk,Kathmandu,Nepal,"00977-1-4247475,4247528",,ieckn@rediffmail.com,,www.iecsaf.com,	00977-1-4247528,2009-11-07
IEC School of Art & Fashion,Chipledhunga,Pokhara,Nepal,061-522136,,,,www.iecsaf.com,,2009-11-07
IEC School of Art & Fashion,MainRoad,Biratnagar,Nepal,051-521330,,,,,,2009-11-07
IEC School of Art & Fashion,StationRoad,Janakpur,Nepal,041-523841,,,,,,2009-11-07
IEC School of Art & Fashion,Bhairahawa,Bhairahawa,Nepal,071-540109,,,,,,2009-11-07
IIMS College,Dhobidhara,Kathmandu,Nepal,"00977-1-4436383,4437318",,info@iimscollege.edu.np,,www.iimscollege.edu.np,,2016-11-25
IIST College,Sinamangal,Kathmandu,Nepal,"00977-1-4110544,2239730",,info@iistnepal.com,,www.iistnepal.com,,2010-07-07
Indreni College,Bharatpur,Chitwan,Nepal,056-525246,,info@indrenicollege.edu.np,,www.indrenicollege.edu.np,,2015-09-25
Indreswor Campus,Panauti,Banepa,Nepal,011-661322,,,,,,2009-11-07
Infomax College of Information Technology & Management,Ranipauwa,Pokhara,Nepal,535735,,mail@icitm.edu.np,,www.icitm.edu.np,	521342,2009-11-07
"Institute of Advanced Communication, Education & Research (IACER)",OldBaneshwor,Kathmandu,Nepal,"00977-1-4471915,4467528,4490658","21959,Ktm",iacer@wlink.com.np,,www.iacer.edu.np,,2009-11-07
Institute of Banking & Management Studies (IBM),Bagbazar,Kathmandu,Nepal,"00977-1-4259955,4241994",,info@ibmstudies.com.np,00977-9851111347,www.ibmstudies.com.np,,2010-01-12
Institute of Engineering,Pulchowk,Lalitpur,Nepal,"5521251,5521531","1915,Ktm",cesioe@healthnet.org.np,,,	5525830,2009-11-07
Institute of Forestry,Pokhara,Pokhara,Nepal,061-521563,,,,,,2009-11-07
Institute of Management Studies (IMS),Thapathali,Kathmandu,Nepal,"00977-1-4253250,2030239,4102096","215,Ktm",,,,,2009-11-07
Institute of Medicine,Maharajgunj,Kathmandu,Nepal,"00977-1-4418187,4410911,4412040","1524,Ktm",iomdean@iom.edu.np,,,	00977-1-4418186,2009-11-07
Institute of Modern Studies,Naxal,Kathmandu,Nepal,00977-1-4427440,,,00977-9849512443,,,2015-12-03
Institute of Open Learning,Bijulibazar,Kathmandu,Nepal,00977-1-4487086,8975EPC5237,,,,	00977-1-4490630,2009-11-07
Intensive International Academy,Kalimati,Kathmandu,Nepal,00977-1-4278342,,,,,,2011-08-24
Intensive International College,Teku,Kathmandu,Nepal,00977-1-4242319,,,,,,2009-11-07
International Center For Academics (Indira Gandhi National Open University),Gyaneshwor,Kathmandu,Nepal,"00977-1-4445540,2042289",,ica@ica.edu.np,,www.ica.edu.np,,2009-11-07
International Open Universities Study Pvt. Ltd.,Putalisadak,Kathmandu,Nepal,"00977-1-4418019,2004321",15142KPC320,iousltd@gmail.com,,www.dlpnepal.com,,2009-11-07
International School of Advance Studies,Minbhawan,Kathmandu,Nepal,00977-1-4620165,8973NPC290,isasktm@gmail.com,00977-9849230935,www.isas.edu.np,,2010-01-16
International School of Management and Technology,Tinkune,Kathmandu,Nepal,"00977-1-4485278,448579",,info@ismt.edu.np,,www.ismt.edu.np,,2011-10-17
IOM-CPSP Linkage Programme (T.U. Institute of Medicine),Maharajgunj,Kathmandu,Nepal,00977-1-4416224,"2758,Ktm",cpsp@healthnet.org.np,,,	00977-1-4416224,2009-11-07
Islington College,KamalPokhari,Kathmandu,Nepal,"00977-1-4412929,4420054",,info@islington.edu.np,,www.islington.edu.np,,2009-11-07
ismt college,Tinkune,Kathmandu,Nepal,"00977-1-4485278,4485279",,info@ismt.edu.np,,,,2017-09-17
Jagannath Multiple Campus,Gothalapani,Baitadi,Nepal,"095-520170,520570",,,,,,2011-04-05
Jana Adarsha Campus,Thimi,Bhaktapur,Nepal,6633733,,grthimi@hotmail.com,,,,2009-11-07
Jana Bhawana Campus,bajrabarahi-10,Kathmandu,Nepal,"00977-1-5570512,5574794",,janabhawanacampus@gmail.com,,www.janabhawana.edu.np,,2009-11-07
Jana Jyoti Campus,Mahendranagar,Kanchanpur,Nepal,099-523831,,,,,,2009-11-07
Janajyoti Campus,"Lalbandi,Sarlahi",Sarlahi,Nepal,"046-529000,529113",,,,,,2009-11-07
Janaki Medical College Teaching Hospital,Janakpur,Janakpur,Nepal,"041-520559,620205",,info@jmcedu.com,9841316484,,,2009-11-07
Janakpur Campus,"Janakpur,Dhanusha",Janakpur,Nepal,"520191,521087",,,,,,2009-11-07
Janakpur Engineering College,Janakpur,Janakpur,Nepal,041-525646,,,,,,2009-11-07
Janakpur Engineering College,Tathali,Bhaktapur,Nepal,5091616,,jec015091615@gmail.com,,www.jec.edu.np,,2016-08-28
Janamaitri Multiple Campus,Kuleshwor,Kathmandu,Nepal,"00977-1-4277202,4286283,4031003",,info@janamaitricampus.org,,www.janamaitricampus.org,	00977-1-4286283,2009-11-07
Janapriya Multiple Campus,Simalchaur,Pokhara,Nepal,"061-522287,531822,535287",,,,,,2009-11-07
Janata Adarsha Multiple Campus,Morang,Biratnagar,Nepal,021-523900,,,,,,2009-11-07
Janata Bahumukhi Campus,Itahari,Dharan,Nepal,025-580064,,,,,,2009-11-07
Janata Campus,Punarbas,Kanchanpur,Nepal,099-529202,,,,,,2009-11-07
Janata Law Campus,Biratnagar,Biratnagar,Nepal,021-523900,,,,,,2009-11-07
Janata Multiple Campus,"Itahari,Sunsari",Dharan,Nepal,025-581300,,,,,,2009-11-07
Janata Sudarshan Campus,Parbat,Parbat,Nepal,067-420322,,,,,,2009-11-07
Janata Vidhyapeeth,Dang,Dang,Nepal,082-521107,,,,,,2009-11-07
Jaya Prithvi Campus,Bajhang,Bajhang,Nepal,092-421075,,,,,,2009-11-07
John Bauer College,Kumaripati,Lalitpur,Nepal,"5537695,5528419",,,9803085696,,,2011-02-02
Jubilant College,Kalimati,Kathmandu,Nepal,"00977-1-4272511,4272725","26234,Ktm",info@jubilantcollege.edu.np,,www.jubilantcollege.edu.np,,2009-11-07
Jumla Campus,Jumla,Jumla,Nepal,"087-529315,529311",,,,,,2009-11-07
Jwala Prasad Shyo Bai Devi Murarka Campus,Lahan,Siraha,Nepal,033-560252,,,,,,2009-11-07
K & K College,NewBaneshwor,Kathmandu,Nepal,"00977-1-4474557,4497515","1251,Ktm",info@kandk.edu.np,,www.kandk.edu.np,,2015-09-25
Kadambari Memorial College,Shankhamul,Kathmandu,Nepal,"00977-1-2030346,4782982",15142KPC395,nepalschoolofsocialwork@hotmail.com,,www.nepalschoolofsocialwork.org,	00977-1-4474800,2009-11-07
Kailali Mulitple Campus,Dhangadi,Kailali,Nepal,"091-521223,521122",,,,,,2009-11-07
Kalika Campus,Rambazar,Pokhara,Nepal,061-524385,,,,,,2009-11-07
Kamana International College,Banasthali,Kathmandu,Nepal,"00977-1-4880422,4880419",,kicn@wlink.com.np,,www.kic.edu.np,,2010-08-02
Kankai Campus,"Birtamod,Jhapa",Jhapa,Nepal,"023-540095,540055",,,,,,2009-11-07
Kantipur City College,Putalisadak,Kathmandu,Nepal,"00977-1-4430239,4437093","12837,Ktm",admin@kcc.edu.np,,www.kcc.edu.np,	00977-1-4441417,2009-11-07
Kantipur College,NewBaneshwor,Kathmandu,Nepal,"00977-1-4783619,4785627",,,,,,2009-11-07
Kantipur College of Management & Information Technology,Mid-Baneshwor,Kathmandu,Nepal,00977-1-4479939,"19344,Ktm",kcmit@wlink.com.np,,www.kcmit.domainvaled.com,,2009-11-07
Kantipur College of Technical Sciences,Dhumbarahi,Kathmandu,Nepal,00977-1-4373577,,,,,,2010-08-04
Kantipur Dental College Teaching Hospital & Research Center,Dhapasi,Kathmandu,Nepal,"00977-1-4385910,4385911",,kdch@wsn.com.np,,,,2010-08-15
Kantipur Hotel Management & Interior Designer College,Buddhanagar,Kathmandu,Nepal,"00977-1-4780564,4783904",,khmc@wlink.com.np,,,	00977-1-4785214,2009-11-07
Kantipur International College,Buddhanagar,Kathmandu,Nepal,"00977-1-4780564,4783904",,info@katipurinternational.edu.np,,www.kantipurinternational.edu.np,,2011-06-19
Kantipur Valley College,Kumaripati,Lalitpur,Nepal,"5538233,5541341",8975EPC2310,info@kvc.com.np,9851007598,www.kvc.com.np,	5538832,2009-11-07
Kanya Campus,Biratnagar,Biratnagar,Nepal,523270,,,,,,2009-11-07
Kanya Campus,Pokhara,Pokhara,Nepal,522256,,,,,,2009-11-07
Kanya Multiple Campus,Dillibazar,Kathmandu,Nepal,"00977-1-4418118,4417130",,,,,,2009-11-07
Kapilvastu Multiple Campus,Taulihawa,Kapilvastu,Nepal,"076-560329,560181",,,,,,2009-11-07
Karnali College of Health Science,Gaushala,Kathmandu,Nepal,"00977-1-4470205,4470906","9948,Ktm.",info@karnalicollege.edu.np,00977-9851038029,www.karnalicollege.edu.np,,2009-11-07
Kathmandu Academy Society of International Studies,SanoGaucharan,Kathmandu,Nepal,00977-1-4410235,,info@ktm.edu.np,,www.ktm.edu.np,,2009-11-07
Kathmandu BernHardt College,Bafal,Kathmandu,Nepal,"00977-1-4672506,4672507",,info@kathbernhardt.edu.np,,www.kathbernhardt.edu.np,	00977-1-4036279,2009-11-07
Kathmandu BernHardt Higher Secondary School,BalkhuChowk,Kathmandu,Nepal,"00977-1-4036106,4036107",,info@bernhardt.edu.np,,www.bernhardt.edu.np,	00977-1-4036279,2014-01-13
Kathmandu Business School,Pingalsthan,Kathmandu,Nepal,"00977-1-4494763,4471787",,,,,,2009-11-07
Kathmandu Campus,Thapathali,Kathmandu,Nepal,00977-1-4253250,"215,Ktm",,,,	00977-1-4253250,2009-11-07
Kathmandu Campus,Birgunj,Birgunj,Nepal,"522122,523822",,info@kathmanducampus.edu.np,,www.kathmanducampus.edu.np,,2009-11-07
Kathmandu College of Management,Gwarko,Lalitpur,Nepal,"5201997,5200746","11154,Ktm",kcm@kcm.edu.np,,www.kcm.edu.np,	5201434,2009-11-07
Kathmandu College of Science & Technology,Kalimati,Kathmandu,Nepal,"00977-1-4284902,4276130","3928,Ktm",info@keckist.edu.np,,www.keckist.edu.np,	00977-1-4272653,2010-09-02
Kathmandu Don Bosco College,Lazimpat,Kathmandu,Nepal,"00977-1-4430025,4424289",,info@kdbc.edu.np,00977-9860006114,www.kdbc.edu.np,,2015-03-15
Kathmandu Education Campus,RamshahPath,Kathmandu,Nepal,00977-1-4230240,,,,,,2009-11-07
Kathmandu Engineering College,Kalimati,Kathmandu,Nepal,"00977-1-4284902,4276130","3928,Ktm",info@keckist.edu.np,,www.keckist.edu.np,	00977-1-4272653,2009-11-07
Kathmandu Forestry College (KAFCOL),Koteshwor,Kathmandu,Nepal,"00977-1-4600343,4602305","9594,Ktm",kafcol@wlink.com.np,,www.kafcol.edu.np,	00977-1-4602305,2009-11-07
Kathmandu Institute of Technology,Sankhamul,Kathmandu,Nepal,"00977-1-4781481,4783903","8638,Ktm",kit@wlink.com.np,,,,2009-11-07
Kathmandu Medical College,Sinamangal,Kathmandu,Nepal,"00977-1-4469064,4476152","21266,Ktm",kmc@enet.com.np,,www;kmc.edu.np,	00977-1-4477920,2009-11-07
Kathmandu Medical College,Duwakot,Kathmandu,Nepal,"00977-1-6616781,9841484422",,kmc@healthnet.org.np,,www.kmc.edu.np,	00977-1-6616568,2009-11-07
Kathmandu Model College,Balkumari,Lalitpur,Nepal,"5201331,5201334","4470,Ktm",info@ktmmodelcollege.edu.np,,www.kathmandumodelcollege.edu.np,	4269774,2009-11-07
Kathmandu Pragya Kunja College,NayaBaneshwor,Kathmandu,Nepal,00977-1-4493198,8973NPC870,,,,,2009-11-07
Kathmandu School of Law (KSL),Tinkune,Kathmandu,Nepal,"00977-1-2042268,4496673",,,,,,2009-11-07
Kathmandu School of Law (KSL),Dadhikot,Kathmandu,Nepal,"00977-1-6634455,6634663",,info@ksl.edu.np,,www.ksl.edu.np,	00977-1-6634801,2009-11-07
Kathmandu School of Management,Manbhawan,Kathmandu,Nepal,"00977-1-5528812,5533543","6250,Ktm",info@kusom.edu.np,,www.kusom.edu.np,	00977-1-5533543,2009-11-07
Kathmandu School of Public Affairs Management,NewBaneshwor,Kathmandu,Nepal,00977-1-4486571,,info@kaspam.edu.np,00977-9841461186,www.kaspam.edu.np,,2011-06-26
Kathmandu University,Dhulikhel,Banepa,Nepal,"661399,661511",,info@ku.edu.np,,www.ku.edu.np,	661443,2009-11-07
Kathmandu University Centre for Art & Design,Mandikhatar,Kathmandu,Nepal,00977-1-16916628,"21990,Ktm",kuart@wlink.com.np,,www.kuart.edu.np,,2009-11-07
Kathmandu University College of Technology Science,Manbhawan,Kathmandu,Nepal,"00977-1-5528812,5533543",,,,,,2009-11-07
Kathmandu University School of Education,Balkumari,Kathmandu,Nepal,"00977-1-5548104,5544077,5544078Ext326",,info@kusoed.edu.np,,www.kusoed.edu.np,	00977-1-5533814,2010-12-04
Kathmandu University School of Management,Balkumari,Kathmandu,Nepal,"00977-1-5548891,5544077,5544078",,info@kusom.edu.np,,www.kusom.edu.np,	00977-1-5533814,2009-11-07
Kavre Campus,"Banepa,Kavre",Banepa,Nepal,661133,,,,,,2009-11-07
KDBC Business School,Koteshwor,Kathmandu,Nepal,"00977-1-4602396,6914739,6915129",,info@kdbc.edu.np,,www.kdbc.edu.np,	00977-1-4602396,2010-08-10
KFA Business School,MidBaneshwor,Kathmandu,Nepal,00977-1-4491414,,info@kfaltd.com,,www.kfaltd.com,,2011-05-30
Khwopa College,Bhaktapur,Kathmandu,Nepal,"00977-1-6610932,6618031",,info@khwopacollege.edu.np,,www.khwopacollege.edu.np,	00977-1-6615916,2010-09-18
Khwopa Engineering College,Bhaktapur,Kathmandu,Nepal,"00977-1-6614794,6614798","84,Bkt",khec@wlink.com.np,,,,2009-11-07
King's College,OldBaneshwor,Kathmandu,Nepal,"00977-1-4471162,4494865",8973NPC122,info@kingscollege.edu.np,00977-9851028028,www.kingscollege.edu.np,,2009-11-07
Kings College,BabarMahal,Kathmandu,Nepal,"00977-1-4224520,4224574,4225909",,info@kingscollege.edu.np,,www.kingscollege.edu.np,,2014-01-09
KIST College,Kamalpokhari,Kathmandu,Nepal,"00977-1-4434990,4434178","3928,Ktm",info@kist.edu.np,,www.kist.edu.np,,2009-11-07
Kits College of Nursing,Buddhanagar,Kathmandu,Nepal,00977-1-4782283,"21042,Ktm",kits@info.com.np,,,,2009-11-07
KITS College/HIC,Kamaladi,Kathmandu,Nepal,"00977-1-4221875,4251409",,,,,,2009-11-07
Koshi Campus,Morang,Biratnagar,Nepal,528537,,,,,,2009-11-07
Koshi St. James College,Itahari,Dharan,Nepal,025-587004,,koshicollege@koshistjames.edu.np,,www.koshistjames.edu.np,,2011-07-04
Koshi St. James Higher Secondary School Itahari,Itahari,Dharan,Nepal,"025-584657,586192",,koshischool@koshistjames.edu.np,,www.koshistjames.edu.np,,2011-07-04
Koteshwor Multiple Campus,Koteshwor,Kathmandu,Nepal,"00977-1-4470306,4481945","13239,Ktm",,,,,2009-11-07
Kumarbarti Banijya Campus,Nawalparasi,Nawalparasi,Nepal,078-540115,,,,,,2009-11-07
L. R. International College,Kalankisthan,Kathmandu,Nepal,"00977-1-4271188,4278515","4081,Ktm",lri@enet.com.np,,www.lrischool.edu.np,,2009-11-07
L.A. College of Management,Hattiban,Kathmandu,Nepal,00977-1-5250777,"8322,Ktm",las@wlink.com.np,,,	00977-1-5250888,2009-11-07
La Grandee International College,Simalchaur,Pokhara,Nepal,061-523163,,,,www.lagrandee.edu.np,,2010-12-17
Lahan Campus,Lahan,Siraha,Nepal,033-560252,,,,,,2009-11-07
Lalit Shikshya Campus,Pulchowk,Kathmandu,Nepal,00977-1-5534181,,,,,,2009-11-07
Lalitkala Campus,Bhotahity,Kathmandu,Nepal,00977-1-4249681,,,,,,2009-11-07
Lalitpur Engineering College,Chakupat,Lalitpur,Nepal,"5260215,5260216",,info@lec.edu.np,,www.lec.edu/np,	5260215,2016-08-28
Lalitpur Nursing Campus,Sanepa,Lalitpur,Nepal,"5521634,5526490","21885,Ktm",lnc@mail.com.np,,www.lnc.edu.np,	5529476,2009-11-07
Lalitpur Valley College,Jawalakhel,Lalitpur,Nepal,"5523321,5533857","12088,Ktm",contact@lvc.edu.np,,www.lvc.edu.np,	5533857,2009-11-07
Lamjung Campus,"Lamjung,Sundarbazar",Lamjung,Nepal,066-529313,,,,,,2009-11-07
Liberty College,Anamnagar,Kathmandu,Nepal,00977-1-4222612,"10407,Ktm",info@libertycollege.edu.np,,www.libertycollege.com.np,	00977-1-4227386,2010-07-11
Lincoln College,Gongabu,Kathmandu,Nepal,"00977-1-4382774,4363024/25",,,,www.lincolncollege.edu.np,,2009-11-07
Little Angels' College of Management,Hattiban,Kathmandu,Nepal,"00977-1-5250123,5250777","8322,Ktm",info@lacm.edu.np,,www.lacm.edu.np,	00977-1-5250888,2010-04-27
Little Buddha College of Health Science,Chabahil,Kathmandu,Nepal,"00977-1-4486475,4499270",,,,,,2009-11-07
Little Buddha College of Health Science,Min-Bhawan,Kathmandu,Nepal,"00977-1-4784458,4784459",,,,,,2017-07-14
Liverpool International College,NewBaneshwor,Kathmandu,Nepal,"00977-1-4781230,4780902,4782509","14313,Ktm",info@liverpool.edu.np,,www.liverpool.edu.np,	00977-1-4781974,2011-06-19
Lord Buddha College,Maharajgunj,Kathmandu,Nepal,"00977-1-4721514,4720178","12787,Ktm",lordbuddha@wlink.com.np,,,	00977-1-4720052,2009-11-07
Lord Buddha Education Foundation,Maitidevi,Kathmandu,Nepal,"00977-1-4411805,4424431",,info@lbef.org,00977-9801110200,www.lbef.edu.np,	00977-1-4443468,2009-11-07
Lord Buddha Education Foundation,HanumanDasRoad,Biratnagar,Nepal,526113,,info@lbef.org,,www.lbef.org,,2009-11-07
Lord Buddha Education Foundation,BhanuChowk,Janakpur,Nepal,041-523887,,info@lbef.org,,www.lbef.org,,2009-11-07
Lord Buddha Education Foundation,Birgunj,Birgunj,Nepal,526555,,info@lbef.org,,www.lbef.org,,2009-11-07
Lord Buddha Education Foundation,NewBaglungBuspark,Pokhara,Nepal,061-535735,,info@lbef.org,,www.lbef.org,,2009-11-07
Lord Buddha Educational Academy (Nepalgunj Medical College),"Chisapani,Banke",Nepalgunj,Nepal,"081-521572,522932,520834",,ngmc_npj@wlink.com.np,,www.ngmc.edu.np,	081-521152,2009-11-07
Lord Buddha HRD Academy,BhanuChowk,Janakpur,Nepal,"041-523887,523987,520225",,lbha@lbef.org,,www.lbef.org,,2009-11-07
Loyala International College,NewBaneshwor,Kathmandu,Nepal,"00977-1-4494143,016223236",,info@loyolacollege.edu.np,,www.loyolacollege.edu.np,,2009-11-07
LRI College,Kalankisthan,Kathmandu,Nepal,"00977-1-4271188,4278515,4276170","12773,Ktm",lri@enet.com.np,,,	00977-1-4302703,2010-07-29
Lumbini Academic College,Chabahil,Kathmandu,Nepal,"00977-1-4482778,6223907",,,,,,2010-07-11
Lumbini Commerce Campus,Butwal,Bhairahawa,Nepal,071-540500,,,,,,2009-11-07
Lumbini Engineering College,"Butwal,Rupandehi",Bhairahawa,Nepal,"071-561959,561030",,lumbiniec@gmail.com,,www.lumbini.edu.np,	071-561959,2009-11-07
Lumbini International College,Mahalaxmisthan,Kathmandu,Nepal,"00977-1-5527054,5531846",,lic@vianet.com.np,,www.lic.edu.np,,2009-11-07
Lumbini Medical College,Tansen,Palpa,Nepal,"075-520840,522217",,lmcpalpa@gmail.com,,www.lmc.edu.np,	075-522755,2010-01-25
Lumbini Medical College,Dhungedhara,Kathmandu,Nepal,00977-1-4880841,,info@lmc.edu.np,00977-9841665301,www.lmc.edu.np,,2010-09-13
Lumbini Medical College Teaching Hospital Ltd.,"Tansen-11,Prabhas",Palpa,Nepal,"075-411201,4112002",,imcpalpa@gmail.com,,www.lmc.edu.np,	075-411205,2017-01-31
M. R. M. College,Balaju,Kathmandu,Nepal,"00977-1-4361486,4360969",,info@mrmcampus.edu.np,,,,2015-11-08
Machhapuchchhre Siksha Campus,Pokhara,Pokhara,Nepal,061-529303,,,,,,2009-11-07
Madan Bhandari Memorial College,BInayaknagar,Kathmandu,Nepal,00977-1-4464775,"5640,Ktm",mbmcollege@wlink.com.np,,www.mbmc.edu.np,,2009-11-07
Madhyamanchal Regional Engineering College,Dashrathnagar,Janakpur,Nepal,"041-521991,620345",,mrec.jnk@gmail.com,,,	041-527122,2011-05-19
Madhyamanchal Regional Engineering College,"Dhanusha,Dashrathnagar-08",Janakpur,Nepal,521991,,mrec.jnk@gmail.com,"9744002481,9804850345",www.mrec.edu.np,,2017-07-14
Mahakali Campus,Kanchanpur,Kanchanpur,Nepal,099-529212,,,,,,2009-11-07
Maharaja Agrasen Faculty of Management,KediaSewaGram,Birgunj,Nepal,"528793,522092,522297","20,Birgunj",kedia@atcnet.com.np,,,	522056,2009-11-07
Mahendra Bindeshwori Campus,Rajbiraj,Saptari,Nepal,031-520292,,,,,,2009-11-07
Mahendra Campus,Baglung,Baglung,Nepal,520113,,,,,,2009-11-07
Mahendra Morang Multiple Campus,Morang,Biratnagar,Nepal,"021-522916,526791,525436",,,,,,2009-11-07
Mahendra Multiple Campus,Baglung,Baglung,Nepal,068-520113,,,,,,2009-11-07
Mahendra Multiple Campus,Dang,Dang,Nepal,082-560035,,,,,,2009-11-07
Mahendra Multiple Campus,CollegeRoad,Dharan,Nepal,"520150,521546",,,,,,2009-11-07
Mahendra Multiple Campus,Nepalgunj,Nepalgunj,Nepal,"081-520278,525578",,,,,,2009-11-07
Mahendra Ratna Campus,Tahachal,Kathmandu,Nepal,"00977-1-4271728,4271729","1048,Ktm",,,,,2009-11-07
Mahendra Ratna Multiple Campus,Ilam,Ilam,Nepal,027-520020,,,,,,2009-11-07
Mahendra Sanskrit Research Centre,Basantapur,Kathmandu,Nepal,00977-1-4247445,,,,,,2009-11-07
Mahendra Sanskrit University,Dang,Dang,Nepal,082-520965,,,,,,2009-11-07
Mahendra Sanskrit University,Basantapur,Kathmandu,Nepal,"00977-1-4221510,4247445,4247490","5003,Ktm",,,,	00977-1-4221510,2009-11-07
Mahendranagar Medical College,Mahendranagar,Kanchanpur,Nepal,"099-524949,524514",,,,,,2009-11-07
Mahendranagar Medical College,KathmanduOffice,Kathmandu,Nepal,"00977-1-4270237,2080151","3184,Ktm",,,,,2009-11-07
Mahendrodaya Campus,Ramechap,Ramechhap,Nepal,048-520321,,,,,,2009-11-07
Mahesh Sanskrit Gurukulam Vidhyapeeth,Devghat,Palpa,Nepal,075-529418(PCO),,,,,,2009-11-07
Makwanpur Multiple Campus,Hetauda,Hetauda,Nepal,520620,,,,,,2009-11-07
Malpi International College,Baluwatar,Kathmandu,Nepal,"00977-1-4442066,4442067,4442068",8975EPC4073,mic@mos.com.np,,www.mic.edu.np,	00977-1-4442069,2009-11-07
Management Campus,Biratnagar,Biratnagar,Nepal,021-524752,,mgcampus@ccsl.com.np,,,,2009-11-07
Management Development Campus,Anamnagar,Kathmandu,Nepal,"00977-1-4224475,4240475",,man@man.org.np,,www.man.org.np,,2009-11-07
Manamohan Memorial College,Sorakhutte,Kathmandu,Nepal,"00977-1-4360271,2090603","19371,Ktm",manamohan@mos.com.np,,,,2009-11-07
Manaslu National College,Nayabazar,Kathmandu,Nepal,"00977-1-4360634,4352518",,,,,,2009-11-07
Mangalodaya Multiple Campus,Thankot,Kathmandu,Nepal,00977-1-4312101,,,,,,2009-11-07
Manipal College of Medical Sciences,Pokhara,Pokhara,Nepal,"061-440600,440387","155,Pkr",mcoms@mos.com.np,,,	061-440260,2009-11-07
Manmohan Memorial College,Sorhakhutte,Kathmandu,Nepal,00977-1-4360271,,,,,,2011-07-07
Marshyangdi Campus,Lamjung,Lamjung,Nepal,066-520213,,,,,,2009-11-07
Martyer Memorial Multple Campus,Manthali,Ramechhap,Nepal,048-540109,,,9854040006,,,2010-08-04
Mayadevi Technical College,"Dhawaha,Butwal-14",Bhairahawa,Nepal,"071-450012,445168",,info@mayadevi.edu.np,,www.mayadevi.edu.np,	071-445232,2015-09-25
MB Kedia Dental Institute,KediaSewaGram,Birgunj,Nepal,051-528729,"77,Birgunj",,,,,2009-11-07
Mechi Multiple Campus,Bhadrapur,Jhapa,Nepal,023-520044,,,,,,2009-11-07
Medhavi College,Shankhmul,Kathmandu,Nepal,"00977-1-4782561,4782634",,,,www.medhavicollege.edu.np,,2016-10-19
Medicine Campus,RamGhat,Pokhara,Nepal,061-520438,,,,,,2009-11-07
Meditech International Nursing College,Rupandehi,Bhairahawa,Nepal,071-698129,,,9847351222,,,2010-08-05
Mega College,Kumaripati,Lalitpur,Nepal,"5538328,5538621",,mega.college@yahoo.com,,,,2012-06-10
Merryland College,Teenkune,Kathmandu,Nepal,"00977-1-4111578,4111502","10473,Ktm",,,,,2009-11-07
Metro College,NewBaneshwor,Kathmandu,Nepal,"00977-1-4474114,4472385","21436,Ktm",info@rajdhani.edu.np,,www.rajdhani.edu.np,,2009-11-07
Metropolises Colleges,Biratnagar,Biratnagar,Nepal,021-525344,,,,,,2009-11-07
Microbit International College,SrijanaChowk,Pokhara,Nepal,021-531288,,anmalgrg@ntc.net.np,,,,2009-11-07
Milestone Int'l College,Balkumari,Kathmandu,Nepal,"00977-1-5539060,5547582",,,,,,2009-11-07
Milton International College,NewBaneshwor,Kathmandu,Nepal,"00977-1-4472385,4474114",,,,,,2010-09-27
Model Multiple College,Janakpur,Janakpur,Nepal,"041-523666,525408",,,,,	520662,2011-06-29
Modern College of Management,MadhyapurThimi,Kathmandu,Nepal,"00977-1-6632927,6221799",,info@mcm.edu.np,,www.mcm.edu.np,,2010-06-02
Modern Institute of Health Science,Gaighat,Udaypur,Nepal,033-420515,,,9842539370,,,2015-10-05
Modern Nepal College (MNC),Putalisadak,Kathmandu,Nepal,"00977-1-2020052,4252289,4240028",,,,mncollege.edu.np,,2009-11-07
Modern Technical College,Khumaltar,Lalitpur,Nepal,5574251,,mtechcollege@gmail.com,9851106131,,,2010-12-03
Morgan International College,Basundhara,Kathmandu,Nepal,"00977-1-4356876,4389516,4354088",,morganintlcollege@gmail.com,,www.morgancollege.edu.np,,2010-07-01
Moscow International College,Kupondole,Kathmandu,Nepal,00977-1-5524284,,info@moscowcollege.edu.np,,www.moscowcollege.edu.np,,2010-09-27
Mount Annapurna Campus,Poolbari,Pokhara,Nepal,"061-522650,532636","443,Pkr",macpkr@yahoo.com,,,,2009-11-07
MRM Academy,Vanasthali,Kathmandu,Nepal,"00977-1-4360969,4361486,4351095,4386578",,info@mrmcampus.edu.np,,www.mrmcampus.edu.np,,2010-09-29
MVN University,NewBaneshworChowk,Kathmandu,Nepal,"00977-1-4787200,4787300",,info@nibc.edu.np,"00977-9801098004,9801098005",www.nibc.np,,2017-08-02
Myagdi Campus,BeniBazar,Myagdi,Nepal,069-520109,,,,,,2009-11-07
Myaglung Campus,"Myaglung,Tehrathum",Dhankuta,Nepal,026-460120,,,,,,2009-11-07
NAAST College,Dharan,Dharan,Nepal,525651,,,,,,2009-11-07
Nagarjuna College of Information Technology,Hariharbhawan,Kathmandu,Nepal,"00977-1-5010570,5010559",,info@nagarjuna.edu.np,00977-9851073795,www.nagarjuna.edu.np,,2009-11-07
Nami College,Jorpati,Kathmandu,Nepal,00977-1-4917441,"6243,Ktm",admission@nami.edu.np,,www.nami.edu.np,	00977-1-4913381,2015-04-08
Namuna College of Fashion Technology,Bansbari,Kathmandu,Nepal,"00977-1-4377201,4377897,4372081",8975EPC4144,ncft@wlink.com.np,,www.namuna.edu.np,,2009-11-07
Namuna Machhindra Campus,Lagankhel,Lalitpur,Nepal,"5521504,5541967",,,,,,2009-11-07
Narendra Budhi Bhakta Adarsha Campus,Lamjung,Lamjung,Nepal,066-529305,,,,,,2009-11-07
NAS Institute,NewBaneshwor,Kathmandu,Nepal,"00977-1-4785286,4785287",,info@nasa.edu.np,,,,2009-11-07
NASA International College,Tinkune,Kathmandu,Nepal,"00977-1-4460397,4479849,4498538","10315,Ktm",info@nasacollege.com,,www.nasacollege.com,	00977-1-4479850,2010-06-25
NATHM College,Kalimati,Kathmandu,Nepal,"00977-1-4271028,4270605",,nathm@mos.com.np,,www.nathm.edu.np,,2018-01-24
National Academy of Applied Science & Technology,Dharan,Dharan,Nepal,025-525651,,,,,,2009-11-07
National Academy of Science & Technology (NAST),Dhangadhi,Kailali,Nepal,091-521312,,nastdhn@yahoo.com,,,	091-523949,2009-11-07
National Campus,BalKumari,Kathmandu,Nepal,"00977-1-5201331,5201334,016914827",,nationalcampus@nationalcampus.edu.np,,www.nationalcampus.edu.np,,2009-11-07
National Campus for Business Studies,OldBaneshwor,Kathmandu,Nepal,00977-1-4470880,"14350,Ktm",ncbs@info.com.np,,,	00977-1-4482509,2009-11-07
National College for Advanced Learning,Lainchour,Kathmandu,Nepal,00977-1-4352494,,,,,,2009-11-07
National College of Accountancy (NCA),Baneshwor,Kathmandu,Nepal,"00977-1-4495045,4465032",,nca@ntc.net.np,,www.nca.edu.np,	00977-1-4471736,2009-11-07
National College of Computer Studies (NCCS),Paknajol,Kathmandu,Nepal,"00977-1-4251711,4267961","21010,Ktm",info@nccs.edu.np,,www.nccs.edu.np,	00977-1-4269807,2009-11-07
National College of Engineering,Talchhikhel,Lalitpur,Nepal,"5151387,016203600",,info@nce.edu.np,,www.nce.edu.np,	5151360,2011-08-26
National College of Food Science & Technology,Nayabazar,Kathmandu,Nepal,"00977-1-4360096,4360367",,mpaudyal@hotmail.com,,www.nist.edu.np,,2011-09-13
National College of Management & Technical Science,"Ranibari-29,Samakhusi",Kathmandu,Nepal,"00977-1-4352831,4386217",,info@ncmtcollege.edu.np,,www.ncmtcollege.edu.np,,2015-11-03
National College of Technical Sciences,BanasthaliChowk,Kathmandu,Nepal,"00977-1-4350270,4357328","8908,Ktm",ncollege@ncts.com.np,,www.ncts.com.np,	00977-1-4273563,2009-11-07
National Human Resource Development Academy Pvt. Ltd.,Dhanusha,Kathmandu,Nepal,"00977-1-528042,527342",,nhrdanursing@gmail.com,,,,2017-03-03
National Infotech College,Parsa,Birgunj,Nepal,"051-525942,530800",,,,,,2015-09-25
National Institute of IT Professional Studies,NewBaneshwor,Kathmandu,Nepal,00977-1-4104057,"8422,Ktm",info@volunteerallnepal.org,00977-9841726387,www.volunteerallnepal.org,,2011-09-08
National Institute of Science & Technology,Lainchour,Kathmandu,Nepal,"00977-1-4423706,4422050",,,,,,2009-11-07
National Integrated College (NIC),Dillibazar,Kathmandu,Nepal,"00977-1-4430387,4436484",,niccollege@wlink.com.np,,www.nic.edu.np,,2009-11-07
National Medical College,Birgunj,Birgunj,Nepal,"051-532260,522915,522918",,nmcbir@atcnet.com.np,,,	051-532261,2009-11-07
National Vision Nursing Campus,NewBaneshwor,Kathmandu,Nepal,00977-1-4472667,"8670,Ktm",,,,	00977-1-4470938,2009-11-07
Nava Jeewan HSS & College,Samakhusi,Kathmandu,Nepal,"00977-1-4364150,4352173",,navajeewan@yahoo.com,,www.navajeewan.com,,2009-11-07
Navadurga Multiple Campus,Bhaktapur,Kathmandu,Nepal,00977-1-6612067,,,,,,2009-11-07
Ncc Center for Advanced Studies,Imadole,Kathmandu,Nepal,"00977-1-5203084,5202196,5201197",8975EPC1525,info@ncit.net.np,,,	00977-1-5202754,2009-11-07
Nepa School of Social Sciene & Humanities,Battisputali,Kathmandu,Nepal,00977-1-4472807,"25334,Ktm",info@nepaschool.edu.np,,,,2010-01-18
Nepal Academy of Tourism & Hotel Management,Rabibhawan,Kathmandu,Nepal,"00977-1-4270073,4270605",,nathm@mos.com.np,,www.nathm.edu.np,	00977-1-4271780,2009-11-07
Nepal Adarsha Campus,Wailing,Syangja,Nepal,063-440219,,,,,,2009-11-07
Nepal College of Development Studies,Shankhamul,Kathmandu,Nepal,"00977-1-2030346,4782982",,nepalschoolofsocialwork@hotmail.com,,www.nepalschoolofsocialwork.org,,2010-08-17
Nepal College of Engineering & Management,OldBaneshwor,Kathmandu,Nepal,"00977-1-4109181,4109183","24180,Ktm",info@ncem.edu.np,00977-9849255148,www.ncem.edu.np,	00977-1-4109183,2009-11-07
Nepal College of Information Technology,Balkumari,Lalitpur,Nepal,"5006354,5006358",8975EPC1525,info@ncit.edu.np,,www.ncit.edu.np,	5006360,2009-11-07
Nepal College of Management,Dhobighat,Kathmandu,Nepal,"00977-1-5540752,016915638","1138,Ktm",ncm@wlink.com.np,,www.ncm.edu.np,,2009-11-07
Nepal College of Technology,OldBaneshwor,Kathmandu,Nepal,"00977-1-4474169,4472608","956,Ktm",info@neptech.edu.np,,www.neptech.edu.np,	00977-1-4221502,2009-11-07
Nepal College of Travel & Tourism Management,Ratopul,Kathmandu,Nepal,"00977-1-4465930,4465897",,ncttm@ncttm.edu.np,,www.ncttm.edu.np,,2009-11-07
Nepal Commerce Campus,MinBhawan,Kathmandu,Nepal,"00977-1-4482748,4466340,4482344,4478745","2465,Ktm",info@ncc.edu.np,,www.ncc.edu.np,	00977-1-4466340,2009-11-07
Nepal Engineering College,Changunarayan,Bhaktapur,Nepal,"5090744,4371881","10210,Ktm",baburamb@nec.edu.np,,www.nec.edu.np,	5090681,2009-11-07
Nepal Homoeopathic Medical College,RangeliRoad,Biratnagar,Nepal,533933,,homoeopathic@wlink.com.np,,,,2009-11-07
Nepal Institute of Health Science,Boudha,Kathmandu,Nepal,"00977-1-4470224,4471676","21749,Ktm",stupa@healthnet.org.np,,,	00977-1-4493646,2009-11-07
Nepal Law Campus,ExhibitionRoad,Kathmandu,Nepal,00977-1-4225358,"1247,Ktm",,,,,2009-11-07
Nepal Medical College,Attarkhel,Kathmandu,Nepal,00977-1-4911008ext.270,,,,,,2009-11-07
Nepal Mega College,Babarmahal,Kathmandu,Nepal,"00977-1-4252488,4239450",,nepalmegacollege@gmail.com,,www.nepalmegacollege.com,,2011-06-05
Nepal Mountain Academy,Tutepani,Kathmandu,Nepal,"00977-1-5151915,5151904",,admission@man.gov.np,,www.man.gov.np,,2017-08-25
Nepal National Education Academy,Balaju,Kathmandu,Nepal,"00977-1-4350270,4357328",,ncollege@ncts.edu.np,,www.ncts.edu.np,	00977-1-4356571,2009-11-15
Nepal School of Nursing,MohoriyaTole,Pokhara,Nepal,061-520935,"359,Pkr",nsonpokhara@wlink.com.np,,,,2009-11-07
Nepal Science Campus,Putalisadak,Kathmandu,Nepal,00977-1-4228681,,,,,,2009-11-07
Nepal Tourism & Hotel Management College,Chhinnedanda,Pokhara,Nepal,"432333,431678","202,Pkr",tohtlmgt@fewanet.com,,www.tourhotelmgt.edu.np,	432222,2009-11-07
Nepal Vidythapeeth,Maitidevi,Kathmandu,Nepal,"00977-1-4411805,4424431",,mite@lbef.org,,www.lbef.org.,	00977-1-4443468,2009-11-07
Nepalese Army Institute of Health Sciences,Chhauni,Kathmandu,Nepal,"00977-1-4271940,4271941,4271965",,coordinaor@naihs.edu.np,"00977-10160,Ktm",www.naihs.edu.np,,2011-05-11
Nepalgunj Medical College,B.PChowk(HeadOffice),Nepalgunj,Nepal,"081-521572,522932,520834",,ngmc_npj@wlink.com.np,,,	081-521152,2009-11-07
Nepalgunj Medical College,Ramshahpath,Kathmandu,Nepal,"00977-1-4434908,4433073","1011,Ktm",lbea@enet.com.np,,,	00977-1-4430413,2009-11-07
Nepalgunj Nursing Campus,Nepalgunj,Nepalgunj,Nepal,520950,,,,,,2009-11-07
Nesfield International College,Lagankhel,Lalitpur,Nepal,"5525125,5525330,2239637",8975EPC2982,nesfieldcollege@gmail.com,,www.nesfield.edu.np,	5525125,2011-07-12
Neuro Health College,Biratnagar,Biratnagar,Nepal,021-535464,,,,,,2009-11-07
New Millennium College,Dhumbarai-3,Kathmandu,Nepal,00977-1-4427987,,info@nema.edu.np,,www.nema.edu.np,,2016-07-07
New Summit College & Higher Secondary School,OldBaneshwor,Kathmandu,Nepal,"00977-1-4473901,4488410","11749,Ktm",newsummitcollege@gmail.com,,www.newsummit.edu.np,	00977-1-4465186,2009-11-07
NIC College,Dillibazar,Kathmandu,Nepal,"00977-1-4442098,4442722",,niccollege@wlink.com.np,,www.nic.edu.np,,2009-11-07
Nicholson College (HSS),Sallaghari,Bhaktapur,Nepal,"6610662,6615931","54,Bkt",nicholson@enet.com.np,,,,2009-11-07
Nil Kantha Campus,Dhading,Dhading,Nepal,010-520106,,,,,,2009-11-07
Nirvana College,kumaripati,Lalitpur,Nepal,5535872,,info@nirvanacollege.edu.np,"9801124563,9801124572",www.nirvanacollege.edu.np,,2011-04-18
Nist Higher Education Complex,Naybazar,Kathmandu,Nepal,"00977-1-4360096,4360367,016224343",,,,,,2009-11-07
Nobel College,Sinamangal,Kathmandu,Nepal,"00977-1-4110525,4110590,2062330","10420,Ktm",infocollege@nobelcollege.edu.np,,www.nobelcollege.edu.np,	00977-1-4110880,2009-11-07
Nobel College of Medical Science,Sinamangal,Kathmandu,Nepal,"00977-1-4110525,4110590,2062330",,info@nobelcollege.edu.np,,www.nobelcollege.edu.np,,2011-07-06
Nobel Medical College,Putalisadak,Kathmandu,Nepal,00977-1-4426149,"20650,Ktm",info@nobelmedicalcollege.edu.np,00977-4441079,www.nobelmedicalcollege.edu.np,,2009-11-07
Norvic Business College,Kamaladi,Kathmandu,Nepal,"00977-1-4438293,4419306",,,,www.norviceducations.edu.np,,2017-09-13
Nova International College,NewBaneshwor,Kathmandu,Nepal,"00977-1-4107030,4107311",,info@novainternationalcollege.edu,,www.novainternationalcollege.edu.np,,2011-05-19
Novel Academy Graduate School of Nursing,NewRoad,Pokhara,Nepal,061-535629,,novel@fewanet.com.np,9856020197,www.novel.edu.np,,2011-02-11
Novodit College,Samakhushi,Kathmandu,Nepal,"00977-1-4352273,4360281",,,,,,2009-11-07
NTP College,Mid-Baneshwor,Kathmandu,Nepal,00977-1-4485330,,info@bpxicollege.edu.np,00977-9801047863,,,2018-01-24
NTP Tourism Affairs (P.) Ltd.,Kantipath,Kathmandu,Nepal,"00977-1-4266611,4254104/06",,info@iataacademy.com,,www.iataacademy.com,,2009-11-07
Nursing Campus,Nepalgunj,Nepalgunj,Nepal,081-520160,,,,,,2009-11-07
Nursing Campus,Maharajgunj,Kathmandu,Nepal,"00977-1-4720423,4721266",,,,,,2009-11-07
Nursing Campus,Biratnagar,Biratnagar,Nepal,021-522882,,,,,,2009-11-07
Nuwakot Adarsha Campus,"Battar,Nuwakot",Nuwakot,Nepal,010-560157,,,,,,2009-11-07
Oasis medical college Teaching Hospital,Bharatpur-10,Chitwan,Nepal,"056-530577,533472,533473",,,,www.omc.edu.np,,2015-09-27
Okhaldhunga Campus,Okhaldhunga,Okhaldhunga,Nepal,"037-520249,520217",,,,,,2009-11-07
Om Health Campus Pvt. Ltd.,Chabahil,Kathmandu,Nepal,"00977-1-4822447,4822448,4822451",,info@omcampus.com.np,,www.omcampus.com.np,,2009-11-07
Om Mahavidhalaya,"Santpur,Rautahat",Gaur,Nepal,055-540185,,,,,,2009-11-07
Orbit International College,Kalanki,Kathmandu,Nepal,00977-1-4286231,,info@orbit.edu.np,,www.orbit.edu.np,	00977-1-4441275,2010-09-29
Orchid International College,Gaushala,Kathmandu,Nepal,00977-1-4479744,,info@oic.edu.np,,www.oic.edu.np,,2010-08-31
Oscar International Film College,Jayabageshwori,Kathmandu,Nepal,00977-1-4466066,,info@oscar.edu.np,,www.oscar.edu.np,,2010-06-23
Oxford College of Engineering & Management,Gaindakot,Nawalparasi,Nepal,056-501078,,hari_oci@hotmail.com,9855055710,,,2011-03-02
Padhmashree Int'l College,Sitapaila,Kathmandu,Nepal,00977-1-2111404,,,,,,2009-11-07
Padma Kanya Multiple College,Bagbazar,Kathmandu,Nepal,"00977-1-4221712,4224149",,pkcampus@wlink.com.np,,,	00977-1-4258113,2009-11-07
Padmashree International College,Tinkune,Kathmandu,Nepal,"00977-1-2111404,4112252","464,Ktm",padmashree@ntc.net.np,,www.pic.edu.np,	00977-1-5523648,2009-11-07
Paklihawa Campus,Rupandehi,Bhairahawa,Nepal,"071-520580,520191",,,,,,2009-11-07
Palhi Campus,Nawalparasi,Nawalparasi,Nepal,078-520147,,,,,,2009-11-07
Panchthar Campus,"Phidim,Panchthar",Taplejung,Nepal,024-520159,,,,,	520075,2009-11-07
Panini Campus,Arghankhanchi,Arghakhanchi,Nepal,077-420206,,,,,,2009-11-07
Parashar College,Damauli,Tanahu,Nepal,065-561728,,,9846043434,,,2010-08-04
Paschimanchal Campus,Pokhara,Pokhara,Nepal,"061-520463,440093,440958",,,,,,2009-11-07
Pashupati Multiple Campus,Chabahil,Kathmandu,Nepal,"00977-1-4470412,4468363/364",,,,,,2009-11-07
Patan Academy OF Health Science (PAHS),Lagankhel,Kathmandu,Nepal,"00977-1-5539003,5545152",,,,,,2017-03-03
Patan Multiple Campus,PatanDhoka,Lalitpur,Nepal,"5521394,5526394","8554,Ktm",,,,	5548469,2009-11-07
Patanjali Ayurvedic Medical College & Research Center,Dhulikhel-07,Kathmandu,Nepal,"00977-1-4370406,4371244",,pamcarc@gmail.com,00977-9814202044,,,2017-03-15
Pathibhara Campus,Taplejung,Taplejung,Nepal,024-460228,,,,,,2009-11-07
PEA Association Pvt. Ltd.,Thapathali,Kathmandu,Nepal,00977-1-4245730,,peabe@wlink.com.np,,,,2011-11-09
Pentagon International College,Tinkune,Kathmandu,Nepal,"00977-1-4112455,4112324,4112325",,info@pentagonintl.com,,www.pentagon.edu.np,,2009-11-07
People's Campus,Pakanajol,Kathmandu,Nepal,"00977-1-4251990,4251412","20336,Ktm",pcampus@wlink.com.np,,,	00977-1-4257506,2009-11-07
Phoenix College of Management,BijuliBazar,Kathmandu,Nepal,"00977-1-4491697,4461372",,info@phoenixcollege.edu.np,00977-9851037492,www.phoenixcollege.edu.np,,2015-10-11
Phulchowki Mahavidhalaya,Thaiba,Kathmandu,Nepal,00977-1-5560582,,,,,,2009-11-07
Pindyeswor Vidhyapeeth,Dharan-14,Dharan,Nepal,520285,,,,,,2009-11-07
Pinnacle College,Lagankhel,Lalitpur,Nepal,"5544023,5524723",,,,,,2009-11-07
Platinum Management College,Kalikasthan,Kathmandu,Nepal,"00977-1-4420928,4442717",,info@platinumcollege.edu.np,,www.platinumcollege.edu.np,,2010-08-04
Pokhara Campus,Pokhara,Pokhara,Nepal,521689,,,,,,2009-11-07
Pokhara College of Management Studies,NewRoad,Pokhara,Nepal,527128,,pcm@phewamail.com.np,,,	527128,2009-11-07
Pokhara College of Technology,Simalchaur,Pokhara,Nepal,"061-523163,5534683,532844","42,Pkr",pct@mail.com.np,,www.pct.edu.np,	061-5539304,2009-11-07
Pokhara Engineering College,Phirke,Pokhara,Nepal,"061-531209,528530","540,pkr",info@pec.edu.np,,www.pec.edu.np,	061-528530,2009-11-07
Pokhara Multiple Campus,Pokhara,Pokhara,Nepal,061-521113,,,,,,2009-11-07
Pokhara Nursing Campus,Pokhara,Pokhara,Nepal,061-520438,,,,,,2009-11-07
Pokhara University,GyaneshworLaisonOffice,Kathmandu,Nepal,"00977-1-4412196,4440905","427,Ktm",,,www.pu.edu.np,	00977-1-440904,2009-11-07
Pokhara University (Faculty of Management Studies),Pokhara,Pokhara,Nepal,061-561698,,,,www.pu.edu.np,	061-561697,2009-11-07
Pokhara University School of Business,Dhungepatan,Pokhara,Nepal,061-561547,"201,Pkr",,,www.pu.edu.np,	061-561696,2010-07-11
Premier College,NewBaneswor,Kathmandu,Nepal,"00977-1-4107198,4107138",,nfo@premiereducation.org.np,00977-9849260299,www.premiereducation.org.np,,2009-11-07
Presidency College of Management Sciences,BharatpurHeight,Chitwan,Nepal,"056-524278,525717",,info@pcms.edu.np,,www.pcms.edu.np,,2015-12-03
Presidential Business School,Bijulibazar,Kathmandu,Nepal,"00977-1-4482306,4497706","25840,Ktm",info@presidential.edu.np,,www.presidential.edu.np,	00977-1-4780005,2011-06-30
Prime College,NayaBazar,Kathmandu,Nepal,"00977-1-4360180,4360182","9809,Ktm",info@prime.edu.np,,www.prime.edu.np,	00977-1-4362480,2009-11-07
Prithvinayaran Campus,Pokhara,Pokhara,Nepal,061-526837,,,9856020384,,,2010-08-29
Progress Higher Secondary School,Dhobhighat,Lalitpur,Nepal,"5550676,5537314","20278,Ktm",info@progress.edu.np,,www.progress.edu.np,,2009-11-07
Public Administration Campus,Jamal,Kathmandu,Nepal,00977-1-4251872,"1509,Ktm",,,,,2009-11-07
Public Campus,Morang,Biratnagar,Nepal,021-524955,,,,,,2009-11-07
Public Youth Campus,Dhobichour,Kathmandu,Nepal,"00977-1-4259141,4259142",,bttm@pyc.edu.np,,www.pyc.edu.np,,2009-11-07
Pulchowk Campus,CivilDept.,Kathmandu,Nepal,00977-1-5525477,"1915,Ktm",,,,	00977-1-5525830,2009-11-07
Pulchowk Campus,MechanicalEngg.Dept.,Kathmandu,Nepal,00977-1-5542053-54,"1915,Ktm",,,,	00977-1-5525830,2009-11-07
Purbanchal Campus,Dharan,Dharan,Nepal,"025-520120,520410",,,,,,2010-09-06
Purbanchal University,KathmanduContactOffice,Kathmandu,Nepal,00977-1-4493072,,,,,,2009-11-07
Purbanchal University,Biratnagar,Biratnagar,Nepal,"522165,534800","142,Biratnagar",purbuniv@ccsl.com.np,,,	521204,2009-11-07
Purwanchal Campus,Dharan,Dharan,Nepal,025-520405,,,,,,2009-11-07
Pyramid International College,Gaushala,Kathmandu,Nepal,"00977-1-4477140,4477141,4477142","7842,Ktm",info@pyraidinternational.edu.np,,www.pyraidinternational.edu.np,	00977-1-4477142,2009-11-07
Quest International College,Gwarko,Lalitpur,Nepal,"5547669,5521950",,info@quest.edu.np,,www.quesr.edu.np,,2010-08-22
Radha Damodar Sanskrit Vidhyapeeth,Syanja,Palpa,Nepal,075-529302(PCO),,,,,,2009-11-07
Rainbow International College,Dallu,Kathmandu,Nepal,"00977-1-4280842,4281090,4278169",,,,,,2009-11-07
Rajdhani Model College,OldBaneshwor,Kathmandu,Nepal,"00977-1-4471162,4465705",,info@rmccollege.edu.np,,rmccollege.edu.np/,,2017-08-25
Ram Mani Campus,Manigram,Bhairahawa,Nepal,560226,,,,,,2009-11-07
Ram Raja Mohan Bikram Shah Campus,"Bhawanipur,Bara",Bara,Nepal,053-550204,,,,,,2009-11-07
Ramailo Campus,Morang,Biratnagar,Nepal,"021-528002,525089",,,,,,2009-11-07
Ramananda Bisheshwor Mahendra Campus,"Jaleshwor,Mahottari",Sarlahi,Nepal,044-520144,,,,,,2009-11-07
Ramshwaroop Ramsagar Multiple Campus,Janakpur,Janakpur,Nepal,041-520174,,,,,,2009-11-07
Rapti Engineering College,Ghorahi,Dang,Nepal,082-562601,,,9857831684,,,2011-09-04
Ratna Rajya Laxmi Campus,ExhibitionRoad,Kathmandu,Nepal,00977-1-4225819,,,,,,2009-11-07
Reliance College,Chabahil,Kathmandu,Nepal,"00977-1-4810529,4811552",,,,,,2010-04-19
Reliance International Academy,Chabahil,Kathmandu,Nepal,"00977-1-4478836,9851055016","809,ktm",ria@mail.com.np,,www.rianepal.edu.np,	00977-1-4811763,2009-11-07
Republica College,Kupondole,Kathmandu,Nepal,"00977-1-5528307,5521235",,info@republicacollege.edu.np,,www.republicacollege.edu.np,,2011-06-15
Resunga Campus,Gulmi,Gulmi,Nepal,079-520145,,,,,,2009-11-07
Rising Star College of Management,Bafal,Kathmandu,Nepal,"00977-1-4273761,4271467",8974EPC2199,info@risingstar.edu.np,,www.risingstar.edu.np,,2011-06-24
Ritz Hospitality Management College,Balkumari,Lalitpur,Nepal,"5538188,5539060",,info@ritzhospitality.edu.np,,www.ritzhospitality.edu.np,,2011-07-26
Royal Medical College,Kapan,Kathmandu,Nepal,00977-1-4810500,"3874,Ktm",rmcollege@enet.com.np,,www.rmc.edu.np,	00977-1-4810781,2009-11-07
Ruru Sanskrit Vidhyapeeth,Gulmi,Gulmi,Nepal,079-529440,,,,,,2009-11-07
S.S.M. Yadav Campus,Siraha,Siraha,Nepal,033-520082,,,,,,2009-11-07
Sagarmatha College for Higher Studies,Dillibazar,Kathmandu,Nepal,"00977-1-4433810,4433334","19363,Ktm",smcoll@wlink.com.np,,,	00977-1-4433190,2009-11-07
Sagarmatha College of Science & Techology,Sanepa,Kathmandu,Nepal,"00977-1-5527274,5547463","19910,Ktm",info@sagarmatha.edu.np,,www.sagarmatha.edu.np,	00977-1-5548252,2011-08-07
Sagarmatha Engineering College,Sanepa,Lalitpur,Nepal,"5527274,5547463","19910,Ktm",info@sagarmatha.edu.np,,www.sagarmatha.edu.np,	5548252,2010-09-17
Sagarmatha Multiple College,Dillibazar,Kathmandu,Nepal,"00977-1-4433334,4433810","19363,Ktm",smcoll@wlink.com.np,,www.smcollege.edu.np,	00977-1-4433190,2009-11-07
Sagarmatha Technical College,Bharatpur,Chitwan,Nepal,056-526028,,,9855063986,,,2017-07-17
Saheed Campus,"Rampur,Palpa",Palpa,Nepal,075-529412,"19363,Ktm",,,,,2009-11-07
Sahid Smarak College,Kirtipur,Kathmandu,Nepal,00977-1-4333937,,,,,,2009-11-07
Samajik College,Lokanthali,Bhaktapur,Nepal,6638497,,info@samajikcollege.edu.np,,www.samajikcollege.edu.np,,2015-09-25
Samarpan Academy,Dhumbarahi,Kathmandu,Nepal,00977-1-4008181,,info@tuicms.edu.np,"00977-9849480639,9841726441",,,2015-10-06
Sanjeevani College of Medical Sciences (SCMS),"Butwal-12,KalikaNagar",Bhairahawa,Nepal,"071-438654,437092",,info@sanjeevani.edu.np,9857032196,www.sanjeevani.edu.np,	071-438387,2015-09-27
Sankhuwasabha Multiple Campus,"Chainpur,Sankhuwasabha",Bhojpur,Nepal,029-570208,,,,,,2009-11-07
SANN Institute of Nursing (SION),Gairidhara,Kathmandu,Nepal,"00977-1-4258548,4252701,4258552","7157,Ktm",info@sion.edu.np,,www.sion.edu.np,	00977-1-4258547,2009-11-07
Sanothimi Campus,Sanothimi,Bhaktapur,Nepal,"6630790,6610783,6630283",,,,,,2009-11-07
Sarada Vidhyapeeth,Kanchanpur,Kanchanpur,Nepal,099-521061,,,,,,2009-11-07
Saraswati Multiple Campus,LekhnathMarg,Kathmandu,Nepal,"00977-1-4412272,4411971",,,,,,2009-11-07
Sarlahi Campus,Malangwa,Sarlahi,Nepal,046-520373,,,,,,2009-11-07
School of Environmental Science And Management,Mid-Baneshwor,Kathmandu,Nepal,"00977-1-4482475,4465118",,mail@schems.edu.np,,www.schems.edu.np,	00977-1-4465119,2009-11-07
School of Public Health & Technical Studies,Bichbazar,Dhading,Nepal,010-521049,,,,,,2017-07-17
Seabird International HSS/College,MadhyapurThimi,Bhaktapur,Nepal,"6631448,6636567",,info@seabird.edu.np,,www.seabird.edu.np,,2010-09-03
SEI,Putalisadak,Kathmandu,Nepal,"00977-1-4168187,4168317",,sei@enet.com.np,,,,2009-11-07
Seti-Mahakali Nursing Campus,Mahendranagar,Kanchanpur,Nepal,"099-524498,521917",,,,,	099-521501,2009-11-07
Shanker Dev Campus,Putalisadak,Kathmandu,Nepal,"00977-1-4218016,4240556",8974CPC370,info@shankerdevcampus.edu.np,,www.shankerdevcampus.edu.np,,2009-11-07
Shanti Nikunj School,BhagwatiBahal,Kathmandu,Nepal,00977-1-4258145,,,,,,2009-11-07
Sharda University,BuddhaNagar,Kathmandu,Nepal,00977-1-4785557,,,"00977-9843052403,9861436104",www.sharda.ac.in,,2017-08-22
Shepherd College,NewBaneshwor,Kathmandu,Nepal,"00977-1-4488274,4487748","P.O.Box8269,ktm",info@shepherd.edu.np,00977-9843146056,www.shepherd.edu.np,	00977-1-4487748,2009-11-07
Shine International College,NewBaneshwor,Kathmandu,Nepal,00977-1-4782240,,info@sic.edu.np,,www.sic.edu.np,	00977-1-4461609,2011-02-24
Shraddha Institute of Health Science,Thimi,Bhaktapur,Nepal,"6632394,6631613,6639420",,,,,,2017-07-14
Shree Medical & Technical College,Bharatpur-12,Chitwan,Nepal,"056-527897,522911",,,,www.shreemedical.edu.np,,2017-08-22
Shubashree College,Gairigaun,Kathmandu,Nepal,"00977-1-4460397,016221191","4289,Ktm",,,,,2009-11-07
Siddhanath Science Campus,Mahendranagar,Kanchanpur,Nepal,099-521220,,,,,,2009-11-07
Siddhartha Banasthali Science Campus,Balaju,Kathmandu,Nepal,00977-1-4353099,,rupak@siddhartha.wlink.com.np,,,	00977-1-4350078,2009-11-07
Siddhartha College,Bafal,Kathmandu,Nepal,"00977-1-4284666,4278632",,,,,,2010-07-11
Siddhartha Gautam Buddha Campus,Rupandehi,Bhairahawa,Nepal,520135,,,,,,2009-11-07
Siddhartha Multiple Campus,Mahendranagar,Kanchanpur,Nepal,099-521253,,,,,,2009-11-07
Siddhartha Multiple College,Bafal,Kathmandu,Nepal,"00977-1-4284666,4278632",,,,,,2009-11-07
Siddhartha University,Thaina,Kathmandu,Nepal,00977-1-5530607,,siddharthauniversity@hotmail.com,,www.siddharthauniversity.org.np,	00977-1-5534967,2009-11-07
Siddhartha Vanasthali Institute,Balaju,Kathmandu,Nepal,"00977-1-4350075,4350884",,rupak@sidarth.wlink.com.np,,,	00977-1-4352078,2009-11-07
Silkroad International College,Basundhara,Kathmandu,Nepal,00977-1-4374168,,silkroad@sicollege.edu.np,00977-9851024576,www.sicollege.edu.np,,2010-09-21
Silver Mountain Graduate Business School,Lainchour,Kathmandu,Nepal,"00977-1-4415038,4429151","8856,Ktm",info@silvermountain.edu.np,00977-9851049329,www.silvermountain.edu.np,	00977-1-4444086,2009-11-07
Silver Mountain School of Hotel Management (SMSH),Lainchaur,Kathmandu,Nepal,"00977-1-4415038,4429151",,admission@silvermountain.edu.np,,www.silvermountain.edu.np,,2009-11-07
Sindhuli Campus,Sindhuli,Sindhuli,Nepal,047-520147,,,,,,2009-11-07
Sindhuli Multiple College,Kamalamai,Sindhuli,Nepal,047-520066,,,9844040071,,,2010-09-14
Sirius College,Bafal,Kathmandu,Nepal,"00977-1-4272120,4272627",,,,,,2010-07-19
SK College,Gyaneshwor,Kathmandu,Nepal,00977-1-4440992,,,,,,2009-11-07
Skylark College of Management and Technology,Putalisadak,Kathmandu,Nepal,"00977-1-4434833,4438566","23458,Ktm",info@skylarkcollege.edu.np,,www.skylarkcollege.edu.np,,2011-02-15
Snatak Campus,Darchula,Darchula,Nepal,093-420238,,,,,,2009-11-07
Snatakottar Campus,Biratnagar,Biratnagar,Nepal,526327,,,,,,2009-11-07
Soch College of Information Technology,Ranipauwa,Pokhara,Nepal,061-540120,,mail@sochcollege.edu.np,,www.sochcollege.edu.np,,2015-09-25
Softwarica College of IT and E-Commerce,Dillibazar,Kathmandu,Nepal,"00977-1-4441577,4425661",8975EPC5702,info@softwarica.edu.np,,www.softwarica.edu.np,,2009-11-07
Solukhumbhu Campus,"Solu,Solukhumbhu",Solukhumbu,Nepal,038-620225,,,,,,2009-11-07
South Asian Institute of Technology (SAIT),"Sundhara,Patan",Lalitpur,Nepal,5536975,"944,Ktm",info@sait.edu.np,,www.sait.edu.np,	5536975,2009-11-07
Southwestern Business College,Basundhara,Kathmandu,Nepal,"00977-1-4381005,012297876",8975EPC5343,info@swbusinesscollege.edu.np,00977-9867210391,www.swbusinesscollege.edu.np,	00977-1-4356482,2010-07-01
Sringiswor Campus,Gulmi,Gulmi,Nepal,079-529334,,,,,,2009-11-07
SS College,MadhyapurThimi,Kathmandu,Nepal,"00977-1-5639069,5639470",,sscollegethimi14@gmail.com,,,,2017-03-15
St. James College,Siphal,Kathmandu,Nepal,00977-1-4462650,8973NPC808,jansen001@hotmail.com,,www.stjamescollege.com.net,,2009-11-07
St. Lawrence College,Chabahil,Kathmandu,Nepal,"00977-1-4487864,4460996,4469666","1221,Ktm",info@stlawrence.edu.np,,www.stlawrence.edu.np,,2009-11-07
St. Paul College,Lalitpur,Kathmandu,Nepal,00977-1-5536993,,,00977-9841302343,,,2010-07-25
St. Xavier's College,Maitighar,Kathmandu,Nepal,"00977-1-4244636,4221365","7437,Ktm",ktm@sxc.edu.np,,www.sxc.edu.np,,2009-11-07
Star Engineering College,Dhobighat,Kathmandu,Nepal,00977-1-5529246,"3844,Ktm",starenggc@wlink.com.np,,,,2009-11-07
Subhakamana College,MitraPark,Kathmandu,Nepal,00977-1-4487691,,,"00977-9851119398,9841823384",,,2017-10-13
Subhashree Academic International College,Tinkune,Kathmandu,Nepal,"00977-1-4479850,4498538",,nasacollege@yahoo.com,,,,2017-09-13
Sukuna Campus,"Indrapur,Morang",Biratnagar,Nepal,539717,,,,,,2009-11-07
Sunkoshi Campus,"Ratamata,Sindhuli",Sindhuli,Nepal,047-520190,,,,,,2009-11-07
Sunsari Technical College,Laxmisadak,Dharan,Nepal,"025-523262,534013",,,9852020615,www.stc.edu.np,	025-533302,2010-08-02
Sunway International Business School,MidBaneshwor,Kathmandu,Nepal,"00977-1-4464524,4464525",,info@sunway.edu.np,,www.sunway.edu.np,,2011-09-13
Surkhet Campus,Birendranagar,Surkhet,Nepal,"083-520298,520125",,,,,,2009-11-07
Sushma Koirala Memorial Nursing Campus,Battisputali,Kathmandu,Nepal,"00977-1-4489288,4488375",,skmnc_ktm@yahoo.com,,www.skmnc-ktm.com,	00977-1-4421544,2009-11-07
SV Academy Multiple College,NewBaneshwor,Kathmandu,Nepal,"00977-1-47893913,4784444",,mail@svacademy.edu.np,,www.svacademy.edu.np,,2009-11-07
Swami Vivekananda Faculty of Tourism,KediaSewaGram,Birgunj,Nepal,"051-528793,522092",,kedia@atcnet.com.np,,,	051-522086,2009-11-07
Swastik College,Gattaghar,Bhaktapur,Nepal,6635174,,info@swastikcollege.edu.np,,www.swastikcollege.edu.np,,2015-09-25
Sworga Dwari Campus,Pyuthan,Pyuthan,Nepal,086-460089,,,,,,2009-11-07
Tansen Multiple Campus,Palpa,Palpa,Nepal,075-520597,,,,,,2009-11-07
Tej Ganga Mahavidhalaya,Panauti,Banepa,Nepal,011-661028,,,,,,2009-11-07
Thakur Ram Multiple Campus,AdarshaNagar,Birgunj,Nepal,"522187,522580",,,,,,2009-11-07
Thames College,OldBaneshwor,Kathmandu,Nepal,"00977-1-4499324,4464584",,info@thamescollege.edu.np,,www.thamescollege.edu.np,,2010-05-04
Thapathali Campus,Thapathali,Kathmandu,Nepal,"00977-1-4246307,4246465","280,Ktm",tcampus@mos.com.np,,,	00977-1-4247340,2009-11-07
The British College,"TheTradeTower,Thapathali",Kathmandu,Nepal,00977-1-5111100/1/2,,vpariyar@thebritishcollege.edu.np,,www.thebritishcollege.edu.np/,	00977-1-5111103,2015-04-05
The School of Pharmaceutical & Biomedical Sciences,Simalchaur,Pokhara,Nepal,"061-532767,528467",,pubasnet@fewanet.com.np,,,	061-539218,2009-11-07
Tikapur College,"Tikapur,Kailali",Kailali,Nepal,091-560088,,,,,,2009-11-07
Tilottama Campus,"TilottamaNagar,Butwal",Bhairahawa,Nepal,"071-548659,542659",,tillotma_btw@wlink.com,,,	071-548659,2009-11-07
Times Business School,Putalisadak,Kathmandu,Nepal,"00977-1-2040783,4418019",,,,,,2010-01-15
Topper Management College,Sanepa,Lalitpur,Nepal,5527143,,,9841667391,,,2011-02-26
Training Institute for Technical Instruction,Sanothimi,Bhaktapur,Nepal,"6630187,6630409","5694,Ktm",titi@mos.com.np,,www.titi.org.np,	6630289,2009-11-07
Tribhuvan Adarsha Campus,"Putalibazar,Syanja",Syangja,Nepal,063-420214,,,,,,2009-11-07
Tribhuvan Multiple Campus,Palpa,Palpa,Nepal,075-520114,,,,,,2009-11-07
Tribhuvan University,Kirtipur,Kathmandu,Nepal,"00977-1-4330433,4330434","8212,Ktm",vcoffice@healthnet.org.np,,www.tribhuvan-university.edu.np,	00977-1-4331964,2009-11-07
Tribhuvan University (Office of the Examination Controller),Balkhu,Kathmandu,Nepal,00977-1-4283913,,,,,,2009-11-07
Trichandra Multiple Campus,Ghantaghar,Kathmandu,Nepal,00977-1-4244047,,,,,,2009-11-07
Trijuga Janata Campus,Gaighat,Udaypur,Nepal,035-420504,,,,,,2009-11-07
Trinity International College,Dillibazar,Kathmandu,Nepal,"00977-1-4445955,4445956","26111,Ktm",info@trinitycollege.edu.np,,www.trinitycollege.edu.np,	00977-1-4437867,2009-11-07
Triton International College,"Tinkune,Suvidhanagar",Kathmandu,Nepal,"00977-1-4460350,4491735",,info@triton.edu.np,,www.triton.edu.np,,2009-11-07
U2 College,Chabahil,Kathmandu,Nepal,"00977-1-4822911,4812480",,u2infinity@gmail.com,,,,2011-06-02
Udaya Shree Campus,Udayapur,Udaypur,Nepal,035-421037,,,,,,2009-11-07
Uniglobe College,NewBaneshwor,Kathmandu,Nepal,"00977-1-4115690,4115569",,mail@uniglobe.edu.np,,www.uniglobe.edu.np,,2010-08-01
Unique College of Management,Kumaripati,Kathmandu,Nepal,00977-1-5550010,,puspa555@hotmail.com,00977-9841975527,,	00977-1-5525403,2009-11-07
Unique Educational Academy,Rajbiraj,Saptari,Nepal,"031-520531,520662",,,9842820748,,,2009-11-15
United College,Kumaripati,Lalitpur,Nepal,"5537527,5537530,5538938",8978EPC1195,info@united.edu.np,,www.united.edu.np,,2012-04-12
United Technical College,Bharatpur-11,Chitwan,Nepal,"056-526331,056-527982",,unitedtechnicalcollege@gmail.com,9855050860,www.unitedtechnicalcollege.edu.np,,2017-09-05
Universal College,Maitidevi,Kathmandu,Nepal,"00977-1-4442775,4428321","10414,Ktm",univcollege@wlink.com.np,,www.uc.edu.np,	00977-1-4443532,2009-11-07
Universal College of Medical Sciences,Kamaladi,Kathmandu,Nepal,00977-1-4240384,8975EPC5383,uempirektm@wlink.com.np,00977-9851020829,,	00977-1-4254066,2009-11-07
Universal Engineering And Science College,Chakupat,Lalitpur,Nepal,"5260419,5260592",,,,,,2015-09-23
Universal Science College,Chakupat,Kathmandu,Nepal,00977-1-5260419,8975EPC2152,usc@universalsc.edu.np,00977-9851134961,www.universalsc.edu.np,,2011-08-11
University Campus,Kirtipur,Kathmandu,Nepal,00977-1-4331032,,,,,,2009-11-07
University Grants Commission,Sanothimi,Kathmandu,Nepal,"00977-1-6638548,6638549,6638550","10796,Ktm",ugc@ugcnepal.edu.np,,www.ugcnepal.edu.np,	00977-1-6638552,2009-11-07
Urlabari Campus,"Urlabari,Morang",Biratnagar,Nepal,021-540061,,,,,,2009-11-07
V. S. Niketan College,Minbhawan,Kathmandu,Nepal,"00977-1-4495073,4482715","2751,Ktm",vsn@ub.edu.np,,,	00977-1-4478379,2009-11-07
Valley College of Engineering,Koteshwor,Kathmandu,Nepal,00977-1-4602474,,,00977-9741180956,,,2010-09-03
Valley College of Hospitality & Tourism Management,Gyaneshwor,Kathmandu,Nepal,00977-1-4435188,"4901,Ktm",info@vchm.edu.np,,www.vchm.edu.np,,2011-09-15
Valley College of Technical Science,Sitapaila,Kathmandu,Nepal,00977-1-4033127,,info@valleycollege.edu.np,00977-9849550876,www.valleycollege.edu.np,	00977-1-4033115,2009-11-07
Vinayak College of Health Science,Battisputali,Kathmandu,Nepal,"00977-1-4464505,9841295414",8975EPC6001,,,,	00977-1-4482519,2009-11-07
Viswa Niketan Science Campus,Balaju,Kathmandu,Nepal,"00977-1-4350270,4357328","8908,Ktm",ncollege@ncts.edu.np,,,	00977-1-4356571,2009-11-07
Waling Campus,"Waling,Syanja",Syangja,Nepal,063-440224,,,,,,2009-11-07
Welhams College,NewBaneshwor,Kathmandu,Nepal,00977-1-4482982,,welhamscollege@gmail.com,00977-9801021076,www.welhamscollege.com,,2010-07-20
Western Region Engineering Campus,Deep,Pokhara,Nepal,061-440158,,,,,,2009-11-07
Whitehouse College of Science and Engineering,Khumaltar,Lalitpur,Nepal,5548317,"26314,Ktm",bebit@whitehouse.edu.np,,www.whitehouse.edu.np,,2010-04-25
Whitehouse Graduate School of Management,NewBaneshwor,Kathmandu,Nepal,"00977-1-4466531,44665324466533",,gsm@whitehouse.edu.np,,www.whitehouse.edu.np,,2010-07-22
Wittenborg Institute Kathmandu,Thapathali,Kathmandu,Nepal,00977-1-4231710,,info@wittenborgcampus.com.np,,www.wittenborgcampus.com.np,	00977-1-4231710,2009-11-07
Xavier Academy,Lazimpat,Kathmandu,Nepal,"00977-1-4430025,4424289","833,Ktm",info@xa.edu.np,,www.xa.edu.np,	00977-1-4424287,2009-11-07
Xavier International College,Kalopul,Kathmandu,Nepal,"00977-1-4439471,4439472,4439491","23603,Ktm",info@xavier.edu.np,,www.xavier.edu.np,	00977-1-4439492,2009-11-07
Ya. Wa. La. Na. Vidhyapeeth,Mahottari,Sarlahi,Nepal,044-529532,,,,,,2009-11-07
Yeti Health,Lazimpat,Kathmandu,Nepal,"00977-1-4428349,4418134",,info@yhsa.edu.np,,www.yhsa.edu.np,	00977-1-4439512,2009-11-07
Yogendra Thakur Educational Academy,Lahan,Siraha,Nepal,033-560334,,beamael@brt.wlink.com.np,,,,2009-11-07
Youth Vision College,Balaju,Kathmandu,Nepal,00977-1-4353622,,yvc@enet.com.np,,www.youthvisioncollege.com,,2009-11-07
Zenith International College,Tintoliya,Biratnagar,Nepal,021-524731,,zinbrt@wlink.com.np,,,,2011-01-23
Zenith Study Center Pvt. Ltd.,Kupondole,Lalitpur,Nepal,5524901,,admin@nps.edu.np,9841092307,www.nps.edu.np,,2009-11-07
